{"type": "FeatureCollection", "name": "barrier-lakes", "crs": {"type": "name", "properties": {"name": "urn:ogc:def:crs:OGC:1.3:CRS84"}}, "xy_coordinate_resolution": 1e-06, "features": [{"type": "Feature", "properties": {"area_ha": 19.5, "EventCode": "FL20260826NPL", "source": "United Nations Satellite Centre (UNOSAT), barrier lakes, CARTOSAT-3 28 Aug 2026", "source_url": "https://data.humdata.org/dataset/newly-formed-barrier-lakes-following-an-ice-rock-avalanche-in-rasuwa-district-nepal-as-of-", "licence": "CC BY-SA (version not stated by the publisher)", "retrieved": "2026-09-05", "tier": "observed"}, "geometry": {"type": "Polygon", "coordinates": [[[85.510999, 28.295527], [85.511434, 28.294901], [85.511764, 28.294674], [85.51206, 28.294771], [85.512389, 28.294527], [85.512421, 28.29428], [85.512627, 28.293927], [85.512669, 28.293568], [85.512892, 28.293318], [85.513162, 28.293177], [85.513339, 28.292805], [85.513274, 28.292464], [85.512979, 28.292347], [85.513005, 28.292044], [85.513121, 28.29206], [85.513142, 28.291987], [85.512792, 28.292002], [85.512585, 28.291853], [85.512524, 28.291653], [85.512188, 28.29164], [85.512028, 28.291561], [85.512102, 28.291356], [85.511972, 28.291083], [85.512099, 28.290902], [85.512031, 28.290614], [85.512518, 28.290328], [85.512397, 28.289939], [85.512244, 28.289958], [85.512148, 28.290271], [85.511903, 28.29051], [85.511893, 28.29065], [85.511739, 28.290641], [85.511476, 28.290783], [85.511299, 28.290629], [85.511186, 28.290643], [85.510835, 28.29012], [85.510235, 28.28975], [85.509928, 28.289912], [85.509731, 28.29034], [85.509252, 28.290948], [85.509241, 28.291066], [85.509351, 28.291192], [85.509125, 28.291595], [85.509149, 28.291733], [85.50893, 28.292415], [85.509116, 28.293002], [85.508912, 28.293224], [85.509015, 28.293489], [85.508854, 28.293671], [85.508921, 28.293832], [85.508773, 28.293998], [85.508772, 28.294296], [85.508318, 28.295519], [85.508479, 28.295569], [85.508675, 28.295414], [85.508851, 28.295429], [85.508973, 28.295249], [85.509281, 28.295156], [85.509358, 28.295026], [85.509454, 28.295009], [85.509572, 28.295114], [85.509417, 28.295227], [85.50941, 28.29534], [85.509804, 28.295416], [85.510168, 28.295339], [85.510239, 28.29545], [85.510128, 28.295575], [85.510242, 28.295714], [85.510643, 28.295785], [85.510785, 28.295726], [85.51096, 28.295791], [85.510999, 28.295527]]]}}, {"type": "Feature", "properties": {"area_ha": 11.9, "EventCode": "FL20260826NPL", "source": "United Nations Satellite Centre (UNOSAT), barrier lakes, CARTOSAT-3 28 Aug 2026", "source_url": "https://data.humdata.org/dataset/newly-formed-barrier-lakes-following-an-ice-rock-avalanche-in-rasuwa-district-nepal-as-of-", "licence": "CC BY-SA (version not stated by the publisher)", "retrieved": "2026-09-05", "tier": "observed"}, "geometry": {"type": "Polygon", "coordinates": [[[85.483034, 28.334163], [85.483994, 28.33404], [85.484369, 28.333715], [85.484782, 28.333618], [85.485315, 28.333276], [85.485439, 28.333001], [85.485555, 28.332998], [85.485685, 28.332802], [85.486027, 28.332563], [85.486185, 28.332083], [85.48578, 28.331831], [85.485486, 28.331765], [85.485569, 28.331476], [85.485153, 28.331767], [85.485118, 28.332116], [85.484931, 28.332392], [85.484648, 28.332499], [85.484356, 28.332454], [85.484185, 28.332305], [85.483923, 28.332346], [85.483577, 28.33182], [85.483158, 28.331934], [85.48304, 28.332061], [85.482523, 28.332117], [85.48216, 28.33187], [85.481931, 28.332031], [85.481828, 28.331844], [85.481617, 28.33194], [85.48156, 28.331833], [85.480921, 28.332141], [85.480864, 28.332235], [85.480673, 28.332186], [85.480357, 28.33228], [85.479968, 28.332121], [85.479716, 28.332186], [85.479124, 28.332162], [85.478718, 28.332345], [85.478278, 28.332311], [85.477784, 28.332486], [85.47766, 28.332737], [85.477548, 28.332796], [85.477371, 28.332799], [85.477077, 28.332631], [85.476813, 28.332773], [85.476688, 28.332956], [85.476685, 28.33308], [85.476921, 28.333124], [85.477387, 28.332973], [85.477977, 28.333039], [85.478503, 28.332993], [85.479362, 28.33311], [85.480047, 28.333036], [85.480939, 28.33316], [85.481128, 28.333254], [85.481443, 28.333238], [85.481841, 28.333344], [85.482302, 28.334003], [85.482473, 28.333966], [85.483034, 28.334163]]]}}]}
