{"type": "FeatureCollection", "name": "bridges", "crs": {"type": "name", "properties": {"name": "urn:ogc:def:crs:OGC:1.3:CRS84"}}, "xy_coordinate_resolution": 1e-06, "features": [{"type": "Feature", "properties": {"name": null, "name_en": null, "status": "Standing", "km": 76.62, "off_m": 40.9, "band": "lower", "source": "Humanitarian OpenStreetMap Team, Nepal Flood 2026 Flood Affected Area", "source_url": "https://data.humdata.org/dataset/hot_flood_npl", "licence": "ODbL 1.0, (c) OpenStreetMap contributors", "retrieved": "2026-09-05", "tier": "observed"}, "geometry": {"type": "LineString", "coordinates": [[85.082136, 27.855622], [85.081026, 27.857491]]}}, {"type": "Feature", "properties": {"name": null, "name_en": null, "status": "Standing", "km": 103.72, "off_m": 29.9, "band": "lower", "source": "Humanitarian OpenStreetMap Team, Nepal Flood 2026 Flood Affected Area", "source_url": "https://data.humdata.org/dataset/hot_flood_npl", "licence": "ODbL 1.0, (c) OpenStreetMap contributors", "retrieved": "2026-09-05", "tier": "observed"}, "geometry": {"type": "LineString", "coordinates": [[84.904064, 27.806284], [84.904188, 27.808107]]}}, {"type": "Feature", "properties": {"name": "devighat-Tadi bridge", "name_en": null, "status": "Destroyed", "km": 73.71, "off_m": 211.7, "band": "lower", "source": "Humanitarian OpenStreetMap Team, Nepal Flood 2026 Flood Affected Area", "source_url": "https://data.humdata.org/dataset/hot_flood_npl", "licence": "ODbL 1.0, (c) OpenStreetMap contributors", "retrieved": "2026-09-05", "tier": "observed"}, "geometry": {"type": "LineString", "coordinates": [[85.10889, 27.858344], [85.109239, 27.858868]]}}, {"type": "Feature", "properties": {"name": "Belkhu Khola Bridge", "name_en": "Belkhu Khola Bridge", "status": "Standing", "km": 97.03, "off_m": 258.3, "band": "lower", "source": "Humanitarian OpenStreetMap Team, Nepal Flood 2026 Flood Affected Area", "source_url": "https://data.humdata.org/dataset/hot_flood_npl", "licence": "ODbL 1.0, (c) OpenStreetMap contributors", "retrieved": "2026-09-05", "tier": "observed"}, "geometry": {"type": "LineString", "coordinates": [[84.951044, 27.813431], [84.951608, 27.813387]]}}, {"type": "Feature", "properties": {"name": null, "name_en": null, "status": "Destroyed", "km": 20.16, "off_m": 49.3, "band": "middle", "source": "Humanitarian OpenStreetMap Team, Nepal Flood 2026 Flood Affected Area", "source_url": "https://data.humdata.org/dataset/hot_flood_npl", "licence": "ODbL 1.0, (c) OpenStreetMap contributors", "retrieved": "2026-09-05", "tier": "observed"}, "geometry": {"type": "LineString", "coordinates": [[85.353084, 28.200162], [85.353106, 28.200534]]}}, {"type": "Feature", "properties": {"name": null, "name_en": null, "status": "Standing", "km": 19.89, "off_m": 0.0, "band": "upper", "source": "Humanitarian OpenStreetMap Team, Nepal Flood 2026 Flood Affected Area", "source_url": "https://data.humdata.org/dataset/hot_flood_npl", "licence": "ODbL 1.0, (c) OpenStreetMap contributors", "retrieved": "2026-09-05", "tier": "observed"}, "geometry": {"type": "LineString", "coordinates": [[85.352839, 28.20282], [85.35334, 28.202737]]}}, {"type": "Feature", "properties": {"name": "\u70ed\u7d22\u4e34\u65f6\u4fbf\u6865 \u0930\u0938\u0941\u0935\u093e\u0917\u0922\u0940\u092e\u093e \u0905\u0938\u094d\u0925\u093e\u092f\u0940 \u092e\u093f\u0924\u0947\u0930\u0940 \u092a\u0941\u0932", "name_en": null, "status": "Destroyed", "km": 10.09, "off_m": 2.9, "band": "upper", "source": "Humanitarian OpenStreetMap Team, Nepal Flood 2026 Flood Affected Area", "source_url": "https://data.humdata.org/dataset/hot_flood_npl", "licence": "ODbL 1.0, (c) OpenStreetMap contributors", "retrieved": "2026-09-05", "tier": "observed"}, "geometry": {"type": "LineString", "coordinates": [[85.378314, 28.278394], [85.378017, 28.279153]]}}, {"type": "Feature", "properties": {"name": null, "name_en": null, "status": "Standing", "km": 55.69, "off_m": 240.7, "band": "middle", "source": "Humanitarian OpenStreetMap Team, Nepal Flood 2026 Flood Affected Area", "source_url": "https://data.humdata.org/dataset/hot_flood_npl", "licence": "ODbL 1.0, (c) OpenStreetMap contributors", "retrieved": "2026-09-05", "tier": "observed"}, "geometry": {"type": "LineString", "coordinates": [[85.185768, 27.974502], [85.185922, 27.974072]]}}, {"type": "Feature", "properties": {"name": null, "name_en": null, "status": "Destroyed", "km": 59.69, "off_m": 125.5, "band": "middle", "source": "Humanitarian OpenStreetMap Team, Nepal Flood 2026 Flood Affected Area", "source_url": "https://data.humdata.org/dataset/hot_flood_npl", "licence": "ODbL 1.0, (c) OpenStreetMap contributors", "retrieved": "2026-09-05", "tier": "observed"}, "geometry": {"type": "LineString", "coordinates": [[85.161422, 27.948402], [85.161431, 27.948238]]}}, {"type": "Feature", "properties": {"name": null, "name_en": null, "status": "Destroyed", "km": 13.79, "off_m": 53.1, "band": "upper", "source": "Humanitarian OpenStreetMap Team, Nepal Flood 2026 Flood Affected Area", "source_url": "https://data.humdata.org/dataset/hot_flood_npl", "licence": "ODbL 1.0, (c) OpenStreetMap contributors", "retrieved": "2026-09-05", "tier": "observed"}, "geometry": {"type": "LineString", "coordinates": [[85.364227, 28.251933], [85.364325, 28.252084]]}}, {"type": "Feature", "properties": {"name": null, "name_en": null, "status": "Destroyed", "km": 22.55, "off_m": 59.7, "band": "middle", "source": "Humanitarian OpenStreetMap Team, Nepal Flood 2026 Flood Affected Area", "source_url": "https://data.humdata.org/dataset/hot_flood_npl", "licence": "ODbL 1.0, (c) OpenStreetMap contributors", "retrieved": "2026-09-05", "tier": "observed"}, "geometry": {"type": "LineString", "coordinates": [[85.342092, 28.18135], [85.3424, 28.181808]]}}, {"type": "Feature", "properties": {"name": null, "name_en": null, "status": "Standing", "km": 60.51, "off_m": 287.0, "band": "lower", "source": "Humanitarian OpenStreetMap Team, Nepal Flood 2026 Flood Affected Area", "source_url": "https://data.humdata.org/dataset/hot_flood_npl", "licence": "ODbL 1.0, (c) OpenStreetMap contributors", "retrieved": "2026-09-05", "tier": "observed"}, "geometry": {"type": "LineString", "coordinates": [[85.156933, 27.942816], [85.157111, 27.942741]]}}, {"type": "Feature", "properties": {"name": null, "name_en": null, "status": "Standing", "km": 85.74, "off_m": 34.6, "band": "lower", "source": "Humanitarian OpenStreetMap Team, Nepal Flood 2026 Flood Affected Area", "source_url": "https://data.humdata.org/dataset/hot_flood_npl", "licence": "ODbL 1.0, (c) OpenStreetMap contributors", "retrieved": "2026-09-05", "tier": "observed"}, "geometry": {"type": "LineString", "coordinates": [[85.022975, 27.832286], [85.021364, 27.832897]]}}, {"type": "Feature", "properties": {"name": null, "name_en": null, "status": "Standing", "km": 41.87, "off_m": 5.1, "band": "middle", "source": "Humanitarian OpenStreetMap Team, Nepal Flood 2026 Flood Affected Area", "source_url": "https://data.humdata.org/dataset/hot_flood_npl", "licence": "ODbL 1.0, (c) OpenStreetMap contributors", "retrieved": "2026-09-05", "tier": "observed"}, "geometry": {"type": "LineString", "coordinates": [[85.214671, 28.077307], [85.21508, 28.07666]]}}, {"type": "Feature", "properties": {"name": null, "name_en": null, "status": "Standing", "km": 91.57, "off_m": 37.5, "band": "lower", "source": "Humanitarian OpenStreetMap Team, Nepal Flood 2026 Flood Affected Area", "source_url": "https://data.humdata.org/dataset/hot_flood_npl", "licence": "ODbL 1.0, (c) OpenStreetMap contributors", "retrieved": "2026-09-05", "tier": "observed"}, "geometry": {"type": "LineString", "coordinates": [[84.991146, 27.804725], [84.989772, 27.803779]]}}, {"type": "Feature", "properties": {"name": "trishuli bridge", "name_en": null, "status": "Standing", "km": 63.82, "off_m": 5.9, "band": "lower", "source": "Humanitarian OpenStreetMap Team, Nepal Flood 2026 Flood Affected Area", "source_url": "https://data.humdata.org/dataset/hot_flood_npl", "licence": "ODbL 1.0, (c) OpenStreetMap contributors", "retrieved": "2026-09-05", "tier": "observed"}, "geometry": {"type": "LineString", "coordinates": [[85.14937, 27.922105], [85.149499, 27.921665]]}}, {"type": "Feature", "properties": {"name": null, "name_en": null, "status": "Destroyed", "km": 55.76, "off_m": 26.5, "band": "middle", "source": "Humanitarian OpenStreetMap Team, Nepal Flood 2026 Flood Affected Area", "source_url": "https://data.humdata.org/dataset/hot_flood_npl", "licence": "ODbL 1.0, (c) OpenStreetMap contributors", "retrieved": "2026-09-05", "tier": "observed"}, "geometry": {"type": "LineString", "coordinates": [[85.185081, 27.972434], [85.183959, 27.972526]]}}, {"type": "Feature", "properties": {"name": null, "name_en": null, "status": "Standing", "km": 154.65, "off_m": 6.3, "band": "lower", "source": "Humanitarian OpenStreetMap Team, Nepal Flood 2026 Flood Affected Area", "source_url": "https://data.humdata.org/dataset/hot_flood_npl", "licence": "ODbL 1.0, (c) OpenStreetMap contributors", "retrieved": "2026-09-05", "tier": "observed"}, "geometry": {"type": "LineString", "coordinates": [[84.561347, 27.858819], [84.561341, 27.857661]]}}, {"type": "Feature", "properties": {"name": null, "name_en": null, "status": "Destroyed", "km": 29.76, "off_m": 4.8, "band": "middle", "source": "Humanitarian OpenStreetMap Team, Nepal Flood 2026 Flood Affected Area", "source_url": "https://data.humdata.org/dataset/hot_flood_npl", "licence": "ODbL 1.0, (c) OpenStreetMap contributors", "retrieved": "2026-09-05", "tier": "observed"}, "geometry": {"type": "LineString", "coordinates": [[85.304546, 28.137564], [85.304882, 28.137411]]}}, {"type": "Feature", "properties": {"name": null, "name_en": null, "status": "Standing", "km": 106.26, "off_m": 3.4, "band": "lower", "source": "Humanitarian OpenStreetMap Team, Nepal Flood 2026 Flood Affected Area", "source_url": "https://data.humdata.org/dataset/hot_flood_npl", "licence": "ODbL 1.0, (c) OpenStreetMap contributors", "retrieved": "2026-09-05", "tier": "observed"}, "geometry": {"type": "LineString", "coordinates": [[84.880244, 27.810452], [84.880357, 27.810092], [84.880507, 27.809718], [84.880984, 27.808814]]}}, {"type": "Feature", "properties": {"name": null, "name_en": null, "status": "Standing", "km": 55.94, "off_m": 102.0, "band": "middle", "source": "Humanitarian OpenStreetMap Team, Nepal Flood 2026 Flood Affected Area", "source_url": "https://data.humdata.org/dataset/hot_flood_npl", "licence": "ODbL 1.0, (c) OpenStreetMap contributors", "retrieved": "2026-09-05", "tier": "observed"}, "geometry": {"type": "LineString", "coordinates": [[85.184827, 27.970314], [85.184898, 27.9705]]}}, {"type": "Feature", "properties": {"name": null, "name_en": null, "status": "Standing", "km": 27.84, "off_m": 205.3, "band": "middle", "source": "Humanitarian OpenStreetMap Team, Nepal Flood 2026 Flood Affected Area", "source_url": "https://data.humdata.org/dataset/hot_flood_npl", "licence": "ODbL 1.0, (c) OpenStreetMap contributors", "retrieved": "2026-09-05", "tier": "observed"}, "geometry": {"type": "LineString", "coordinates": [[85.318871, 28.145621], [85.318712, 28.145383]]}}, {"type": "Feature", "properties": {"name": null, "name_en": null, "status": "Destroyed", "km": 22.38, "off_m": 18.6, "band": "middle", "source": "Humanitarian OpenStreetMap Team, Nepal Flood 2026 Flood Affected Area", "source_url": "https://data.humdata.org/dataset/hot_flood_npl", "licence": "ODbL 1.0, (c) OpenStreetMap contributors", "retrieved": "2026-09-05", "tier": "observed"}, "geometry": {"type": "LineString", "coordinates": [[85.343197, 28.182665], [85.343835, 28.182505]]}}, {"type": "Feature", "properties": {"name": "Keurintar Hanging Bridge", "name_en": null, "status": "Standing", "km": 95.97, "off_m": 20.1, "band": "lower", "source": "Humanitarian OpenStreetMap Team, Nepal Flood 2026 Flood Affected Area", "source_url": "https://data.humdata.org/dataset/hot_flood_npl", "licence": "ODbL 1.0, (c) OpenStreetMap contributors", "retrieved": "2026-09-05", "tier": "observed"}, "geometry": {"type": "LineString", "coordinates": [[84.961429, 27.815845], [84.962311, 27.817211]]}}, {"type": "Feature", "properties": {"name": null, "name_en": null, "status": "Standing", "km": 79.84, "off_m": 148.4, "band": "lower", "source": "Humanitarian OpenStreetMap Team, Nepal Flood 2026 Flood Affected Area", "source_url": "https://data.humdata.org/dataset/hot_flood_npl", "licence": "ODbL 1.0, (c) OpenStreetMap contributors", "retrieved": "2026-09-05", "tier": "observed"}, "geometry": {"type": "LineString", "coordinates": [[85.056832, 27.853915], [85.056776, 27.853824]]}}, {"type": "Feature", "properties": {"name": null, "name_en": null, "status": "Standing", "km": 55.88, "off_m": 220.4, "band": "middle", "source": "Humanitarian OpenStreetMap Team, Nepal Flood 2026 Flood Affected Area", "source_url": "https://data.humdata.org/dataset/hot_flood_npl", "licence": "ODbL 1.0, (c) OpenStreetMap contributors", "retrieved": "2026-09-05", "tier": "observed"}, "geometry": {"type": "LineString", "coordinates": [[85.186526, 27.971187], [85.186604, 27.971151]]}}, {"type": "Feature", "properties": {"name": null, "name_en": null, "status": "Standing", "km": 54.63, "off_m": 49.0, "band": "middle", "source": "Humanitarian OpenStreetMap Team, Nepal Flood 2026 Flood Affected Area", "source_url": "https://data.humdata.org/dataset/hot_flood_npl", "licence": "ODbL 1.0, (c) OpenStreetMap contributors", "retrieved": "2026-09-05", "tier": "observed"}, "geometry": {"type": "LineString", "coordinates": [[85.179787, 27.982168], [85.179787, 27.981512]]}}, {"type": "Feature", "properties": {"name": null, "name_en": null, "status": "Standing", "km": 54.96, "off_m": 0.5, "band": "middle", "source": "Humanitarian OpenStreetMap Team, Nepal Flood 2026 Flood Affected Area", "source_url": "https://data.humdata.org/dataset/hot_flood_npl", "licence": "ODbL 1.0, (c) OpenStreetMap contributors", "retrieved": "2026-09-05", "tier": "observed"}, "geometry": {"type": "LineString", "coordinates": [[85.181074, 27.978926], [85.18169, 27.979138]]}}, {"type": "Feature", "properties": {"name": null, "name_en": null, "status": "Standing", "km": 76.68, "off_m": 190.7, "band": "lower", "source": "Humanitarian OpenStreetMap Team, Nepal Flood 2026 Flood Affected Area", "source_url": "https://data.humdata.org/dataset/hot_flood_npl", "licence": "ODbL 1.0, (c) OpenStreetMap contributors", "retrieved": "2026-09-05", "tier": "observed"}, "geometry": {"type": "LineString", "coordinates": [[85.081189, 27.854448], [85.080873, 27.854451]]}}, {"type": "Feature", "properties": {"name": null, "name_en": null, "status": "Standing", "km": 42.64, "off_m": 316.9, "band": "middle", "source": "Humanitarian OpenStreetMap Team, Nepal Flood 2026 Flood Affected Area", "source_url": "https://data.humdata.org/dataset/hot_flood_npl", "licence": "ODbL 1.0, (c) OpenStreetMap contributors", "retrieved": "2026-09-05", "tier": "observed"}, "geometry": {"type": "LineString", "coordinates": [[85.205523, 28.074441], [85.205921, 28.074684]]}}, {"type": "Feature", "properties": {"name": null, "name_en": null, "status": "Destroyed", "km": 24.31, "off_m": 0.0, "band": "middle", "source": "Humanitarian OpenStreetMap Team, Nepal Flood 2026 Flood Affected Area", "source_url": "https://data.humdata.org/dataset/hot_flood_npl", "licence": "ODbL 1.0, (c) OpenStreetMap contributors", "retrieved": "2026-09-05", "tier": "observed"}, "geometry": {"type": "LineString", "coordinates": [[85.342957, 28.165756], [85.342511, 28.165976]]}}, {"type": "Feature", "properties": {"name": null, "name_en": null, "status": "Destroyed", "km": 58.76, "off_m": 12.1, "band": "middle", "source": "Humanitarian OpenStreetMap Team, Nepal Flood 2026 Flood Affected Area", "source_url": "https://data.humdata.org/dataset/hot_flood_npl", "licence": "ODbL 1.0, (c) OpenStreetMap contributors", "retrieved": "2026-09-05", "tier": "observed"}, "geometry": {"type": "LineString", "coordinates": [[85.163916, 27.955382], [85.163812, 27.9556], [85.16357, 27.956121]]}}, {"type": "Feature", "properties": {"name": null, "name_en": null, "status": "Destroyed", "km": 16.97, "off_m": 72.4, "band": "upper", "source": "Humanitarian OpenStreetMap Team, Nepal Flood 2026 Flood Affected Area", "source_url": "https://data.humdata.org/dataset/hot_flood_npl", "licence": "ODbL 1.0, (c) OpenStreetMap contributors", "retrieved": "2026-09-05", "tier": "observed"}, "geometry": {"type": "LineString", "coordinates": [[85.361818, 28.226301], [85.361816, 28.226675]]}}, {"type": "Feature", "properties": {"name": null, "name_en": null, "status": "Standing", "km": 150.14, "off_m": 6.0, "band": "lower", "source": "Humanitarian OpenStreetMap Team, Nepal Flood 2026 Flood Affected Area", "source_url": "https://data.humdata.org/dataset/hot_flood_npl", "licence": "ODbL 1.0, (c) OpenStreetMap contributors", "retrieved": "2026-09-05", "tier": "observed"}, "geometry": {"type": "LineString", "coordinates": [[84.592455, 27.877992], [84.593467, 27.879064]]}}, {"type": "Feature", "properties": {"name": null, "name_en": null, "status": "Standing", "km": 58.29, "off_m": 103.9, "band": "middle", "source": "Humanitarian OpenStreetMap Team, Nepal Flood 2026 Flood Affected Area", "source_url": "https://data.humdata.org/dataset/hot_flood_npl", "licence": "ODbL 1.0, (c) OpenStreetMap contributors", "retrieved": "2026-09-05", "tier": "observed"}, "geometry": {"type": "LineString", "coordinates": [[85.166502, 27.958337], [85.166678, 27.958213]]}}, {"type": "Feature", "properties": {"name": null, "name_en": null, "status": "Standing", "km": 142.47, "off_m": 40.4, "band": "lower", "source": "Humanitarian OpenStreetMap Team, Nepal Flood 2026 Flood Affected Area", "source_url": "https://data.humdata.org/dataset/hot_flood_npl", "licence": "ODbL 1.0, (c) OpenStreetMap contributors", "retrieved": "2026-09-05", "tier": "observed"}, "geometry": {"type": "LineString", "coordinates": [[84.643885, 27.861469], [84.644223, 27.859915]]}}, {"type": "Feature", "properties": {"name": "Prithvi Rajmarg", "name_en": null, "status": "Standing", "km": 144.59, "off_m": 186.1, "band": "lower", "source": "Humanitarian OpenStreetMap Team, Nepal Flood 2026 Flood Affected Area", "source_url": "https://data.humdata.org/dataset/hot_flood_npl", "licence": "ODbL 1.0, (c) OpenStreetMap contributors", "retrieved": "2026-09-05", "tier": "observed"}, "geometry": {"type": "LineString", "coordinates": [[84.63018, 27.868398], [84.630683, 27.868203]]}}, {"type": "Feature", "properties": {"name": null, "name_en": null, "status": "Standing", "km": 144.49, "off_m": 37.4, "band": "lower", "source": "Humanitarian OpenStreetMap Team, Nepal Flood 2026 Flood Affected Area", "source_url": "https://data.humdata.org/dataset/hot_flood_npl", "licence": "ODbL 1.0, (c) OpenStreetMap contributors", "retrieved": "2026-09-05", "tier": "observed"}, "geometry": {"type": "LineString", "coordinates": [[84.632365, 27.870147], [84.631644, 27.868467]]}}, {"type": "Feature", "properties": {"name": "Khatauti Khola Bridge", "name_en": "Khatauti Khola Bridge", "status": "Standing", "km": 128.99, "off_m": 321.4, "band": "lower", "source": "Humanitarian OpenStreetMap Team, Nepal Flood 2026 Flood Affected Area", "source_url": "https://data.humdata.org/dataset/hot_flood_npl", "licence": "ODbL 1.0, (c) OpenStreetMap contributors", "retrieved": "2026-09-05", "tier": "observed"}, "geometry": {"type": "LineString", "coordinates": [[84.724541, 27.798], [84.724654, 27.797941], [84.725039, 27.797744]]}}, {"type": "Feature", "properties": {"name": "Prithvi Rajmarg", "name_en": "Charaudi Khola", "status": "Standing", "km": 125.58, "off_m": 238.3, "band": "lower", "source": "Humanitarian OpenStreetMap Team, Nepal Flood 2026 Flood Affected Area", "source_url": "https://data.humdata.org/dataset/hot_flood_npl", "licence": "ODbL 1.0, (c) OpenStreetMap contributors", "retrieved": "2026-09-05", "tier": "observed"}, "geometry": {"type": "LineString", "coordinates": [[84.74964, 27.802916], [84.75025, 27.802971]]}}, {"type": "Feature", "properties": {"name": "Hugdi Khola Bridge", "name_en": "Hugdi Khola Bridge", "status": "Standing", "km": 132.68, "off_m": 149.9, "band": "lower", "source": "Humanitarian OpenStreetMap Team, Nepal Flood 2026 Flood Affected Area", "source_url": "https://data.humdata.org/dataset/hot_flood_npl", "licence": "ODbL 1.0, (c) OpenStreetMap contributors", "retrieved": "2026-09-05", "tier": "observed"}, "geometry": {"type": "LineString", "coordinates": [[84.696683, 27.807353], [84.696999, 27.807112]]}}, {"type": "Feature", "properties": {"name": null, "name_en": null, "status": "Standing", "km": 134.88, "off_m": 5.1, "band": "lower", "source": "Humanitarian OpenStreetMap Team, Nepal Flood 2026 Flood Affected Area", "source_url": "https://data.humdata.org/dataset/hot_flood_npl", "licence": "ODbL 1.0, (c) OpenStreetMap contributors", "retrieved": "2026-09-05", "tier": "observed"}, "geometry": {"type": "LineString", "coordinates": [[84.676824, 27.8152], [84.677526, 27.816021]]}}, {"type": "Feature", "properties": {"name": "Chinsengi khola Bridge", "name_en": null, "status": "Standing", "km": 156.16, "off_m": 82.5, "band": "lower", "source": "Humanitarian OpenStreetMap Team, Nepal Flood 2026 Flood Affected Area", "source_url": "https://data.humdata.org/dataset/hot_flood_npl", "licence": "ODbL 1.0, (c) OpenStreetMap contributors", "retrieved": "2026-09-05", "tier": "observed"}, "geometry": {"type": "LineString", "coordinates": [[84.559059, 27.847606], [84.559206, 27.847168]]}}, {"type": "Feature", "properties": {"name": "Trishuli Bridge", "name_en": "Trishuli Bridge", "status": "Standing", "km": 155.39, "off_m": 1.1, "band": "lower", "source": "Humanitarian OpenStreetMap Team, Nepal Flood 2026 Flood Affected Area", "source_url": "https://data.humdata.org/dataset/hot_flood_npl", "licence": "ODbL 1.0, (c) OpenStreetMap contributors", "retrieved": "2026-09-05", "tier": "observed"}, "geometry": {"type": "LineString", "coordinates": [[84.556508, 27.854175], [84.556814, 27.854115], [84.557842, 27.853912]]}}, {"type": "Feature", "properties": {"name": "Trishuli Bridge", "name_en": null, "status": "Standing", "km": 155.32, "off_m": 17.4, "band": "lower", "source": "Humanitarian OpenStreetMap Team, Nepal Flood 2026 Flood Affected Area", "source_url": "https://data.humdata.org/dataset/hot_flood_npl", "licence": "ODbL 1.0, (c) OpenStreetMap contributors", "retrieved": "2026-09-05", "tier": "observed"}, "geometry": {"type": "LineString", "coordinates": [[84.558408, 27.854412], [84.558255, 27.854412], [84.557987, 27.854495], [84.556654, 27.854889], [84.556522, 27.854915]]}}, {"type": "Feature", "properties": {"name": null, "name_en": null, "status": "Standing", "km": 78.9, "off_m": 39.5, "band": "lower", "source": "Humanitarian OpenStreetMap Team, Nepal Flood 2026 Flood Affected Area", "source_url": "https://data.humdata.org/dataset/hot_flood_npl", "licence": "ODbL 1.0, (c) OpenStreetMap contributors", "retrieved": "2026-09-05", "tier": "observed"}, "geometry": {"type": "LineString", "coordinates": [[85.061418, 27.85896], [85.0627, 27.860266]]}}, {"type": "Feature", "properties": {"name": "Trishuli River Old Bridge", "name_en": null, "status": "Standing", "km": 66.39, "off_m": 20.4, "band": "lower", "source": "Humanitarian OpenStreetMap Team, Nepal Flood 2026 Flood Affected Area", "source_url": "https://data.humdata.org/dataset/hot_flood_npl", "licence": "ODbL 1.0, (c) OpenStreetMap contributors", "retrieved": "2026-09-05", "tier": "observed"}, "geometry": {"type": "LineString", "coordinates": [[85.138036, 27.909133], [85.138162, 27.909146], [85.139055, 27.909687]]}}, {"type": "Feature", "properties": {"name": "Trishuli River Bridge", "name_en": null, "status": "Standing", "km": 66.38, "off_m": 14.6, "band": "lower", "source": "Humanitarian OpenStreetMap Team, Nepal Flood 2026 Flood Affected Area", "source_url": "https://data.humdata.org/dataset/hot_flood_npl", "licence": "ODbL 1.0, (c) OpenStreetMap contributors", "retrieved": "2026-09-05", "tier": "observed"}, "geometry": {"type": "LineString", "coordinates": [[85.138961, 27.909785], [85.138152, 27.909218]]}}, {"type": "Feature", "properties": {"name": null, "name_en": null, "status": "Standing", "km": 97.99, "off_m": 62.5, "band": "lower", "source": "Humanitarian OpenStreetMap Team, Nepal Flood 2026 Flood Affected Area", "source_url": "https://data.humdata.org/dataset/hot_flood_npl", "licence": "ODbL 1.0, (c) OpenStreetMap contributors", "retrieved": "2026-09-05", "tier": "observed"}, "geometry": {"type": "LineString", "coordinates": [[84.944518, 27.814477], [84.944627, 27.814238], [84.944716, 27.81368], [84.945167, 27.811877], [84.945384, 27.811397]]}}, {"type": "Feature", "properties": {"name": null, "name_en": null, "status": "Standing", "km": 90.37, "off_m": 212.3, "band": "lower", "source": "Humanitarian OpenStreetMap Team, Nepal Flood 2026 Flood Affected Area", "source_url": "https://data.humdata.org/dataset/hot_flood_npl", "licence": "ODbL 1.0, (c) OpenStreetMap contributors", "retrieved": "2026-09-05", "tier": "observed"}, "geometry": {"type": "LineString", "coordinates": [[85.001186, 27.80037], [85.000746, 27.800184]]}}, {"type": "Feature", "properties": {"name": null, "name_en": null, "status": "Standing", "km": 61.79, "off_m": 133.8, "band": "lower", "source": "Humanitarian OpenStreetMap Team, Nepal Flood 2026 Flood Affected Area", "source_url": "https://data.humdata.org/dataset/hot_flood_npl", "licence": "ODbL 1.0, (c) OpenStreetMap contributors", "retrieved": "2026-09-05", "tier": "observed"}, "geometry": {"type": "LineString", "coordinates": [[85.155021, 27.93074], [85.155185, 27.930823]]}}, {"type": "Feature", "properties": {"name": null, "name_en": null, "status": "Standing", "km": 79.45, "off_m": 40.0, "band": "lower", "source": "Humanitarian OpenStreetMap Team, Nepal Flood 2026 Flood Affected Area", "source_url": "https://data.humdata.org/dataset/hot_flood_npl", "licence": "ODbL 1.0, (c) OpenStreetMap contributors", "retrieved": "2026-09-05", "tier": "observed"}, "geometry": {"type": "LineString", "coordinates": [[85.058852, 27.856707], [85.056978, 27.859079]]}}, {"type": "Feature", "properties": {"name": null, "name_en": null, "status": "Standing", "km": 87.04, "off_m": 33.2, "band": "lower", "source": "Humanitarian OpenStreetMap Team, Nepal Flood 2026 Flood Affected Area", "source_url": "https://data.humdata.org/dataset/hot_flood_npl", "licence": "ODbL 1.0, (c) OpenStreetMap contributors", "retrieved": "2026-09-05", "tier": "observed"}, "geometry": {"type": "LineString", "coordinates": [[85.018756, 27.822182], [85.015316, 27.822523]]}}, {"type": "Feature", "properties": {"name": null, "name_en": null, "status": "Standing", "km": 136.25, "off_m": 4.6, "band": "lower", "source": "Humanitarian OpenStreetMap Team, Nepal Flood 2026 Flood Affected Area", "source_url": "https://data.humdata.org/dataset/hot_flood_npl", "licence": "ODbL 1.0, (c) OpenStreetMap contributors", "retrieved": "2026-09-05", "tier": "observed"}, "geometry": {"type": "LineString", "coordinates": [[84.667421, 27.82174], [84.668152, 27.821768]]}}, {"type": "Feature", "properties": {"name": null, "name_en": null, "status": "Standing", "km": 76.67, "off_m": 180.7, "band": "lower", "source": "Humanitarian OpenStreetMap Team, Nepal Flood 2026 Flood Affected Area", "source_url": "https://data.humdata.org/dataset/hot_flood_npl", "licence": "ODbL 1.0, (c) OpenStreetMap contributors", "retrieved": "2026-09-05", "tier": "observed"}, "geometry": {"type": "LineString", "coordinates": [[85.081281, 27.854551], [85.080952, 27.854533]]}}, {"type": "Feature", "properties": {"name": null, "name_en": null, "status": "Standing", "km": 90.23, "off_m": 6.0, "band": "lower", "source": "Humanitarian OpenStreetMap Team, Nepal Flood 2026 Flood Affected Area", "source_url": "https://data.humdata.org/dataset/hot_flood_npl", "licence": "ODbL 1.0, (c) OpenStreetMap contributors", "retrieved": "2026-09-05", "tier": "observed"}, "geometry": {"type": "LineString", "coordinates": [[85.002995, 27.802388], [85.002605, 27.80295]]}}, {"type": "Feature", "properties": {"name": "Nagdi khola", "name_en": "Nagdi khola", "status": "Standing", "km": 153.0, "off_m": 60.5, "band": "lower", "source": "Humanitarian OpenStreetMap Team, Nepal Flood 2026 Flood Affected Area", "source_url": "https://data.humdata.org/dataset/hot_flood_npl", "licence": "ODbL 1.0, (c) OpenStreetMap contributors", "retrieved": "2026-09-05", "tier": "observed"}, "geometry": {"type": "LineString", "coordinates": [[84.576505, 27.863272], [84.576751, 27.863332], [84.576923, 27.863404]]}}, {"type": "Feature", "properties": {"name": null, "name_en": null, "status": "Standing", "km": 88.65, "off_m": 24.5, "band": "lower", "source": "Humanitarian OpenStreetMap Team, Nepal Flood 2026 Flood Affected Area", "source_url": "https://data.humdata.org/dataset/hot_flood_npl", "licence": "ODbL 1.0, (c) OpenStreetMap contributors", "retrieved": "2026-09-05", "tier": "observed"}, "geometry": {"type": "LineString", "coordinates": [[85.012695, 27.809026], [85.013657, 27.810312]]}}, {"type": "Feature", "properties": {"name": null, "name_en": null, "status": "Standing", "km": 133.35, "off_m": 6.0, "band": "lower", "source": "Humanitarian OpenStreetMap Team, Nepal Flood 2026 Flood Affected Area", "source_url": "https://data.humdata.org/dataset/hot_flood_npl", "licence": "ODbL 1.0, (c) OpenStreetMap contributors", "retrieved": "2026-09-05", "tier": "observed"}, "geometry": {"type": "LineString", "coordinates": [[84.690742, 27.810495], [84.690492, 27.809202]]}}, {"type": "Feature", "properties": {"name": "Suspension Bridge", "name_en": null, "status": "Standing", "km": 85.87, "off_m": 33.8, "band": "lower", "source": "Humanitarian OpenStreetMap Team, Nepal Flood 2026 Flood Affected Area", "source_url": "https://data.humdata.org/dataset/hot_flood_npl", "licence": "ODbL 1.0, (c) OpenStreetMap contributors", "retrieved": "2026-09-05", "tier": "observed"}, "geometry": {"type": "LineString", "coordinates": [[85.022469, 27.831102], [85.02167, 27.831462], [85.020233, 27.832251]]}}, {"type": "Feature", "properties": {"name": "Suspension Bridge", "name_en": null, "status": "Standing", "km": 85.34, "off_m": 94.5, "band": "lower", "source": "Humanitarian OpenStreetMap Team, Nepal Flood 2026 Flood Affected Area", "source_url": "https://data.humdata.org/dataset/hot_flood_npl", "licence": "ODbL 1.0, (c) OpenStreetMap contributors", "retrieved": "2026-09-05", "tier": "observed"}, "geometry": {"type": "LineString", "coordinates": [[85.023807, 27.835134], [85.023381, 27.835267], [85.020991, 27.836224]]}}, {"type": "Feature", "properties": {"name": null, "name_en": null, "status": "Destroyed", "km": 58.75, "off_m": 0.2, "band": "middle", "source": "Humanitarian OpenStreetMap Team, Nepal Flood 2026 Flood Affected Area", "source_url": "https://data.humdata.org/dataset/hot_flood_npl", "licence": "ODbL 1.0, (c) OpenStreetMap contributors", "retrieved": "2026-09-05", "tier": "observed"}, "geometry": {"type": "LineString", "coordinates": [[85.163655, 27.956156], [85.163746, 27.955968], [85.163849, 27.95573], [85.164114, 27.955172]]}}, {"type": "Feature", "properties": {"name": null, "name_en": null, "status": "Standing", "km": 68.59, "off_m": 3.1, "band": "lower", "source": "Humanitarian OpenStreetMap Team, Nepal Flood 2026 Flood Affected Area", "source_url": "https://data.humdata.org/dataset/hot_flood_npl", "licence": "ODbL 1.0, (c) OpenStreetMap contributors", "retrieved": "2026-09-05", "tier": "observed"}, "geometry": {"type": "LineString", "coordinates": [[85.136884, 27.892431], [85.135895, 27.892215]]}}, {"type": "Feature", "properties": {"name": null, "name_en": null, "status": "Standing", "km": 148.24, "off_m": 16.1, "band": "lower", "source": "Humanitarian OpenStreetMap Team, Nepal Flood 2026 Flood Affected Area", "source_url": "https://data.humdata.org/dataset/hot_flood_npl", "licence": "ODbL 1.0, (c) OpenStreetMap contributors", "retrieved": "2026-09-05", "tier": "observed"}, "geometry": {"type": "LineString", "coordinates": [[84.608489, 27.870835], [84.608378, 27.871555], [84.608273, 27.872259]]}}, {"type": "Feature", "properties": {"name": null, "name_en": null, "status": "Standing", "km": 147.62, "off_m": 0.8, "band": "lower", "source": "Humanitarian OpenStreetMap Team, Nepal Flood 2026 Flood Affected Area", "source_url": "https://data.humdata.org/dataset/hot_flood_npl", "licence": "ODbL 1.0, (c) OpenStreetMap contributors", "retrieved": "2026-09-05", "tier": "observed"}, "geometry": {"type": "LineString", "coordinates": [[84.614761, 27.873109], [84.613223, 27.873942]]}}, {"type": "Feature", "properties": {"name": "Prithvi Rajmarg", "name_en": "Prithvi Rajmarg", "status": "Standing", "km": 112.48, "off_m": 177.9, "band": "lower", "source": "Humanitarian OpenStreetMap Team, Nepal Flood 2026 Flood Affected Area", "source_url": "https://data.humdata.org/dataset/hot_flood_npl", "licence": "ODbL 1.0, (c) OpenStreetMap contributors", "retrieved": "2026-09-05", "tier": "observed"}, "geometry": {"type": "LineString", "coordinates": [[84.835183, 27.807301], [84.835559, 27.806793]]}}, {"type": "Feature", "properties": {"name": null, "name_en": null, "status": "Standing", "km": 112.78, "off_m": 26.4, "band": "lower", "source": "Humanitarian OpenStreetMap Team, Nepal Flood 2026 Flood Affected Area", "source_url": "https://data.humdata.org/dataset/hot_flood_npl", "licence": "ODbL 1.0, (c) OpenStreetMap contributors", "retrieved": "2026-09-05", "tier": "observed"}, "geometry": {"type": "LineString", "coordinates": [[84.836434, 27.810225], [84.834804, 27.810162]]}}, {"type": "Feature", "properties": {"name": null, "name_en": null, "status": "Standing", "km": 115.4, "off_m": 18.9, "band": "lower", "source": "Humanitarian OpenStreetMap Team, Nepal Flood 2026 Flood Affected Area", "source_url": "https://data.humdata.org/dataset/hot_flood_npl", "licence": "ODbL 1.0, (c) OpenStreetMap contributors", "retrieved": "2026-09-05", "tier": "observed"}, "geometry": {"type": "LineString", "coordinates": [[84.821491, 27.811075], [84.823264, 27.811276]]}}, {"type": "Feature", "properties": {"name": "Gomati Bridge", "name_en": "Prithvi Rajmarga", "status": "Standing", "km": 119.77, "off_m": 241.0, "band": "lower", "source": "Humanitarian OpenStreetMap Team, Nepal Flood 2026 Flood Affected Area", "source_url": "https://data.humdata.org/dataset/hot_flood_npl", "licence": "ODbL 1.0, (c) OpenStreetMap contributors", "retrieved": "2026-09-05", "tier": "observed"}, "geometry": {"type": "LineString", "coordinates": [[84.787709, 27.812362], [84.787868, 27.812285], [84.787946, 27.812247], [84.788165, 27.812145]]}}, {"type": "Feature", "properties": {"name": null, "name_en": null, "status": "Standing", "km": 121.68, "off_m": 15.1, "band": "lower", "source": "Humanitarian OpenStreetMap Team, Nepal Flood 2026 Flood Affected Area", "source_url": "https://data.humdata.org/dataset/hot_flood_npl", "licence": "ODbL 1.0, (c) OpenStreetMap contributors", "retrieved": "2026-09-05", "tier": "observed"}, "geometry": {"type": "LineString", "coordinates": [[84.773269, 27.80823], [84.773829, 27.809411]]}}, {"type": "Feature", "properties": {"name": null, "name_en": null, "status": "Standing", "km": 121.24, "off_m": 18.9, "band": "lower", "source": "Humanitarian OpenStreetMap Team, Nepal Flood 2026 Flood Affected Area", "source_url": "https://data.humdata.org/dataset/hot_flood_npl", "licence": "ODbL 1.0, (c) OpenStreetMap contributors", "retrieved": "2026-09-05", "tier": "observed"}, "geometry": {"type": "LineString", "coordinates": [[84.777964, 27.810157], [84.777229, 27.810487], [84.776535, 27.81083]]}}, {"type": "Feature", "properties": {"name": "Trishuli Naya Pul", "name_en": null, "status": "Standing", "km": 63.99, "off_m": 9.5, "band": "lower", "source": "Humanitarian OpenStreetMap Team, Nepal Flood 2026 Flood Affected Area", "source_url": "https://data.humdata.org/dataset/hot_flood_npl", "licence": "ODbL 1.0, (c) OpenStreetMap contributors", "retrieved": "2026-09-05", "tier": "observed"}, "geometry": {"type": "LineString", "coordinates": [[85.147876, 27.921545], [85.147967, 27.921201], [85.148048, 27.920899]]}}, {"type": "Feature", "properties": {"name": null, "name_en": null, "status": "Standing", "km": 43.74, "off_m": 2.9, "band": "middle", "source": "Humanitarian OpenStreetMap Team, Nepal Flood 2026 Flood Affected Area", "source_url": "https://data.humdata.org/dataset/hot_flood_npl", "licence": "ODbL 1.0, (c) OpenStreetMap contributors", "retrieved": "2026-09-05", "tier": "observed"}, "geometry": {"type": "LineString", "coordinates": [[85.206078, 28.065032], [85.206494, 28.065341]]}}, {"type": "Feature", "properties": {"name": null, "name_en": null, "status": "Standing", "km": 124.85, "off_m": 18.4, "band": "lower", "source": "Humanitarian OpenStreetMap Team, Nepal Flood 2026 Flood Affected Area", "source_url": "https://data.humdata.org/dataset/hot_flood_npl", "licence": "ODbL 1.0, (c) OpenStreetMap contributors", "retrieved": "2026-09-05", "tier": "observed"}, "geometry": {"type": "LineString", "coordinates": [[84.755223, 27.809336], [84.75693, 27.808491]]}}, {"type": "Feature", "properties": {"name": "Falaakhu River Bridge", "name_en": null, "status": "Standing", "km": 55.69, "off_m": 228.7, "band": "middle", "source": "Humanitarian OpenStreetMap Team, Nepal Flood 2026 Flood Affected Area", "source_url": "https://data.humdata.org/dataset/hot_flood_npl", "licence": "ODbL 1.0, (c) OpenStreetMap contributors", "retrieved": "2026-09-05", "tier": "observed"}, "geometry": {"type": "LineString", "coordinates": [[85.185882, 27.973907], [85.185662, 27.97448]]}}, {"type": "Feature", "properties": {"name": null, "name_en": null, "status": "Destroyed", "km": 13.34, "off_m": 5.6, "band": "upper", "source": "Humanitarian OpenStreetMap Team, Nepal Flood 2026 Flood Affected Area", "source_url": "https://data.humdata.org/dataset/hot_flood_npl", "licence": "ODbL 1.0, (c) OpenStreetMap contributors", "retrieved": "2026-09-05", "tier": "observed"}, "geometry": {"type": "LineString", "coordinates": [[85.365182, 28.255762], [85.365604, 28.255693]]}}, {"type": "Feature", "properties": {"name": null, "name_en": null, "status": "Standing", "km": 51.22, "off_m": 3.3, "band": "middle", "source": "Humanitarian OpenStreetMap Team, Nepal Flood 2026 Flood Affected Area", "source_url": "https://data.humdata.org/dataset/hot_flood_npl", "licence": "ODbL 1.0, (c) OpenStreetMap contributors", "retrieved": "2026-09-05", "tier": "observed"}, "geometry": {"type": "LineString", "coordinates": [[85.183253, 28.009004], [85.183905, 28.008984]]}}, {"type": "Feature", "properties": {"name": "\u70ed\u7d22\u6865 \u0930\u0938\u0941\u0935\u093e\u0917\u0922\u0940 \u092e\u093f\u0924\u0947\u0930\u0940 \u092a\u0941\u0932", "name_en": "Resuo Bridge", "status": "Destroyed", "km": 10.1, "off_m": 2.1, "band": "upper", "source": "Humanitarian OpenStreetMap Team, Nepal Flood 2026 Flood Affected Area", "source_url": "https://data.humdata.org/dataset/hot_flood_npl", "licence": "ODbL 1.0, (c) OpenStreetMap contributors", "retrieved": "2026-09-05", "tier": "observed"}, "geometry": {"type": "LineString", "coordinates": [[85.37785, 28.279057], [85.377908, 28.279074], [85.377966, 28.279091], [85.378285, 28.278273], [85.378227, 28.278256], [85.378169, 28.278238], [85.37785, 28.279057]]}}, {"type": "Feature", "properties": {"name": "\u70ed\u7d22\u4e34\u65f6\u4fbf\u6865 \u0930\u0938\u0941\u0935\u093e\u0917\u0922\u0940\u092e\u093e \u0905\u0938\u094d\u0925\u093e\u092f\u0940 \u092e\u093f\u0924\u0947\u0930\u0940 \u092a\u0941\u0932", "name_en": "Temporary Friendship Bridge in Rasuwagadhi", "status": "Destroyed", "km": 10.09, "off_m": 2.9, "band": "upper", "source": "Humanitarian OpenStreetMap Team, Nepal Flood 2026 Flood Affected Area", "source_url": "https://data.humdata.org/dataset/hot_flood_npl", "licence": "ODbL 1.0, (c) OpenStreetMap contributors", "retrieved": "2026-09-05", "tier": "observed"}, "geometry": {"type": "LineString", "coordinates": [[85.377989, 28.279145], [85.378017, 28.279153], [85.378044, 28.279161], [85.378049, 28.279149], [85.378341, 28.278402], [85.378314, 28.278394], [85.378287, 28.278386], [85.378001, 28.279114], [85.377989, 28.279145]]}}, {"type": "Feature", "properties": {"name": null, "name_en": null, "status": "Standing", "km": 44.3, "off_m": 62.6, "band": "middle", "source": "Humanitarian OpenStreetMap Team, Nepal Flood 2026 Flood Affected Area", "source_url": "https://data.humdata.org/dataset/hot_flood_npl", "licence": "ODbL 1.0, (c) OpenStreetMap contributors", "retrieved": "2026-09-05", "tier": "observed"}, "geometry": {"type": "LineString", "coordinates": [[85.207342, 28.060594], [85.207369, 28.060095]]}}, {"type": "Feature", "properties": {"name": "Tupche Aama ko pool", "name_en": null, "status": "Destroyed", "km": 57.33, "off_m": 4.7, "band": "middle", "source": "Humanitarian OpenStreetMap Team, Nepal Flood 2026 Flood Affected Area", "source_url": "https://data.humdata.org/dataset/hot_flood_npl", "licence": "ODbL 1.0, (c) OpenStreetMap contributors", "retrieved": "2026-09-05", "tier": "observed"}, "geometry": {"type": "LineString", "coordinates": [[85.173235, 27.964192], [85.173644, 27.963743]]}}, {"type": "Feature", "properties": {"name": null, "name_en": null, "status": "Standing", "km": 119.31, "off_m": 5.6, "band": "lower", "source": "Humanitarian OpenStreetMap Team, Nepal Flood 2026 Flood Affected Area", "source_url": "https://data.humdata.org/dataset/hot_flood_npl", "licence": "ODbL 1.0, (c) OpenStreetMap contributors", "retrieved": "2026-09-05", "tier": "observed"}, "geometry": {"type": "LineString", "coordinates": [[84.794554, 27.81273], [84.793875, 27.813911]]}}, {"type": "Feature", "properties": {"name": null, "name_en": null, "status": "Standing", "km": 77.72, "off_m": 58.9, "band": "lower", "source": "Humanitarian OpenStreetMap Team, Nepal Flood 2026 Flood Affected Area", "source_url": "https://data.humdata.org/dataset/hot_flood_npl", "licence": "ODbL 1.0, (c) OpenStreetMap contributors", "retrieved": "2026-09-05", "tier": "observed"}, "geometry": {"type": "LineString", "coordinates": [[85.071111, 27.853026], [85.072274, 27.854824]]}}, {"type": "Feature", "properties": {"name": null, "name_en": null, "status": "Standing", "km": 107.74, "off_m": 16.3, "band": "lower", "source": "Humanitarian OpenStreetMap Team, Nepal Flood 2026 Flood Affected Area", "source_url": "https://data.humdata.org/dataset/hot_flood_npl", "licence": "ODbL 1.0, (c) OpenStreetMap contributors", "retrieved": "2026-09-05", "tier": "observed"}, "geometry": {"type": "LineString", "coordinates": [[84.871327, 27.803799], [84.871928, 27.802575]]}}, {"type": "Feature", "properties": {"name": null, "name_en": null, "status": "Standing", "km": 140.65, "off_m": 1.4, "band": "lower", "source": "Humanitarian OpenStreetMap Team, Nepal Flood 2026 Flood Affected Area", "source_url": "https://data.humdata.org/dataset/hot_flood_npl", "licence": "ODbL 1.0, (c) OpenStreetMap contributors", "retrieved": "2026-09-05", "tier": "observed"}, "geometry": {"type": "LineString", "coordinates": [[84.651891, 27.852041], [84.652064, 27.852944]]}}, {"type": "Feature", "properties": {"name": "Dahki khola", "name_en": "Dahki khola", "status": "Standing", "km": 143.47, "off_m": 57.8, "band": "lower", "source": "Humanitarian OpenStreetMap Team, Nepal Flood 2026 Flood Affected Area", "source_url": "https://data.humdata.org/dataset/hot_flood_npl", "licence": "ODbL 1.0, (c) OpenStreetMap contributors", "retrieved": "2026-09-05", "tier": "observed"}, "geometry": {"type": "LineString", "coordinates": [[84.633839, 27.861071], [84.634041, 27.860797]]}}, {"type": "Feature", "properties": {"name": null, "name_en": null, "status": "Standing", "km": 142.66, "off_m": 18.3, "band": "lower", "source": "Humanitarian OpenStreetMap Team, Nepal Flood 2026 Flood Affected Area", "source_url": "https://data.humdata.org/dataset/hot_flood_npl", "licence": "ODbL 1.0, (c) OpenStreetMap contributors", "retrieved": "2026-09-05", "tier": "observed"}, "geometry": {"type": "LineString", "coordinates": [[84.642128, 27.8605], [84.642224, 27.859938]]}}, {"type": "Feature", "properties": {"name": null, "name_en": null, "status": "Standing", "km": 44.01, "off_m": 103.5, "band": "middle", "source": "Humanitarian OpenStreetMap Team, Nepal Flood 2026 Flood Affected Area", "source_url": "https://data.humdata.org/dataset/hot_flood_npl", "licence": "ODbL 1.0, (c) OpenStreetMap contributors", "retrieved": "2026-09-05", "tier": "observed"}, "geometry": {"type": "LineString", "coordinates": [[85.20641, 28.06249], [85.206395, 28.062796]]}}, {"type": "Feature", "properties": {"name": "Army Road", "name_en": null, "status": "Standing", "km": 40.94, "off_m": 82.4, "band": "middle", "source": "Humanitarian OpenStreetMap Team, Nepal Flood 2026 Flood Affected Area", "source_url": "https://data.humdata.org/dataset/hot_flood_npl", "licence": "ODbL 1.0, (c) OpenStreetMap contributors", "retrieved": "2026-09-05", "tier": "observed"}, "geometry": {"type": "LineString", "coordinates": [[85.222689, 28.081942], [85.222557, 28.081849]]}}, {"type": "Feature", "properties": {"name": null, "name_en": null, "status": "Destroyed", "km": 22.42, "off_m": 13.3, "band": "middle", "source": "Humanitarian OpenStreetMap Team, Nepal Flood 2026 Flood Affected Area", "source_url": "https://data.humdata.org/dataset/hot_flood_npl", "licence": "ODbL 1.0, (c) OpenStreetMap contributors", "retrieved": "2026-09-05", "tier": "observed"}, "geometry": {"type": "LineString", "coordinates": [[85.343239, 28.182402], [85.343841, 28.182211]]}}, {"type": "Feature", "properties": {"name": null, "name_en": null, "status": "Standing", "km": 139.05, "off_m": 14.0, "band": "lower", "source": "Humanitarian OpenStreetMap Team, Nepal Flood 2026 Flood Affected Area", "source_url": "https://data.humdata.org/dataset/hot_flood_npl", "licence": "ODbL 1.0, (c) OpenStreetMap contributors", "retrieved": "2026-09-05", "tier": "observed"}, "geometry": {"type": "LineString", "coordinates": [[84.66312, 27.84422], [84.661865, 27.843549]]}}, {"type": "Feature", "properties": {"name": "Pokhare khola", "name_en": "Pokhare khola", "status": "Standing", "km": 101.73, "off_m": 88.9, "band": "lower", "source": "Humanitarian OpenStreetMap Team, Nepal Flood 2026 Flood Affected Area", "source_url": "https://data.humdata.org/dataset/hot_flood_npl", "licence": "ODbL 1.0, (c) OpenStreetMap contributors", "retrieved": "2026-09-05", "tier": "observed"}, "geometry": {"type": "LineString", "coordinates": [[84.916646, 27.800059], [84.91694, 27.799921]]}}, {"type": "Feature", "properties": {"name": "Pokhare khola", "name_en": "Pokhare khola", "status": "Standing", "km": 101.73, "off_m": 100.8, "band": "lower", "source": "Humanitarian OpenStreetMap Team, Nepal Flood 2026 Flood Affected Area", "source_url": "https://data.humdata.org/dataset/hot_flood_npl", "licence": "ODbL 1.0, (c) OpenStreetMap contributors", "retrieved": "2026-09-05", "tier": "observed"}, "geometry": {"type": "LineString", "coordinates": [[84.91659, 27.799959], [84.916883, 27.799821]]}}, {"type": "Feature", "properties": {"name": null, "name_en": null, "status": "Standing", "km": 100.87, "off_m": 8.2, "band": "lower", "source": "Humanitarian OpenStreetMap Team, Nepal Flood 2026 Flood Affected Area", "source_url": "https://data.humdata.org/dataset/hot_flood_npl", "licence": "ODbL 1.0, (c) OpenStreetMap contributors", "retrieved": "2026-09-05", "tier": "observed"}, "geometry": {"type": "LineString", "coordinates": [[84.92459, 27.797204], [84.924437, 27.797575], [84.924129, 27.798317]]}}, {"type": "Feature", "properties": {"name": "Galaundi khola", "name_en": "Galaundi khola", "status": "Standing", "km": 105.11, "off_m": 190.1, "band": "lower", "source": "Humanitarian OpenStreetMap Team, Nepal Flood 2026 Flood Affected Area", "source_url": "https://data.humdata.org/dataset/hot_flood_npl", "licence": "ODbL 1.0, (c) OpenStreetMap contributors", "retrieved": "2026-09-05", "tier": "observed"}, "geometry": {"type": "LineString", "coordinates": [[84.889674, 27.807372], [84.890049, 27.807394]]}}, {"type": "Feature", "properties": {"name": null, "name_en": null, "status": "Standing", "km": 109.85, "off_m": 35.9, "band": "lower", "source": "Humanitarian OpenStreetMap Team, Nepal Flood 2026 Flood Affected Area", "source_url": "https://data.humdata.org/dataset/hot_flood_npl", "licence": "ODbL 1.0, (c) OpenStreetMap contributors", "retrieved": "2026-09-05", "tier": "observed"}, "geometry": {"type": "LineString", "coordinates": [[84.853977, 27.807423], [84.85419, 27.808836]]}}, {"type": "Feature", "properties": {"name": "Furke Khola Bridge", "name_en": null, "status": "Standing", "km": 111.26, "off_m": 9.1, "band": "lower", "source": "Humanitarian OpenStreetMap Team, Nepal Flood 2026 Flood Affected Area", "source_url": "https://data.humdata.org/dataset/hot_flood_npl", "licence": "ODbL 1.0, (c) OpenStreetMap contributors", "retrieved": "2026-09-05", "tier": "observed"}, "geometry": {"type": "LineString", "coordinates": [[84.844505, 27.801918], [84.843862, 27.802898]]}}, {"type": "Feature", "properties": {"name": null, "name_en": null, "status": "Standing", "km": 91.5, "off_m": 40.9, "band": "lower", "source": "Humanitarian OpenStreetMap Team, Nepal Flood 2026 Flood Affected Area", "source_url": "https://data.humdata.org/dataset/hot_flood_npl", "licence": "ODbL 1.0, (c) OpenStreetMap contributors", "retrieved": "2026-09-05", "tier": "observed"}, "geometry": {"type": "LineString", "coordinates": [[84.990188, 27.803516], [84.99149, 27.803854]]}}, {"type": "Feature", "properties": {"name": "Mowa Khola Bridge", "name_en": "Mowa Khola Bridge", "status": "Standing", "km": 136.75, "off_m": 72.3, "band": "lower", "source": "Humanitarian OpenStreetMap Team, Nepal Flood 2026 Flood Affected Area", "source_url": "https://data.humdata.org/dataset/hot_flood_npl", "licence": "ODbL 1.0, (c) OpenStreetMap contributors", "retrieved": "2026-09-05", "tier": "observed"}, "geometry": {"type": "LineString", "coordinates": [[84.664698, 27.825427], [84.665007, 27.825198]]}}, {"type": "Feature", "properties": {"name": null, "name_en": null, "status": "Standing", "km": 117.67, "off_m": 16.8, "band": "lower", "source": "Humanitarian OpenStreetMap Team, Nepal Flood 2026 Flood Affected Area", "source_url": "https://data.humdata.org/dataset/hot_flood_npl", "licence": "ODbL 1.0, (c) OpenStreetMap contributors", "retrieved": "2026-09-05", "tier": "observed"}, "geometry": {"type": "LineString", "coordinates": [[84.8098, 27.817615], [84.809244, 27.817107], [84.80869, 27.816618]]}}, {"type": "Feature", "properties": {"name": "Prithvi Rajmarga", "name_en": "Prithvi Rajmarga", "status": "Standing", "km": 118.66, "off_m": 74.3, "band": "lower", "source": "Humanitarian OpenStreetMap Team, Nepal Flood 2026 Flood Affected Area", "source_url": "https://data.humdata.org/dataset/hot_flood_npl", "licence": "ODbL 1.0, (c) OpenStreetMap contributors", "retrieved": "2026-09-05", "tier": "observed"}, "geometry": {"type": "LineString", "coordinates": [[84.800359, 27.813831], [84.800699, 27.813989]]}}, {"type": "Feature", "properties": {"name": "Army Road", "name_en": null, "status": "Standing", "km": 41.51, "off_m": 73.0, "band": "middle", "source": "Humanitarian OpenStreetMap Team, Nepal Flood 2026 Flood Affected Area", "source_url": "https://data.humdata.org/dataset/hot_flood_npl", "licence": "ODbL 1.0, (c) OpenStreetMap contributors", "retrieved": "2026-09-05", "tier": "observed"}, "geometry": {"type": "LineString", "coordinates": [[85.218168, 28.078792], [85.218088, 28.078717]]}}, {"type": "Feature", "properties": {"name": null, "name_en": null, "status": "Destroyed", "km": 73.55, "off_m": 1.6, "band": "lower", "source": "Humanitarian OpenStreetMap Team, Nepal Flood 2026 Flood Affected Area", "source_url": "https://data.humdata.org/dataset/hot_flood_npl", "licence": "ODbL 1.0, (c) OpenStreetMap contributors", "retrieved": "2026-09-05", "tier": "observed"}, "geometry": {"type": "LineString", "coordinates": [[85.107867, 27.860767], [85.108412, 27.860305]]}}, {"type": "Feature", "properties": {"name": null, "name_en": null, "status": "Standing", "km": 72.11, "off_m": 14.3, "band": "lower", "source": "Humanitarian OpenStreetMap Team, Nepal Flood 2026 Flood Affected Area", "source_url": "https://data.humdata.org/dataset/hot_flood_npl", "licence": "ODbL 1.0, (c) OpenStreetMap contributors", "retrieved": "2026-09-05", "tier": "observed"}, "geometry": {"type": "LineString", "coordinates": [[85.115904, 27.870768], [85.116468, 27.870178]]}}, {"type": "Feature", "properties": {"name": null, "name_en": null, "status": "Standing", "km": 95.24, "off_m": 19.6, "band": "lower", "source": "Humanitarian OpenStreetMap Team, Nepal Flood 2026 Flood Affected Area", "source_url": "https://data.humdata.org/dataset/hot_flood_npl", "licence": "ODbL 1.0, (c) OpenStreetMap contributors", "retrieved": "2026-09-05", "tier": "observed"}, "geometry": {"type": "LineString", "coordinates": [[84.9643, 27.810692], [84.96548, 27.811171]]}}, {"type": "Feature", "properties": {"name": null, "name_en": null, "status": "Standing", "km": 93.13, "off_m": 179.4, "band": "lower", "source": "Humanitarian OpenStreetMap Team, Nepal Flood 2026 Flood Affected Area", "source_url": "https://data.humdata.org/dataset/hot_flood_npl", "licence": "ODbL 1.0, (c) OpenStreetMap contributors", "retrieved": "2026-09-05", "tier": "observed"}, "geometry": {"type": "LineString", "coordinates": [[84.976404, 27.803216], [84.97645, 27.8031]]}}, {"type": "Feature", "properties": {"name": "Prithvi Rajmarg", "name_en": "Prithvi Highway", "status": "Standing", "km": 92.53, "off_m": 240.6, "band": "lower", "source": "Humanitarian OpenStreetMap Team, Nepal Flood 2026 Flood Affected Area", "source_url": "https://data.humdata.org/dataset/hot_flood_npl", "licence": "ODbL 1.0, (c) OpenStreetMap contributors", "retrieved": "2026-09-05", "tier": "observed"}, "geometry": {"type": "LineString", "coordinates": [[84.983524, 27.800874], [84.983649, 27.800865]]}}, {"type": "Feature", "properties": {"name": null, "name_en": null, "status": "Standing", "km": 94.26, "off_m": 31.9, "band": "lower", "source": "Humanitarian OpenStreetMap Team, Nepal Flood 2026 Flood Affected Area", "source_url": "https://data.humdata.org/dataset/hot_flood_npl", "licence": "ODbL 1.0, (c) OpenStreetMap contributors", "retrieved": "2026-09-05", "tier": "observed"}, "geometry": {"type": "LineString", "coordinates": [[84.968871, 27.807214], [84.970307, 27.807381]]}}, {"type": "Feature", "properties": {"name": null, "name_en": null, "status": "Standing", "km": 76.1, "off_m": 6.0, "band": "lower", "source": "Humanitarian OpenStreetMap Team, Nepal Flood 2026 Flood Affected Area", "source_url": "https://data.humdata.org/dataset/hot_flood_npl", "licence": "ODbL 1.0, (c) OpenStreetMap contributors", "retrieved": "2026-09-05", "tier": "observed"}, "geometry": {"type": "LineString", "coordinates": [[85.086708, 27.857053], [85.087008, 27.855905]]}}, {"type": "Feature", "properties": {"name": null, "name_en": null, "status": "Destroyed", "km": 58.74, "off_m": 57.7, "band": "middle", "source": "Humanitarian OpenStreetMap Team, Nepal Flood 2026 Flood Affected Area", "source_url": "https://data.humdata.org/dataset/hot_flood_npl", "licence": "ODbL 1.0, (c) OpenStreetMap contributors", "retrieved": "2026-09-05", "tier": "observed"}, "geometry": {"type": "LineString", "coordinates": [[85.164055, 27.955163], [85.164221, 27.955199]]}}, {"type": "Feature", "properties": {"name": null, "name_en": null, "status": "Destroyed", "km": 58.77, "off_m": 76.8, "band": "middle", "source": "Humanitarian OpenStreetMap Team, Nepal Flood 2026 Flood Affected Area", "source_url": "https://data.humdata.org/dataset/hot_flood_npl", "licence": "ODbL 1.0, (c) OpenStreetMap contributors", "retrieved": "2026-09-05", "tier": "observed"}, "geometry": {"type": "LineString", "coordinates": [[85.163628, 27.956341], [85.163492, 27.956287]]}}, {"type": "Feature", "properties": {"name": null, "name_en": null, "status": "Standing", "km": 52.83, "off_m": 3.5, "band": "middle", "source": "Humanitarian OpenStreetMap Team, Nepal Flood 2026 Flood Affected Area", "source_url": "https://data.humdata.org/dataset/hot_flood_npl", "licence": "ODbL 1.0, (c) OpenStreetMap contributors", "retrieved": "2026-09-05", "tier": "observed"}, "geometry": {"type": "LineString", "coordinates": [[85.184854, 27.995624], [85.185205, 27.995351]]}}, {"type": "Feature", "properties": {"name": null, "name_en": null, "status": "Standing", "km": 95.34, "off_m": 41.9, "band": "lower", "source": "Humanitarian OpenStreetMap Team, Nepal Flood 2026 Flood Affected Area", "source_url": "https://data.humdata.org/dataset/hot_flood_npl", "licence": "ODbL 1.0, (c) OpenStreetMap contributors", "retrieved": "2026-09-05", "tier": "observed"}, "geometry": {"type": "LineString", "coordinates": [[84.964588, 27.811569], [84.964863, 27.811685], [84.965994, 27.812272]]}}, {"type": "Feature", "properties": {"name": null, "name_en": null, "status": "Destroyed", "km": 24.66, "off_m": 7.2, "band": "middle", "source": "Humanitarian OpenStreetMap Team, Nepal Flood 2026 Flood Affected Area", "source_url": "https://data.humdata.org/dataset/hot_flood_npl", "licence": "ODbL 1.0, (c) OpenStreetMap contributors", "retrieved": "2026-09-05", "tier": "observed"}, "geometry": {"type": "LineString", "coordinates": [[85.340155, 28.164004], [85.339814, 28.164463]]}}, {"type": "Feature", "properties": {"name": null, "name_en": null, "status": "Standing", "km": 90.22, "off_m": 87.3, "band": "lower", "source": "Humanitarian OpenStreetMap Team, Nepal Flood 2026 Flood Affected Area", "source_url": "https://data.humdata.org/dataset/hot_flood_npl", "licence": "ODbL 1.0, (c) OpenStreetMap contributors", "retrieved": "2026-09-05", "tier": "observed"}, "geometry": {"type": "LineString", "coordinates": [[85.003552, 27.801746], [85.002995, 27.802388]]}}, {"type": "Feature", "properties": {"name": null, "name_en": null, "status": "Destroyed", "km": 15.39, "off_m": 8.8, "band": "upper", "source": "Humanitarian OpenStreetMap Team, Nepal Flood 2026 Flood Affected Area", "source_url": "https://data.humdata.org/dataset/hot_flood_npl", "licence": "ODbL 1.0, (c) OpenStreetMap contributors", "retrieved": "2026-09-05", "tier": "observed"}, "geometry": {"type": "LineString", "coordinates": [[85.358116, 28.239843], [85.358575, 28.239853]]}}, {"type": "Feature", "properties": {"name": null, "name_en": null, "status": "Standing", "km": 78.53, "off_m": 353.0, "band": "lower", "source": "Humanitarian OpenStreetMap Team, Nepal Flood 2026 Flood Affected Area", "source_url": "https://data.humdata.org/dataset/hot_flood_npl", "licence": "ODbL 1.0, (c) OpenStreetMap contributors", "retrieved": "2026-09-05", "tier": "observed"}, "geometry": {"type": "LineString", "coordinates": [[85.065931, 27.860087], [85.065999, 27.859909]]}}, {"type": "Feature", "properties": {"name": null, "name_en": null, "status": "Standing", "km": 83.41, "off_m": 66.1, "band": "lower", "source": "Humanitarian OpenStreetMap Team, Nepal Flood 2026 Flood Affected Area", "source_url": "https://data.humdata.org/dataset/hot_flood_npl", "licence": "ODbL 1.0, (c) OpenStreetMap contributors", "retrieved": "2026-09-05", "tier": "observed"}, "geometry": {"type": "LineString", "coordinates": [[85.027894, 27.84741], [85.027262, 27.848133], [85.026684, 27.848857]]}}, {"type": "Feature", "properties": {"name": null, "name_en": null, "status": "Destroyed", "km": 24.44, "off_m": 222.9, "band": "middle", "source": "Humanitarian OpenStreetMap Team, Nepal Flood 2026 Flood Affected Area", "source_url": "https://data.humdata.org/dataset/hot_flood_npl", "licence": "ODbL 1.0, (c) OpenStreetMap contributors", "retrieved": "2026-09-05", "tier": "observed"}, "geometry": {"type": "LineString", "coordinates": [[85.343679, 28.163407], [85.343776, 28.163594]]}}, {"type": "Feature", "properties": {"name": null, "name_en": null, "status": "Destroyed", "km": 11.01, "off_m": 4.2, "band": "upper", "source": "Humanitarian OpenStreetMap Team, Nepal Flood 2026 Flood Affected Area", "source_url": "https://data.humdata.org/dataset/hot_flood_npl", "licence": "ODbL 1.0, (c) OpenStreetMap contributors", "retrieved": "2026-09-05", "tier": "observed"}, "geometry": {"type": "LineString", "coordinates": [[85.377858, 28.271218], [85.377434, 28.271245]]}}, {"type": "Feature", "properties": {"name": null, "name_en": null, "status": "Standing", "km": 49.7, "off_m": 352.4, "band": "middle", "source": "Humanitarian OpenStreetMap Team, Nepal Flood 2026 Flood Affected Area", "source_url": "https://data.humdata.org/dataset/hot_flood_npl", "licence": "ODbL 1.0, (c) OpenStreetMap contributors", "retrieved": "2026-09-05", "tier": "observed"}, "geometry": {"type": "LineString", "coordinates": [[85.182858, 28.019254], [85.18309, 28.01945]]}}, {"type": "Feature", "properties": {"name": null, "name_en": null, "status": "Destroyed", "km": 57.39, "off_m": 0.9, "band": "middle", "source": "Humanitarian OpenStreetMap Team, Nepal Flood 2026 Flood Affected Area", "source_url": "https://data.humdata.org/dataset/hot_flood_npl", "licence": "ODbL 1.0, (c) OpenStreetMap contributors", "retrieved": "2026-09-05", "tier": "observed"}, "geometry": {"type": "LineString", "coordinates": [[85.17275, 27.963995], [85.172891, 27.963546]]}}, {"type": "Feature", "properties": {"name": null, "name_en": null, "status": "Standing", "km": 142.88, "off_m": 35.5, "band": "lower", "source": "Humanitarian OpenStreetMap Team, Nepal Flood 2026 Flood Affected Area", "source_url": "https://data.humdata.org/dataset/hot_flood_npl", "licence": "ODbL 1.0, (c) OpenStreetMap contributors", "retrieved": "2026-09-05", "tier": "observed"}, "geometry": {"type": "LineString", "coordinates": [[84.639911, 27.859253], [84.639847, 27.86078]]}}, {"type": "Feature", "properties": {"name": null, "name_en": null, "status": "Standing", "km": 78.07, "off_m": 288.2, "band": "lower", "source": "Humanitarian OpenStreetMap Team, Nepal Flood 2026 Flood Affected Area", "source_url": "https://data.humdata.org/dataset/hot_flood_npl", "licence": "ODbL 1.0, (c) OpenStreetMap contributors", "retrieved": "2026-09-05", "tier": "observed"}, "geometry": {"type": "LineString", "coordinates": [[85.066781, 27.853038], [85.066618, 27.853081]]}}, {"type": "Feature", "properties": {"name": null, "name_en": "Trisuli Bridge", "status": "Standing", "km": 139.14, "off_m": 3.9, "band": "lower", "source": "Humanitarian OpenStreetMap Team, Nepal Flood 2026 Flood Affected Area", "source_url": "https://data.humdata.org/dataset/hot_flood_npl", "licence": "ODbL 1.0, (c) OpenStreetMap contributors", "retrieved": "2026-09-05", "tier": "observed"}, "geometry": {"type": "LineString", "coordinates": [[84.661694, 27.844455], [84.662294, 27.844695]]}}, {"type": "Feature", "properties": {"name": null, "name_en": null, "status": "Destroyed", "km": 11.59, "off_m": 76.4, "band": "upper", "source": "Humanitarian OpenStreetMap Team, Nepal Flood 2026 Flood Affected Area", "source_url": "https://data.humdata.org/dataset/hot_flood_npl", "licence": "ODbL 1.0, (c) OpenStreetMap contributors", "retrieved": "2026-09-05", "tier": "observed"}, "geometry": {"type": "LineString", "coordinates": [[85.375853, 28.265815], [85.376277, 28.266298]]}}, {"type": "Feature", "properties": {"name": null, "name_en": null, "status": "Destroyed", "km": 10.84, "off_m": 54.2, "band": "upper", "source": "Humanitarian OpenStreetMap Team, Nepal Flood 2026 Flood Affected Area", "source_url": "https://data.humdata.org/dataset/hot_flood_npl", "licence": "ODbL 1.0, (c) OpenStreetMap contributors", "retrieved": "2026-09-05", "tier": "observed"}, "geometry": {"type": "LineString", "coordinates": [[85.377091, 28.272704], [85.377057, 28.27279]]}}, {"type": "Feature", "properties": {"name": null, "name_en": null, "status": "Destroyed", "km": 10.84, "off_m": 87.3, "band": "upper", "source": "Humanitarian OpenStreetMap Team, Nepal Flood 2026 Flood Affected Area", "source_url": "https://data.humdata.org/dataset/hot_flood_npl", "licence": "ODbL 1.0, (c) OpenStreetMap contributors", "retrieved": "2026-09-05", "tier": "observed"}, "geometry": {"type": "LineString", "coordinates": [[85.376696, 28.272841], [85.376787, 28.272759]]}}, {"type": "Feature", "properties": {"name": null, "name_en": null, "status": "Destroyed", "km": 57.63, "off_m": 46.5, "band": "middle", "source": "Humanitarian OpenStreetMap Team, Nepal Flood 2026 Flood Affected Area", "source_url": "https://data.humdata.org/dataset/hot_flood_npl", "licence": "ODbL 1.0, (c) OpenStreetMap contributors", "retrieved": "2026-09-05", "tier": "observed"}, "geometry": {"type": "LineString", "coordinates": [[85.170631, 27.963638], [85.17025, 27.963347], [85.170068, 27.963355]]}}, {"type": "Feature", "properties": {"name": null, "name_en": null, "status": "Destroyed", "km": 27.75, "off_m": 0.9, "band": "middle", "source": "Humanitarian OpenStreetMap Team, Nepal Flood 2026 Flood Affected Area", "source_url": "https://data.humdata.org/dataset/hot_flood_npl", "licence": "ODbL 1.0, (c) OpenStreetMap contributors", "retrieved": "2026-09-05", "tier": "observed"}, "geometry": {"type": "LineString", "coordinates": [[85.3175, 28.147519], [85.317883, 28.147311]]}}, {"type": "Feature", "properties": {"name": null, "name_en": null, "status": "Standing", "km": 142.78, "off_m": 21.4, "band": "lower", "source": "Humanitarian OpenStreetMap Team, Nepal Flood 2026 Flood Affected Area", "source_url": "https://data.humdata.org/dataset/hot_flood_npl", "licence": "ODbL 1.0, (c) OpenStreetMap contributors", "retrieved": "2026-09-05", "tier": "observed"}, "geometry": {"type": "LineString", "coordinates": [[84.641035, 27.859618], [84.640851, 27.860439]]}}, {"type": "Feature", "properties": {"name": null, "name_en": null, "status": "Standing", "km": 130.28, "off_m": 17.6, "band": "lower", "source": "Humanitarian OpenStreetMap Team, Nepal Flood 2026 Flood Affected Area", "source_url": "https://data.humdata.org/dataset/hot_flood_npl", "licence": "ODbL 1.0, (c) OpenStreetMap contributors", "retrieved": "2026-09-05", "tier": "observed"}, "geometry": {"type": "LineString", "coordinates": [[84.715653, 27.801156], [84.715071, 27.802144]]}}, {"type": "Feature", "properties": {"name": null, "name_en": null, "status": "Standing", "km": 60.31, "off_m": 166.2, "band": "lower", "source": "Humanitarian OpenStreetMap Team, Nepal Flood 2026 Flood Affected Area", "source_url": "https://data.humdata.org/dataset/hot_flood_npl", "licence": "ODbL 1.0, (c) OpenStreetMap contributors", "retrieved": "2026-09-05", "tier": "observed"}, "geometry": {"type": "LineString", "coordinates": [[85.158658, 27.944238], [85.158532, 27.94429]]}}, {"type": "Feature", "properties": {"name": "Pasang Lhamu Highway", "name_en": null, "status": "Destroyed", "km": 25.85, "off_m": 12.4, "band": "middle", "source": "Humanitarian OpenStreetMap Team, Nepal Flood 2026 Flood Affected Area", "source_url": "https://data.humdata.org/dataset/hot_flood_npl", "licence": "ODbL 1.0, (c) OpenStreetMap contributors", "retrieved": "2026-09-05", "tier": "observed"}, "geometry": {"type": "LineString", "coordinates": [[85.332471, 28.157648], [85.332578, 28.157098]]}}, {"type": "Feature", "properties": {"name": null, "name_en": null, "status": "Standing", "km": 47.07, "off_m": 68.2, "band": "middle", "source": "Humanitarian OpenStreetMap Team, Nepal Flood 2026 Flood Affected Area", "source_url": "https://data.humdata.org/dataset/hot_flood_npl", "licence": "ODbL 1.0, (c) OpenStreetMap contributors", "retrieved": "2026-09-05", "tier": "observed"}, "geometry": {"type": "LineString", "coordinates": [[85.194026, 28.041141], [85.193969, 28.041005]]}}, {"type": "Feature", "properties": {"name": null, "name_en": null, "status": "Standing", "km": 60.31, "off_m": 188.5, "band": "lower", "source": "Humanitarian OpenStreetMap Team, Nepal Flood 2026 Flood Affected Area", "source_url": "https://data.humdata.org/dataset/hot_flood_npl", "licence": "ODbL 1.0, (c) OpenStreetMap contributors", "retrieved": "2026-09-05", "tier": "observed"}, "geometry": {"type": "LineString", "coordinates": [[85.158449, 27.944372], [85.158381, 27.944439]]}}, {"type": "Feature", "properties": {"name": null, "name_en": null, "status": "Destroyed", "km": 74.63, "off_m": 10.8, "band": "lower", "source": "Humanitarian OpenStreetMap Team, Nepal Flood 2026 Flood Affected Area", "source_url": "https://data.humdata.org/dataset/hot_flood_npl", "licence": "ODbL 1.0, (c) OpenStreetMap contributors", "retrieved": "2026-09-05", "tier": "observed"}, "geometry": {"type": "LineString", "coordinates": [[85.099173, 27.860255], [85.099039, 27.859952], [85.098885, 27.859607], [85.09862, 27.859068], [85.098297, 27.858527]]}}, {"type": "Feature", "properties": {"name": null, "name_en": null, "status": "Destroyed", "km": 16.06, "off_m": 10.7, "band": "upper", "source": "Humanitarian OpenStreetMap Team, Nepal Flood 2026 Flood Affected Area", "source_url": "https://data.humdata.org/dataset/hot_flood_npl", "licence": "ODbL 1.0, (c) OpenStreetMap contributors", "retrieved": "2026-09-05", "tier": "observed"}, "geometry": {"type": "LineString", "coordinates": [[85.359371, 28.234261], [85.359624, 28.234514]]}}, {"type": "Feature", "properties": {"name": null, "name_en": null, "status": "Standing", "km": 96.73, "off_m": 31.8, "band": "lower", "source": "Humanitarian OpenStreetMap Team, Nepal Flood 2026 Flood Affected Area", "source_url": "https://data.humdata.org/dataset/hot_flood_npl", "licence": "ODbL 1.0, (c) OpenStreetMap contributors", "retrieved": "2026-09-05", "tier": "observed"}, "geometry": {"type": "LineString", "coordinates": [[84.95455, 27.817245], [84.955241, 27.816232], [84.955443, 27.815987]]}}, {"type": "Feature", "properties": {"name": null, "name_en": null, "status": "Standing", "km": 98.79, "off_m": 31.8, "band": "lower", "source": "Humanitarian OpenStreetMap Team, Nepal Flood 2026 Flood Affected Area", "source_url": "https://data.humdata.org/dataset/hot_flood_npl", "licence": "ODbL 1.0, (c) OpenStreetMap contributors", "retrieved": "2026-09-05", "tier": "observed"}, "geometry": {"type": "LineString", "coordinates": [[84.94014, 27.807338], [84.940369, 27.807233], [84.941544, 27.806961], [84.942039, 27.806918]]}}, {"type": "Feature", "properties": {"name": null, "name_en": null, "status": "Standing", "km": 88.79, "off_m": 243.3, "band": "lower", "source": "Humanitarian OpenStreetMap Team, Nepal Flood 2026 Flood Affected Area", "source_url": "https://data.humdata.org/dataset/hot_flood_npl", "licence": "ODbL 1.0, (c) OpenStreetMap contributors", "retrieved": "2026-09-05", "tier": "observed"}, "geometry": {"type": "LineString", "coordinates": [[85.016255, 27.810214], [85.016267, 27.809782]]}}, {"type": "Feature", "properties": {"name": null, "name_en": null, "status": "Standing", "km": 155.85, "off_m": 103.3, "band": "lower", "source": "Humanitarian OpenStreetMap Team, Nepal Flood 2026 Flood Affected Area", "source_url": "https://data.humdata.org/dataset/hot_flood_npl", "licence": "ODbL 1.0, (c) OpenStreetMap contributors", "retrieved": "2026-09-05", "tier": "observed"}, "geometry": {"type": "LineString", "coordinates": [[84.558202, 27.85065], [84.558668, 27.850075]]}}, {"type": "Feature", "properties": {"name": "Suspension Bridge", "name_en": null, "status": "Standing", "km": 60.84, "off_m": 16.0, "band": "lower", "source": "Humanitarian OpenStreetMap Team, Nepal Flood 2026 Flood Affected Area", "source_url": "https://data.humdata.org/dataset/hot_flood_npl", "licence": "ODbL 1.0, (c) OpenStreetMap contributors", "retrieved": "2026-09-05", "tier": "observed"}, "geometry": {"type": "LineString", "coordinates": [[85.158667, 27.939069], [85.15788, 27.93958]]}}, {"type": "Feature", "properties": {"name": null, "name_en": null, "status": "Standing", "km": 93.25, "off_m": 17.8, "band": "lower", "source": "Humanitarian OpenStreetMap Team, Nepal Flood 2026 Flood Affected Area", "source_url": "https://data.humdata.org/dataset/hot_flood_npl", "licence": "ODbL 1.0, (c) OpenStreetMap contributors", "retrieved": "2026-09-05", "tier": "observed"}, "geometry": {"type": "LineString", "coordinates": [[84.974899, 27.800767], [84.975249, 27.802113]]}}, {"type": "Feature", "properties": {"name": null, "name_en": null, "status": "Standing", "km": 42.1, "off_m": 8.8, "band": "middle", "source": "Humanitarian OpenStreetMap Team, Nepal Flood 2026 Flood Affected Area", "source_url": "https://data.humdata.org/dataset/hot_flood_npl", "licence": "ODbL 1.0, (c) OpenStreetMap contributors", "retrieved": "2026-09-05", "tier": "observed"}, "geometry": {"type": "LineString", "coordinates": [[85.212991, 28.075824], [85.212702, 28.076214]]}}, {"type": "Feature", "properties": {"name": null, "name_en": null, "status": "Destroyed", "km": 33.66, "off_m": 20.8, "band": "middle", "source": "Humanitarian OpenStreetMap Team, Nepal Flood 2026 Flood Affected Area", "source_url": "https://data.humdata.org/dataset/hot_flood_npl", "licence": "ODbL 1.0, (c) OpenStreetMap contributors", "retrieved": "2026-09-05", "tier": "observed"}, "geometry": {"type": "LineString", "coordinates": [[85.281021, 28.113124], [85.281367, 28.112861]]}}, {"type": "Feature", "properties": {"name": null, "name_en": null, "status": "Destroyed", "km": 59.68, "off_m": 118.7, "band": "middle", "source": "Humanitarian OpenStreetMap Team, Nepal Flood 2026 Flood Affected Area", "source_url": "https://data.humdata.org/dataset/hot_flood_npl", "licence": "ODbL 1.0, (c) OpenStreetMap contributors", "retrieved": "2026-09-05", "tier": "observed"}, "geometry": {"type": "LineString", "coordinates": [[85.163881, 27.948622], [85.16386, 27.948803]]}}, {"type": "Feature", "properties": {"name": null, "name_en": null, "status": "Destroyed", "km": 63.04, "off_m": 19.0, "band": "lower", "source": "Humanitarian OpenStreetMap Team, Nepal Flood 2026 Flood Affected Area", "source_url": "https://data.humdata.org/dataset/hot_flood_npl", "licence": "ODbL 1.0, (c) OpenStreetMap contributors", "retrieved": "2026-09-05", "tier": "observed"}, "geometry": {"type": "LineString", "coordinates": [[85.150399, 27.927829], [85.149917, 27.92759]]}}, {"type": "Feature", "properties": {"name": null, "name_en": null, "status": "Standing", "km": 81.51, "off_m": 67.7, "band": "lower", "source": "Humanitarian OpenStreetMap Team, Nepal Flood 2026 Flood Affected Area", "source_url": "https://data.humdata.org/dataset/hot_flood_npl", "licence": "ODbL 1.0, (c) OpenStreetMap contributors", "retrieved": "2026-09-05", "tier": "observed"}, "geometry": {"type": "LineString", "coordinates": [[85.042159, 27.855094], [85.041762, 27.855476], [85.041451, 27.855765], [85.041245, 27.855993], [85.040904, 27.856386], [85.040775, 27.856572]]}}, {"type": "Feature", "properties": {"name": null, "name_en": null, "status": "Standing", "km": 126.97, "off_m": 10.7, "band": "lower", "source": "Humanitarian OpenStreetMap Team, Nepal Flood 2026 Flood Affected Area", "source_url": "https://data.humdata.org/dataset/hot_flood_npl", "licence": "ODbL 1.0, (c) OpenStreetMap contributors", "retrieved": "2026-09-05", "tier": "observed"}, "geometry": {"type": "LineString", "coordinates": [[84.738312, 27.802798], [84.737155, 27.803422]]}}, {"type": "Feature", "properties": {"name": "Aqueduct (2 Barrel) crossing over Trishuli", "name_en": null, "status": "Destroyed", "km": 59.68, "off_m": 15.9, "band": "middle", "source": "Humanitarian OpenStreetMap Team, Nepal Flood 2026 Flood Affected Area", "source_url": "https://data.humdata.org/dataset/hot_flood_npl", "licence": "ODbL 1.0, (c) OpenStreetMap contributors", "retrieved": "2026-09-05", "tier": "observed"}, "geometry": {"type": "LineString", "coordinates": [[85.163226, 27.948631], [85.162454, 27.948488]]}}, {"type": "Feature", "properties": {"name": null, "name_en": null, "status": "Standing", "km": 45.21, "off_m": 60.4, "band": "middle", "source": "Humanitarian OpenStreetMap Team, Nepal Flood 2026 Flood Affected Area", "source_url": "https://data.humdata.org/dataset/hot_flood_npl", "licence": "ODbL 1.0, (c) OpenStreetMap contributors", "retrieved": "2026-09-05", "tier": "observed"}, "geometry": {"type": "LineString", "coordinates": [[85.206367, 28.053056], [85.206263, 28.052934]]}}, {"type": "Feature", "properties": {"name": null, "name_en": null, "status": "Standing", "km": 51.72, "off_m": 172.1, "band": "middle", "source": "Humanitarian OpenStreetMap Team, Nepal Flood 2026 Flood Affected Area", "source_url": "https://data.humdata.org/dataset/hot_flood_npl", "licence": "ODbL 1.0, (c) OpenStreetMap contributors", "retrieved": "2026-09-05", "tier": "observed"}, "geometry": {"type": "LineString", "coordinates": [[85.185946, 28.004407], [85.186075, 28.004293]]}}, {"type": "Feature", "properties": {"name": null, "name_en": null, "status": "Destroyed", "km": 15.3, "off_m": 4.7, "band": "upper", "source": "Humanitarian OpenStreetMap Team, Nepal Flood 2026 Flood Affected Area", "source_url": "https://data.humdata.org/dataset/hot_flood_npl", "licence": "ODbL 1.0, (c) OpenStreetMap contributors", "retrieved": "2026-09-05", "tier": "observed"}, "geometry": {"type": "LineString", "coordinates": [[85.357934, 28.240665], [85.358095, 28.240703], [85.358232, 28.240742], [85.35832, 28.240767], [85.358409, 28.240796]]}}, {"type": "Feature", "properties": {"name": "Prithvi Rajmarg", "name_en": "Prithvi Highway", "status": "Standing", "km": 94.22, "off_m": 93.8, "band": "lower", "source": "Humanitarian OpenStreetMap Team, Nepal Flood 2026 Flood Affected Area", "source_url": "https://data.humdata.org/dataset/hot_flood_npl", "licence": "ODbL 1.0, (c) OpenStreetMap contributors", "retrieved": "2026-09-05", "tier": "observed"}, "geometry": {"type": "LineString", "coordinates": [[84.968427, 27.806963], [84.968297, 27.806538]]}}, {"type": "Feature", "properties": {"name": null, "name_en": null, "status": "Standing", "km": 103.94, "off_m": 7.9, "band": "lower", "source": "Humanitarian OpenStreetMap Team, Nepal Flood 2026 Flood Affected Area", "source_url": "https://data.humdata.org/dataset/hot_flood_npl", "licence": "ODbL 1.0, (c) OpenStreetMap contributors", "retrieved": "2026-09-05", "tier": "observed"}, "geometry": {"type": "LineString", "coordinates": [[84.902555, 27.805818], [84.90217, 27.806321], [84.901485, 27.807453]]}}, {"type": "Feature", "properties": {"name": null, "name_en": null, "status": "Destroyed", "km": 11.58, "off_m": 150.8, "band": "upper", "source": "Humanitarian OpenStreetMap Team, Nepal Flood 2026 Flood Affected Area", "source_url": "https://data.humdata.org/dataset/hot_flood_npl", "licence": "ODbL 1.0, (c) OpenStreetMap contributors", "retrieved": "2026-09-05", "tier": "observed"}, "geometry": {"type": "LineString", "coordinates": [[85.376783, 28.265788], [85.376759, 28.265706]]}}, {"type": "Feature", "properties": {"name": null, "name_en": null, "status": "Standing", "km": 52.85, "off_m": 6.3, "band": "middle", "source": "Humanitarian OpenStreetMap Team, Nepal Flood 2026 Flood Affected Area", "source_url": "https://data.humdata.org/dataset/hot_flood_npl", "licence": "ODbL 1.0, (c) OpenStreetMap contributors", "retrieved": "2026-09-05", "tier": "observed"}, "geometry": {"type": "LineString", "coordinates": [[85.185142, 27.995184], [85.184752, 27.995511]]}}, {"type": "Feature", "properties": {"name": null, "name_en": null, "status": "Standing", "km": 81.31, "off_m": 5.4, "band": "lower", "source": "Humanitarian OpenStreetMap Team, Nepal Flood 2026 Flood Affected Area", "source_url": "https://data.humdata.org/dataset/hot_flood_npl", "licence": "ODbL 1.0, (c) OpenStreetMap contributors", "retrieved": "2026-09-05", "tier": "observed"}, "geometry": {"type": "LineString", "coordinates": [[85.042891, 27.856061], [85.042924, 27.857072]]}}, {"type": "Feature", "properties": {"name": null, "name_en": null, "status": "Standing", "km": 132.41, "off_m": 15.2, "band": "lower", "source": "Humanitarian OpenStreetMap Team, Nepal Flood 2026 Flood Affected Area", "source_url": "https://data.humdata.org/dataset/hot_flood_npl", "licence": "ODbL 1.0, (c) OpenStreetMap contributors", "retrieved": "2026-09-05", "tier": "observed"}, "geometry": {"type": "LineString", "coordinates": [[84.699713, 27.807459], [84.700209, 27.80868]]}}, {"type": "Feature", "properties": {"name": null, "name_en": null, "status": "Standing", "km": 29.35, "off_m": 285.3, "band": "middle", "source": "Humanitarian OpenStreetMap Team, Nepal Flood 2026 Flood Affected Area", "source_url": "https://data.humdata.org/dataset/hot_flood_npl", "licence": "ODbL 1.0, (c) OpenStreetMap contributors", "retrieved": "2026-09-05", "tier": "observed"}, "geometry": {"type": "LineString", "coordinates": [[85.309434, 28.138734], [85.309304, 28.138572]]}}, {"type": "Feature", "properties": {"name": "\u70ed\u7d22\u6865 \u0930\u0938\u0941\u0935\u093e\u0917\u0922\u0940 \u092e\u093f\u0924\u0947\u0930\u0940 \u092a\u0941\u0932", "name_en": "Resuo Bridge", "status": "Destroyed", "km": 10.1, "off_m": 2.1, "band": "upper", "source": "Humanitarian OpenStreetMap Team, Nepal Flood 2026 Flood Affected Area", "source_url": "https://data.humdata.org/dataset/hot_flood_npl", "licence": "ODbL 1.0, (c) OpenStreetMap contributors", "retrieved": "2026-09-05", "tier": "observed"}, "geometry": {"type": "LineString", "coordinates": [[85.378227, 28.278256], [85.377908, 28.279074]]}}, {"type": "Feature", "properties": {"name": null, "name_en": null, "status": "Destroyed", "km": 73.71, "off_m": 224.0, "band": "lower", "source": "Humanitarian OpenStreetMap Team, Nepal Flood 2026 Flood Affected Area", "source_url": "https://data.humdata.org/dataset/hot_flood_npl", "licence": "ODbL 1.0, (c) OpenStreetMap contributors", "retrieved": "2026-09-05", "tier": "observed"}, "geometry": {"type": "LineString", "coordinates": [[85.10905, 27.858333], [85.109314, 27.858802]]}}, {"type": "Feature", "properties": {"name": null, "name_en": null, "status": "Destroyed", "km": 63.03, "off_m": 30.4, "band": "lower", "source": "Humanitarian OpenStreetMap Team, Nepal Flood 2026 Flood Affected Area", "source_url": "https://data.humdata.org/dataset/hot_flood_npl", "licence": "ODbL 1.0, (c) OpenStreetMap contributors", "retrieved": "2026-09-05", "tier": "observed"}, "geometry": {"type": "LineString", "coordinates": [[85.149917, 27.92759], [85.149501, 27.927385]]}}, {"type": "Feature", "properties": {"name": null, "name_en": null, "status": "Standing", "km": 72.09, "off_m": 63.0, "band": "lower", "source": "Humanitarian OpenStreetMap Team, Nepal Flood 2026 Flood Affected Area", "source_url": "https://data.humdata.org/dataset/hot_flood_npl", "licence": "ODbL 1.0, (c) OpenStreetMap contributors", "retrieved": "2026-09-05", "tier": "observed"}, "geometry": {"type": "LineString", "coordinates": [[85.116468, 27.870178], [85.11696, 27.869664]]}}, {"type": "Feature", "properties": {"name": null, "name_en": null, "status": "Standing", "km": 63.46, "off_m": 266.0, "band": "lower", "source": "Humanitarian OpenStreetMap Team, Nepal Flood 2026 Flood Affected Area", "source_url": "https://data.humdata.org/dataset/hot_flood_npl", "licence": "ODbL 1.0, (c) OpenStreetMap contributors", "retrieved": "2026-09-05", "tier": "observed"}, "geometry": {"type": "LineString", "coordinates": [[85.154086, 27.924316], [85.153867, 27.924531]]}}, {"type": "Feature", "properties": {"name": null, "name_en": null, "status": "Standing", "km": 31.1, "off_m": 157.4, "band": "middle", "source": "Humanitarian OpenStreetMap Team, Nepal Flood 2026 Flood Affected Area", "source_url": "https://data.humdata.org/dataset/hot_flood_npl", "licence": "ODbL 1.0, (c) OpenStreetMap contributors", "retrieved": "2026-09-05", "tier": "observed"}, "geometry": {"type": "LineString", "coordinates": [[85.299576, 28.126996], [85.299586, 28.126734]]}}, {"type": "Feature", "properties": {"name": null, "name_en": null, "status": "Standing", "km": 63.53, "off_m": 220.6, "band": "lower", "source": "Humanitarian OpenStreetMap Team, Nepal Flood 2026 Flood Affected Area", "source_url": "https://data.humdata.org/dataset/hot_flood_npl", "licence": "ODbL 1.0, (c) OpenStreetMap contributors", "retrieved": "2026-09-05", "tier": "observed"}, "geometry": {"type": "LineString", "coordinates": [[85.153489, 27.92329], [85.153698, 27.923531]]}}, {"type": "Feature", "properties": {"name": null, "name_en": null, "status": "Standing", "km": 72.13, "off_m": 67.1, "band": "lower", "source": "Humanitarian OpenStreetMap Team, Nepal Flood 2026 Flood Affected Area", "source_url": "https://data.humdata.org/dataset/hot_flood_npl", "licence": "ODbL 1.0, (c) OpenStreetMap contributors", "retrieved": "2026-09-05", "tier": "observed"}, "geometry": {"type": "LineString", "coordinates": [[85.115747, 27.870932], [85.115904, 27.870768]]}}, {"type": "Feature", "properties": {"name": null, "name_en": null, "status": "Standing", "km": 85.59, "off_m": 121.7, "band": "lower", "source": "Humanitarian OpenStreetMap Team, Nepal Flood 2026 Flood Affected Area", "source_url": "https://data.humdata.org/dataset/hot_flood_npl", "licence": "ODbL 1.0, (c) OpenStreetMap contributors", "retrieved": "2026-09-05", "tier": "observed"}, "geometry": {"type": "LineString", "coordinates": [[85.021932, 27.83399], [85.021858, 27.83376]]}}, {"type": "Feature", "properties": {"name": null, "name_en": null, "status": "Standing", "km": 90.38, "off_m": 59.5, "band": "lower", "source": "Humanitarian OpenStreetMap Team, Nepal Flood 2026 Flood Affected Area", "source_url": "https://data.humdata.org/dataset/hot_flood_npl", "licence": "ODbL 1.0, (c) OpenStreetMap contributors", "retrieved": "2026-09-05", "tier": "observed"}, "geometry": {"type": "LineString", "coordinates": [[85.001323, 27.80283], [85.00131, 27.802575], [85.001199, 27.800433]]}}]}
