{"type": "FeatureCollection", "name": "detachment-zone", "crs": {"type": "name", "properties": {"name": "urn:ogc:def:crs:OGC:1.3:CRS84"}}, "xy_coordinate_resolution": 1e-06, "features": [{"type": "Feature", "properties": {"area_ha": 195.7, "EventCode": "FL20260826NPL", "source": "United Nations Satellite Centre (UNOSAT), FL20260826NPL", "source_url": "https://data.humdata.org/dataset/mudflow-rockflow-impact-assessment-in-rasuwa-nuwakot-districts-bagmati-province-nepal-as-o", "licence": "CC BY-SA (version not stated by the publisher)", "retrieved": "2026-09-05", "tier": "observed"}, "geometry": {"type": "Polygon", "coordinates": [[[85.528844, 28.285397], [85.527317, 28.285345], [85.526025, 28.284932], [85.524851, 28.284415], [85.524406, 28.283891], [85.523368, 28.283066], [85.522231, 28.282932], [85.521334, 28.282986], [85.519391, 28.282191], [85.518634, 28.283207], [85.514283, 28.283639], [85.512343, 28.284821], [85.510878, 28.286431], [85.512992, 28.288344], [85.51399, 28.289378], [85.514812, 28.29067], [85.515182, 28.292336], [85.515591, 28.293709], [85.518334, 28.29522], [85.520224, 28.295762], [85.523164, 28.295798], [85.524915, 28.295466], [85.526681, 28.294848], [85.52836, 28.294171], [85.529518, 28.293422], [85.529777, 28.291549], [85.529932, 28.289657], [85.529812, 28.286577], [85.529241, 28.28601], [85.528844, 28.285397]]]}}]}
