{"type": "FeatureCollection", "name": "not-analysed", "crs": {"type": "name", "properties": {"name": "urn:ogc:def:crs:OGC:1.3:CRS84"}}, "xy_coordinate_resolution": 1e-06, "features": [{"type": "Feature", "properties": {"aoi": "AOI03", "round": "initial", "area_km2": 0.13, "source": "Copernicus Emergency Management Service, EMSR927", "source_url": "https://data.humdata.org/dataset/npl-flood-emsr927", "licence": "CC BY (version not stated by the publisher); cite as Copernicus Emergency Management Service (c) 2026 European Union, EMSR927", "retrieved": "2026-09-08", "tier": "observed"}, "geometry": {"type": "Polygon", "coordinates": [[[85.104145, 27.865288], [85.104457, 27.865154], [85.105053, 27.86509], [85.10523, 27.86476], [85.105666, 27.864548], [85.105745, 27.864209], [85.105247, 27.863824], [85.105324, 27.863573], [85.106227, 27.863665], [85.106321, 27.86342], [85.106657, 27.863273], [85.10707, 27.86296], [85.107191, 27.862571], [85.107054, 27.862467], [85.106647, 27.862447], [85.106008, 27.8622], [85.105752, 27.862211], [85.105733, 27.862061], [85.104871, 27.861558], [85.104352, 27.861532], [85.103715, 27.861376], [85.103267, 27.861011], [85.102989, 27.860565], [85.102593, 27.8604], [85.10219, 27.860619], [85.102114, 27.860741], [85.102209, 27.860938], [85.102426, 27.861072], [85.102433, 27.861188], [85.102325, 27.861258], [85.102274, 27.861424], [85.102947, 27.861615], [85.103185, 27.862443], [85.103415, 27.86278], [85.103321, 27.863039], [85.102627, 27.863105], [85.102563, 27.863233], [85.1028, 27.863913], [85.102577, 27.863902], [85.102501, 27.863969], [85.103761, 27.865744], [85.104101, 27.865497], [85.104145, 27.865288]]]}}, {"type": "Feature", "properties": {"aoi": "AOI03", "round": "initial", "area_km2": 0.19, "source": "Copernicus Emergency Management Service, EMSR927", "source_url": "https://data.humdata.org/dataset/npl-flood-emsr927", "licence": "CC BY (version not stated by the publisher); cite as Copernicus Emergency Management Service (c) 2026 European Union, EMSR927", "retrieved": "2026-09-08", "tier": "observed"}, "geometry": {"type": "Polygon", "coordinates": [[[85.114654, 27.875143], [85.114757, 27.874291], [85.114639, 27.873957], [85.114424, 27.873691], [85.113846, 27.873493], [85.113646, 27.873353], [85.113719, 27.87327], [85.114284, 27.873172], [85.114528, 27.873013], [85.114517, 27.872879], [85.114287, 27.872545], [85.114077, 27.872404], [85.113544, 27.872241], [85.113517, 27.872059], [85.113239, 27.87166], [85.113116, 27.871125], [85.11292, 27.87077], [85.112543, 27.870581], [85.112588, 27.870064], [85.112494, 27.869984], [85.112009, 27.869919], [85.111451, 27.869949], [85.111121, 27.87016], [85.111067, 27.870513], [85.110934, 27.870664], [85.11069, 27.870724], [85.110327, 27.87074], [85.110073, 27.870373], [85.109632, 27.870488], [85.109528, 27.870629], [85.109564, 27.870967], [85.109395, 27.871144], [85.109022, 27.871075], [85.10877, 27.870887], [85.108366, 27.870913], [85.108216, 27.871085], [85.110842, 27.873531], [85.11439, 27.875538], [85.114654, 27.875143]]]}}, {"type": "Feature", "properties": {"aoi": "AOI03", "round": "initial", "area_km2": 0.42, "source": "Copernicus Emergency Management Service, EMSR927", "source_url": "https://data.humdata.org/dataset/npl-flood-emsr927", "licence": "CC BY (version not stated by the publisher); cite as Copernicus Emergency Management Service (c) 2026 European Union, EMSR927", "retrieved": "2026-09-08", "tier": "observed"}, "geometry": {"type": "Polygon", "coordinates": [[[85.175792, 27.96243], [85.175739, 27.96277], [85.175522, 27.963003], [85.174427, 27.963256], [85.173863, 27.963087], [85.172958, 27.962976], [85.172637, 27.963385], [85.1727, 27.963504], [85.172598, 27.963841], [85.172771, 27.964128], [85.172864, 27.964653], [85.17309, 27.964803], [85.173289, 27.964823], [85.17341, 27.964682], [85.173396, 27.964578], [85.173614, 27.964598], [85.173909, 27.964762], [85.173926, 27.965458], [85.174159, 27.965811], [85.174046, 27.966111], [85.174119, 27.96622], [85.174328, 27.966154], [85.174394, 27.966276], [85.174627, 27.966318], [85.175185, 27.966123], [85.175318, 27.966288], [85.175757, 27.966255], [85.175851, 27.966425], [85.176559, 27.966335], [85.176749, 27.96658], [85.1769, 27.966582], [85.177304, 27.966297], [85.177619, 27.966249], [85.17797, 27.966611], [85.17849, 27.966507], [85.178756, 27.966751], [85.179019, 27.966793], [85.179191, 27.967323], [85.179493, 27.967493], [85.179896, 27.967433], [85.180385, 27.967866], [85.180585, 27.967898], [85.180746, 27.968078], [85.180966, 27.968096], [85.180964, 27.968425], [85.181371, 27.968434], [85.181861, 27.968339], [85.182282, 27.968499], [85.183171, 27.968565], [85.18334, 27.968741], [85.18408, 27.968852], [85.184616, 27.969018], [85.184782, 27.96931], [85.18483, 27.969839], [85.184935, 27.969935], [85.185378, 27.970046], [85.185593, 27.969927], [85.185833, 27.969904], [85.18593, 27.97017], [85.186158, 27.970266], [85.186347, 27.970204], [85.186681, 27.970331], [85.186644, 27.970523], [85.186318, 27.970688], [85.18622, 27.97093], [85.186283, 27.971093], [85.185647, 27.971721], [85.185724, 27.971787], [85.185816, 27.972523], [85.185744, 27.972673], [85.185594, 27.972602], [85.185518, 27.972853], [85.1857, 27.972915], [85.185776, 27.973033], [85.185813, 27.973325], [85.186153, 27.973302], [85.186315, 27.972933], [85.186609, 27.972872], [85.186768, 27.972501], [85.187238, 27.972257], [85.187621, 27.971774], [85.187651, 27.971625], [85.187471, 27.97128], [85.187871, 27.970736], [85.188152, 27.970588], [85.187124, 27.969702], [85.177395, 27.963001], [85.175899, 27.962335], [85.175792, 27.96243]]]}}, {"type": "Feature", "properties": {"aoi": "AOI03", "round": "initial", "area_km2": 0.01, "source": "Copernicus Emergency Management Service, EMSR927", "source_url": "https://data.humdata.org/dataset/npl-flood-emsr927", "licence": "CC BY (version not stated by the publisher); cite as Copernicus Emergency Management Service (c) 2026 European Union, EMSR927", "retrieved": "2026-09-08", "tier": "observed"}, "geometry": {"type": "Polygon", "coordinates": [[[85.192788, 27.974646], [85.192378, 27.974721], [85.192067, 27.974614], [85.191988, 27.974967], [85.192337, 27.975149], [85.192514, 27.975343], [85.192854, 27.975354], [85.192788, 27.974646]]]}}, {"type": "Feature", "properties": {"aoi": "AOI03", "round": "initial", "area_km2": 1.74, "source": "Copernicus Emergency Management Service, EMSR927", "source_url": "https://data.humdata.org/dataset/npl-flood-emsr927", "licence": "CC BY (version not stated by the publisher); cite as Copernicus Emergency Management Service (c) 2026 European Union, EMSR927", "retrieved": "2026-09-08", "tier": "observed"}, "geometry": {"type": "Polygon", "coordinates": [[[85.192358, 27.975818], [85.191638, 27.975933], [85.191459, 27.976138], [85.190793, 27.976346], [85.190445, 27.976571], [85.190205, 27.976602], [85.189839, 27.976872], [85.189506, 27.976912], [85.189006, 27.97734], [85.188864, 27.97737], [85.188804, 27.977307], [85.18882, 27.977074], [85.188749, 27.977018], [85.188601, 27.977046], [85.188579, 27.976855], [85.18814, 27.976507], [85.187277, 27.976253], [85.187127, 27.976067], [85.186826, 27.975981], [85.186689, 27.975721], [85.186399, 27.97553], [85.186451, 27.975389], [85.186321, 27.975343], [85.186292, 27.975232], [85.185333, 27.975242], [85.185067, 27.975155], [85.185018, 27.974959], [85.184888, 27.974867], [85.184602, 27.974815], [85.183869, 27.974792], [85.183231, 27.974986], [85.183064, 27.974977], [85.182841, 27.97467], [85.18202, 27.974674], [85.181923, 27.974516], [85.181897, 27.974183], [85.182176, 27.973794], [85.182208, 27.973604], [85.181854, 27.972977], [85.182039, 27.97237], [85.182055, 27.971735], [85.181955, 27.971491], [85.181632, 27.971419], [85.181732, 27.971155], [85.181327, 27.970614], [85.18112, 27.970661], [85.180867, 27.971189], [85.180725, 27.971279], [85.180237, 27.971254], [85.179759, 27.97093], [85.179374, 27.970971], [85.179277, 27.971163], [85.179366, 27.971446], [85.179243, 27.97161], [85.179061, 27.971668], [85.178382, 27.971511], [85.177886, 27.971123], [85.177547, 27.970531], [85.177171, 27.970305], [85.176979, 27.970293], [85.176547, 27.970029], [85.176314, 27.969984], [85.175841, 27.969702], [85.175723, 27.969498], [85.175356, 27.969265], [85.174946, 27.968594], [85.174668, 27.968559], [85.174524, 27.968658], [85.174113, 27.969305], [85.17397, 27.969341], [85.17326, 27.969104], [85.172931, 27.969242], [85.174966, 27.97004], [85.178462, 27.971908], [85.17944, 27.97346], [85.179851, 27.976139], [85.177614, 27.981898], [85.178193, 27.987943], [85.180097, 27.994084], [85.182008, 27.996346], [85.181976, 28.000116], [85.182293, 27.999853], [85.182591, 27.999755], [85.182969, 28.000113], [85.183419, 27.999957], [85.18359, 28.000109], [85.183967, 27.99996], [85.184571, 27.999931], [85.184812, 28.000003], [85.185215, 27.99992], [85.185716, 28.000287], [85.186297, 28.000376], [85.186432, 28.000598], [85.186927, 28.000736], [85.187091, 28.000694], [85.187354, 28.000297], [85.187469, 27.998737], [85.187346, 27.995965], [85.184195, 27.989093], [85.182612, 27.982858], [85.184804, 27.975914], [85.185955, 27.976331], [85.188297, 27.977515], [85.18977, 27.977568], [85.192361, 27.97636], [85.192614, 27.975927], [85.192358, 27.975818]]]}}, {"type": "Feature", "properties": {"aoi": "AOI03", "round": "monitoring1", "area_km2": 0.13, "source": "Copernicus Emergency Management Service, EMSR927", "source_url": "https://data.humdata.org/dataset/npl-flood-emsr927", "licence": "CC BY (version not stated by the publisher); cite as Copernicus Emergency Management Service (c) 2026 European Union, EMSR927", "retrieved": "2026-09-08", "tier": "observed"}, "geometry": {"type": "Polygon", "coordinates": [[[85.104145, 27.865288], [85.104457, 27.865154], [85.105053, 27.86509], [85.10523, 27.86476], [85.105666, 27.864548], [85.105745, 27.864209], [85.105247, 27.863824], [85.105324, 27.863573], [85.106227, 27.863665], [85.106321, 27.86342], [85.106657, 27.863273], [85.10707, 27.86296], [85.107191, 27.862571], [85.107054, 27.862467], [85.106647, 27.862447], [85.106008, 27.8622], [85.105752, 27.862211], [85.105733, 27.862061], [85.104871, 27.861558], [85.104352, 27.861532], [85.103715, 27.861376], [85.103267, 27.861011], [85.102989, 27.860565], [85.102593, 27.8604], [85.10219, 27.860619], [85.102114, 27.860741], [85.102209, 27.860938], [85.102426, 27.861072], [85.102433, 27.861188], [85.102325, 27.861258], [85.102274, 27.861424], [85.102947, 27.861615], [85.103185, 27.862443], [85.103415, 27.86278], [85.103321, 27.863039], [85.102627, 27.863105], [85.102563, 27.863233], [85.1028, 27.863913], [85.102577, 27.863902], [85.102501, 27.863969], [85.103761, 27.865744], [85.104101, 27.865497], [85.104145, 27.865288]]]}}, {"type": "Feature", "properties": {"aoi": "AOI05", "round": "initial", "area_km2": 0.04, "source": "Copernicus Emergency Management Service, EMSR927", "source_url": "https://data.humdata.org/dataset/npl-flood-emsr927", "licence": "CC BY (version not stated by the publisher); cite as Copernicus Emergency Management Service (c) 2026 European Union, EMSR927", "retrieved": "2026-09-08", "tier": "observed"}, "geometry": {"type": "Polygon", "coordinates": [[[85.00548, 27.795512], [85.00575, 27.795505], [85.005709, 27.795338], [85.006117, 27.794945], [85.006252, 27.795293], [85.006415, 27.795452], [85.006679, 27.795519], [85.006685, 27.795658], [85.00714, 27.795575], [85.007215, 27.795445], [85.007518, 27.795339], [85.007895, 27.795003], [85.008088, 27.795066], [85.008308, 27.794949], [85.008429, 27.794807], [85.008398, 27.794593], [85.006867, 27.79309], [85.00548, 27.795512]]]}}, {"type": "Feature", "properties": {"aoi": "AOI05", "round": "initial", "area_km2": 0.08, "source": "Copernicus Emergency Management Service, EMSR927", "source_url": "https://data.humdata.org/dataset/npl-flood-emsr927", "licence": "CC BY (version not stated by the publisher); cite as Copernicus Emergency Management Service (c) 2026 European Union, EMSR927", "retrieved": "2026-09-08", "tier": "observed"}, "geometry": {"type": "Polygon", "coordinates": [[[84.992864, 27.795696], [84.993089, 27.79591], [84.993482, 27.796111], [84.993524, 27.795952], [84.993725, 27.795953], [84.993878, 27.796121], [84.994463, 27.796387], [84.994441, 27.796521], [84.994617, 27.796607], [84.994539, 27.796743], [84.994178, 27.79676], [84.99403, 27.796922], [84.993649, 27.797068], [84.993649, 27.797201], [84.993776, 27.797364], [84.993692, 27.79761], [84.9939, 27.798094], [84.994206, 27.798377], [84.994978, 27.798093], [84.995132, 27.798087], [84.995325, 27.798208], [84.995515, 27.797896], [84.995712, 27.797952], [84.995769, 27.797815], [84.99597, 27.797783], [84.996014, 27.79756], [84.996138, 27.797427], [84.996113, 27.797319], [84.995522, 27.796876], [84.995507, 27.796711], [84.995899, 27.796424], [84.996149, 27.796374], [84.996371, 27.796521], [84.996725, 27.796405], [84.99682, 27.796489], [84.996834, 27.796759], [84.997163, 27.796499], [84.997817, 27.796671], [84.997633, 27.796464], [84.997628, 27.796269], [84.997521, 27.79621], [84.99743, 27.796335], [84.997367, 27.796306], [84.997321, 27.796022], [84.99686, 27.795846], [84.996624, 27.795612], [84.996539, 27.795385], [84.996748, 27.795177], [84.997107, 27.795243], [84.997357, 27.795032], [84.997899, 27.794811], [84.992864, 27.795696]]]}}, {"type": "Feature", "properties": {"aoi": "AOI05", "round": "initial", "area_km2": 0.09, "source": "Copernicus Emergency Management Service, EMSR927", "source_url": "https://data.humdata.org/dataset/npl-flood-emsr927", "licence": "CC BY (version not stated by the publisher); cite as Copernicus Emergency Management Service (c) 2026 European Union, EMSR927", "retrieved": "2026-09-08", "tier": "observed"}, "geometry": {"type": "Polygon", "coordinates": [[[84.984327, 27.796313], [84.984288, 27.797097], [84.984503, 27.797057], [84.984591, 27.797222], [84.984413, 27.797467], [84.984761, 27.797523], [84.984895, 27.797897], [84.985046, 27.79799], [84.985148, 27.797963], [84.98567, 27.797587], [84.985845, 27.797757], [84.986206, 27.797715], [84.986445, 27.797952], [84.986739, 27.797986], [84.9869, 27.79815], [84.987021, 27.797861], [84.987217, 27.797797], [84.987427, 27.798213], [84.987922, 27.798309], [84.987991, 27.798557], [84.988183, 27.798798], [84.988232, 27.798951], [84.988115, 27.799081], [84.987796, 27.799162], [84.987848, 27.799354], [84.988313, 27.799353], [84.98846, 27.79961], [84.988738, 27.799768], [84.989054, 27.799533], [84.989176, 27.79923], [84.989226, 27.798724], [84.989477, 27.798417], [84.989463, 27.798204], [84.98924, 27.798197], [84.989041, 27.798621], [84.988869, 27.798723], [84.988493, 27.798312], [84.988616, 27.798147], [84.98859, 27.798031], [84.988203, 27.798092], [84.988153, 27.798011], [84.988308, 27.797609], [84.988343, 27.796736], [84.988231, 27.796474], [84.988317, 27.796338], [84.988568, 27.796294], [84.988577, 27.795895], [84.986998, 27.795975], [84.986856, 27.796238], [84.987063, 27.796413], [84.987053, 27.796597], [84.986775, 27.796861], [84.986668, 27.796878], [84.986488, 27.796886], [84.986397, 27.796817], [84.986126, 27.796367], [84.985838, 27.796443], [84.985522, 27.79633], [84.985428, 27.796215], [84.985425, 27.796054], [84.98414, 27.796179], [84.984327, 27.796313]]]}}, {"type": "Feature", "properties": {"aoi": "AOI05", "round": "initial", "area_km2": 0.01, "source": "Copernicus Emergency Management Service, EMSR927", "source_url": "https://data.humdata.org/dataset/npl-flood-emsr927", "licence": "CC BY (version not stated by the publisher); cite as Copernicus Emergency Management Service (c) 2026 European Union, EMSR927", "retrieved": "2026-09-08", "tier": "observed"}, "geometry": {"type": "Polygon", "coordinates": [[[84.975596, 27.798212], [84.975508, 27.79854], [84.975612, 27.798827], [84.975831, 27.798431], [84.975967, 27.798634], [84.976061, 27.798645], [84.976463, 27.798431], [84.976578, 27.798269], [84.976551, 27.798128], [84.976343, 27.798123], [84.976254, 27.797779], [84.975477, 27.798085], [84.975596, 27.798212]]]}}, {"type": "Feature", "properties": {"aoi": "AOI05", "round": "initial", "area_km2": 0.14, "source": "Copernicus Emergency Management Service, EMSR927", "source_url": "https://data.humdata.org/dataset/npl-flood-emsr927", "licence": "CC BY (version not stated by the publisher); cite as Copernicus Emergency Management Service (c) 2026 European Union, EMSR927", "retrieved": "2026-09-08", "tier": "observed"}, "geometry": {"type": "Polygon", "coordinates": [[[84.98022, 27.800926], [84.980421, 27.800959], [84.980715, 27.801396], [84.981062, 27.801448], [84.981206, 27.801335], [84.981464, 27.801291], [84.981646, 27.801411], [84.981856, 27.801441], [84.981887, 27.801578], [84.982336, 27.801705], [84.982432, 27.801843], [84.982675, 27.80184], [84.982753, 27.802059], [84.983021, 27.802273], [84.98327, 27.802187], [84.983501, 27.801892], [84.983484, 27.801833], [84.983215, 27.801843], [84.983091, 27.801751], [84.983368, 27.80148], [84.983535, 27.801447], [84.983692, 27.801306], [84.983899, 27.801343], [84.983896, 27.801468], [84.984031, 27.801365], [84.984178, 27.801364], [84.984232, 27.801477], [84.984322, 27.801491], [84.984436, 27.801364], [84.984633, 27.801334], [84.984777, 27.801135], [84.984738, 27.800351], [84.984573, 27.80022], [84.984567, 27.800121], [84.984366, 27.800066], [84.983921, 27.800216], [84.983615, 27.799974], [84.983431, 27.800003], [84.983157, 27.800226], [84.982898, 27.800094], [84.982721, 27.800181], [84.982584, 27.800095], [84.982585, 27.799903], [84.98286, 27.799483], [84.98308, 27.799414], [84.983103, 27.799515], [84.983215, 27.799529], [84.983533, 27.799268], [84.983499, 27.798827], [84.983635, 27.798632], [84.983631, 27.798558], [84.983408, 27.798531], [84.983415, 27.798374], [84.983231, 27.798406], [84.983173, 27.798671], [84.982973, 27.79856], [84.982707, 27.798601], [84.982405, 27.798546], [84.982285, 27.798127], [84.982092, 27.798015], [84.982181, 27.797642], [84.98268, 27.797315], [84.982767, 27.79719], [84.9827, 27.797021], [84.982772, 27.796911], [84.983009, 27.796804], [84.982977, 27.796668], [84.982425, 27.796948], [84.982241, 27.796963], [84.982033, 27.797265], [84.981778, 27.797268], [84.981587, 27.797414], [84.981406, 27.797415], [84.980945, 27.797147], [84.980823, 27.796996], [84.98083, 27.796815], [84.980466, 27.796953], [84.98044, 27.797107], [84.980197, 27.797357], [84.980181, 27.797888], [84.979935, 27.797985], [84.979867, 27.798101], [84.979883, 27.798228], [84.980211, 27.798472], [84.980251, 27.798787], [84.980452, 27.798983], [84.980385, 27.799237], [84.980211, 27.799353], [84.980168, 27.799473], [84.980573, 27.79944], [84.980685, 27.799655], [84.981038, 27.799488], [84.981229, 27.799498], [84.981288, 27.799645], [84.981163, 27.799809], [84.9813, 27.800014], [84.981141, 27.800346], [84.980948, 27.800339], [84.980729, 27.800556], [84.98067, 27.800518], [84.980487, 27.800634], [84.980465, 27.800806], [84.980222, 27.800794], [84.980062, 27.800986], [84.98022, 27.800926]]]}}, {"type": "Feature", "properties": {"aoi": "AOI05", "round": "initial", "area_km2": 0.0, "source": "Copernicus Emergency Management Service, EMSR927", "source_url": "https://data.humdata.org/dataset/npl-flood-emsr927", "licence": "CC BY (version not stated by the publisher); cite as Copernicus Emergency Management Service (c) 2026 European Union, EMSR927", "retrieved": "2026-09-08", "tier": "observed"}, "geometry": {"type": "Polygon", "coordinates": [[[84.989171, 27.801965], [84.989486, 27.802024], [84.98942, 27.801823], [84.989127, 27.801822], [84.989171, 27.801965]]]}}, {"type": "Feature", "properties": {"aoi": "AOI05", "round": "initial", "area_km2": 0.01, "source": "Copernicus Emergency Management Service, EMSR927", "source_url": "https://data.humdata.org/dataset/npl-flood-emsr927", "licence": "CC BY (version not stated by the publisher); cite as Copernicus Emergency Management Service (c) 2026 European Union, EMSR927", "retrieved": "2026-09-08", "tier": "observed"}, "geometry": {"type": "Polygon", "coordinates": [[[84.988434, 27.802473], [84.988536, 27.801784], [84.988268, 27.8016], [84.988049, 27.801692], [84.987933, 27.801636], [84.987849, 27.801891], [84.987748, 27.801904], [84.987616, 27.801797], [84.987493, 27.801961], [84.987614, 27.802274], [84.987656, 27.802046], [84.987853, 27.802075], [84.988108, 27.802374], [84.988298, 27.802478], [84.988434, 27.802473]]]}}, {"type": "Feature", "properties": {"aoi": "AOI05", "round": "initial", "area_km2": 0.01, "source": "Copernicus Emergency Management Service, EMSR927", "source_url": "https://data.humdata.org/dataset/npl-flood-emsr927", "licence": "CC BY (version not stated by the publisher); cite as Copernicus Emergency Management Service (c) 2026 European Union, EMSR927", "retrieved": "2026-09-08", "tier": "observed"}, "geometry": {"type": "Polygon", "coordinates": [[[84.989674, 27.802144], [84.98955, 27.80251], [84.989887, 27.802859], [84.990126, 27.802655], [84.990236, 27.802645], [84.990217, 27.802519], [84.990556, 27.802132], [84.990579, 27.801911], [84.990509, 27.801864], [84.990149, 27.802062], [84.989969, 27.802029], [84.989807, 27.802185], [84.989674, 27.802144]]]}}, {"type": "Feature", "properties": {"aoi": "AOI05", "round": "initial", "area_km2": 0.01, "source": "Copernicus Emergency Management Service, EMSR927", "source_url": "https://data.humdata.org/dataset/npl-flood-emsr927", "licence": "CC BY (version not stated by the publisher); cite as Copernicus Emergency Management Service (c) 2026 European Union, EMSR927", "retrieved": "2026-09-08", "tier": "observed"}, "geometry": {"type": "Polygon", "coordinates": [[[84.992929, 27.802138], [84.99263, 27.801972], [84.992204, 27.802074], [84.992162, 27.802259], [84.991995, 27.802457], [84.991989, 27.802706], [84.992163, 27.802699], [84.992419, 27.802855], [84.992532, 27.803035], [84.992684, 27.802989], [84.992791, 27.80307], [84.993059, 27.802854], [84.993086, 27.802537], [84.993232, 27.802458], [84.992929, 27.802138]]]}}, {"type": "Feature", "properties": {"aoi": "AOI05", "round": "initial", "area_km2": 0.02, "source": "Copernicus Emergency Management Service, EMSR927", "source_url": "https://data.humdata.org/dataset/npl-flood-emsr927", "licence": "CC BY (version not stated by the publisher); cite as Copernicus Emergency Management Service (c) 2026 European Union, EMSR927", "retrieved": "2026-09-08", "tier": "observed"}, "geometry": {"type": "Polygon", "coordinates": [[[84.98423, 27.803593], [84.983599, 27.80411], [84.983383, 27.804077], [84.98327, 27.804223], [84.983314, 27.804818], [84.983557, 27.805044], [84.983959, 27.805067], [84.984236, 27.804918], [84.984385, 27.804948], [84.984728, 27.804799], [84.984997, 27.804381], [84.985325, 27.804167], [84.985302, 27.803966], [84.985239, 27.804016], [84.984895, 27.803823], [84.984554, 27.803779], [84.98423, 27.803593]]]}}, {"type": "Feature", "properties": {"aoi": "AOI05", "round": "initial", "area_km2": 0.01, "source": "Copernicus Emergency Management Service, EMSR927", "source_url": "https://data.humdata.org/dataset/npl-flood-emsr927", "licence": "CC BY (version not stated by the publisher); cite as Copernicus Emergency Management Service (c) 2026 European Union, EMSR927", "retrieved": "2026-09-08", "tier": "observed"}, "geometry": {"type": "Polygon", "coordinates": [[[84.987984, 27.804132], [84.988433, 27.804701], [84.988654, 27.804788], [84.988764, 27.804973], [84.988752, 27.805083], [84.988623, 27.805084], [84.988634, 27.805189], [84.988535, 27.805298], [84.988598, 27.805397], [84.988696, 27.805251], [84.988855, 27.805369], [84.989013, 27.805334], [84.989331, 27.805013], [84.989605, 27.804996], [84.989666, 27.804915], [84.989585, 27.804774], [84.989018, 27.804517], [84.988809, 27.804083], [84.988558, 27.804034], [84.988548, 27.803824], [84.988302, 27.803862], [84.988018, 27.803797], [84.987927, 27.803891], [84.987984, 27.804132]]]}}, {"type": "Feature", "properties": {"aoi": "AOI05", "round": "initial", "area_km2": 0.07, "source": "Copernicus Emergency Management Service, EMSR927", "source_url": "https://data.humdata.org/dataset/npl-flood-emsr927", "licence": "CC BY (version not stated by the publisher); cite as Copernicus Emergency Management Service (c) 2026 European Union, EMSR927", "retrieved": "2026-09-08", "tier": "observed"}, "geometry": {"type": "Polygon", "coordinates": [[[84.946224, 27.805752], [84.945824, 27.805738], [84.945589, 27.805837], [84.945363, 27.805837], [84.945127, 27.805686], [84.944867, 27.805817], [84.944164, 27.807484], [84.944216, 27.807684], [84.944377, 27.80781], [84.944308, 27.807979], [84.944331, 27.808292], [84.944451, 27.808285], [84.945092, 27.807804], [84.945233, 27.808105], [84.945454, 27.808083], [84.945628, 27.807884], [84.945952, 27.807875], [84.945996, 27.80813], [84.946223, 27.808334], [84.946068, 27.808653], [84.946444, 27.808773], [84.946759, 27.808739], [84.946989, 27.808435], [84.947114, 27.808651], [84.947631, 27.808821], [84.947814, 27.808618], [84.946224, 27.805752]]]}}, {"type": "Feature", "properties": {"aoi": "AOI05", "round": "initial", "area_km2": 0.79, "source": "Copernicus Emergency Management Service, EMSR927", "source_url": "https://data.humdata.org/dataset/npl-flood-emsr927", "licence": "CC BY (version not stated by the publisher); cite as Copernicus Emergency Management Service (c) 2026 European Union, EMSR927", "retrieved": "2026-09-08", "tier": "observed"}, "geometry": {"type": "Polygon", "coordinates": [[[85.01286, 27.823766], [85.013004, 27.82378], [85.01311, 27.823624], [85.013076, 27.822863], [85.013343, 27.822937], [85.013437, 27.822814], [85.01368, 27.822791], [85.013788, 27.822853], [85.01411, 27.823858], [85.014357, 27.824141], [85.01467, 27.824175], [85.01496, 27.82398], [85.015176, 27.823684], [85.015494, 27.823759], [85.015696, 27.823626], [85.016158, 27.823888], [85.01641, 27.824154], [85.016786, 27.824181], [85.017135, 27.82374], [85.017028, 27.823445], [85.017146, 27.82262], [85.016932, 27.822413], [85.016942, 27.822297], [85.017393, 27.821878], [85.017571, 27.821469], [85.017228, 27.821051], [85.017023, 27.820926], [85.016902, 27.820943], [85.016713, 27.821128], [85.016555, 27.821392], [85.016628, 27.820733], [85.016778, 27.820418], [85.016936, 27.820351], [85.017445, 27.820413], [85.017669, 27.820279], [85.017953, 27.819943], [85.018465, 27.819728], [85.018846, 27.819752], [85.018992, 27.819901], [85.01902, 27.820084], [85.01911, 27.820111], [85.019358, 27.820056], [85.019908, 27.820105], [85.020789, 27.819834], [85.02096, 27.81984], [85.021236, 27.820105], [85.021544, 27.819957], [85.020418, 27.81577], [85.019356, 27.813818], [85.018845, 27.813836], [85.018732, 27.813977], [85.018724, 27.81422], [85.01857, 27.814224], [85.018437, 27.813988], [85.018687, 27.813643], [85.018414, 27.81336], [85.018311, 27.81337], [85.017974, 27.813676], [85.017942, 27.813806], [85.018115, 27.813979], [85.018075, 27.814116], [85.017653, 27.814295], [85.017436, 27.814214], [85.017363, 27.81427], [85.017249, 27.814104], [85.017287, 27.813886], [85.017481, 27.813689], [85.017513, 27.813525], [85.017422, 27.81327], [85.017221, 27.813076], [85.016983, 27.813073], [85.016895, 27.813238], [85.016673, 27.813401], [85.0166, 27.813639], [85.016414, 27.813829], [85.016018, 27.813693], [85.015534, 27.814432], [85.015585, 27.814601], [85.01549, 27.814752], [85.015607, 27.81489], [85.015629, 27.815192], [85.015372, 27.815401], [85.015057, 27.815361], [85.015028, 27.815236], [85.014652, 27.814865], [85.014509, 27.814822], [85.014401, 27.814628], [85.01425, 27.814661], [85.014037, 27.814515], [85.013978, 27.814617], [85.013883, 27.814618], [85.013831, 27.814475], [85.013568, 27.814624], [85.013429, 27.814325], [85.013479, 27.814208], [85.0134, 27.813965], [85.013287, 27.813884], [85.013105, 27.81393], [85.012959, 27.813705], [85.012845, 27.813662], [85.012277, 27.813631], [85.01194, 27.813872], [85.011593, 27.813853], [85.011388, 27.813992], [85.011038, 27.814009], [85.010849, 27.814449], [85.010659, 27.814558], [85.010347, 27.814396], [85.01037, 27.814804], [85.009968, 27.815268], [85.012605, 27.819348], [85.01286, 27.823766]]]}}, {"type": "Feature", "properties": {"aoi": "AOI05", "round": "initial", "area_km2": 0.01, "source": "Copernicus Emergency Management Service, EMSR927", "source_url": "https://data.humdata.org/dataset/npl-flood-emsr927", "licence": "CC BY (version not stated by the publisher); cite as Copernicus Emergency Management Service (c) 2026 European Union, EMSR927", "retrieved": "2026-09-08", "tier": "observed"}, "geometry": {"type": "Polygon", "coordinates": [[[85.01792, 27.838061], [85.017791, 27.837714], [85.017607, 27.837502], [85.017208, 27.837583], [85.016933, 27.837915], [85.017133, 27.838405], [85.017353, 27.838602], [85.01792, 27.838061]]]}}, {"type": "Feature", "properties": {"aoi": "AOI05", "round": "initial", "area_km2": 0.01, "source": "Copernicus Emergency Management Service, EMSR927", "source_url": "https://data.humdata.org/dataset/npl-flood-emsr927", "licence": "CC BY (version not stated by the publisher); cite as Copernicus Emergency Management Service (c) 2026 European Union, EMSR927", "retrieved": "2026-09-08", "tier": "observed"}, "geometry": {"type": "Polygon", "coordinates": [[[85.025689, 27.839491], [85.025883, 27.83933], [85.025809, 27.839116], [85.025623, 27.839019], [85.025447, 27.839291], [85.025106, 27.839288], [85.024909, 27.839121], [85.024874, 27.838678], [85.024779, 27.838613], [85.02452, 27.838664], [85.024469, 27.839576], [85.024543, 27.839695], [85.02476, 27.839718], [85.024953, 27.839865], [85.024883, 27.840628], [85.025162, 27.840693], [85.025378, 27.840482], [85.025467, 27.840329], [85.025452, 27.8396], [85.025527, 27.839491], [85.025689, 27.839491]]]}}, {"type": "Feature", "properties": {"aoi": "AOI05", "round": "initial", "area_km2": 3.54, "source": "Copernicus Emergency Management Service, EMSR927", "source_url": "https://data.humdata.org/dataset/npl-flood-emsr927", "licence": "CC BY (version not stated by the publisher); cite as Copernicus Emergency Management Service (c) 2026 European Union, EMSR927", "retrieved": "2026-09-08", "tier": "observed"}, "geometry": {"type": "Polygon", "coordinates": [[[85.027454, 27.84242], [85.027314, 27.842614], [85.027084, 27.842691], [85.026708, 27.842674], [85.026274, 27.842513], [85.026121, 27.842513], [85.025984, 27.84264], [85.025553, 27.842031], [85.024985, 27.84211], [85.024838, 27.841887], [85.024938, 27.841527], [85.024883, 27.841245], [85.024408, 27.840831], [85.024305, 27.840578], [85.024038, 27.840271], [85.023826, 27.840236], [85.023677, 27.840487], [85.024106, 27.840894], [85.024161, 27.841175], [85.02454, 27.841667], [85.024532, 27.841856], [85.024317, 27.842311], [85.02404, 27.842625], [85.02405, 27.842868], [85.024263, 27.843034], [85.024924, 27.842376], [85.025142, 27.842348], [85.025306, 27.842435], [85.025484, 27.842828], [85.025574, 27.843504], [85.02546, 27.843628], [85.025188, 27.843699], [85.025219, 27.844167], [85.025538, 27.844482], [85.025357, 27.844555], [85.025171, 27.844458], [85.024931, 27.844475], [85.024597, 27.84478], [85.024495, 27.845043], [85.024334, 27.845202], [85.023964, 27.845045], [85.023573, 27.844629], [85.023142, 27.84467], [85.022897, 27.844591], [85.022788, 27.844687], [85.022636, 27.844616], [85.022548, 27.844691], [85.022372, 27.844619], [85.02236, 27.844888], [85.022625, 27.845046], [85.022714, 27.845333], [85.022714, 27.845513], [85.022546, 27.845673], [85.022543, 27.845991], [85.022399, 27.84622], [85.022417, 27.84657], [85.022297, 27.84672], [85.021594, 27.846591], [85.021273, 27.846857], [85.021312, 27.847031], [85.021166, 27.847032], [85.020793, 27.846803], [85.020657, 27.846247], [85.020294, 27.845888], [85.020319, 27.845797], [85.020658, 27.84571], [85.020835, 27.845516], [85.020964, 27.845241], [85.020899, 27.84504], [85.020249, 27.84458], [85.019676, 27.84438], [85.01968, 27.844153], [85.019511, 27.843963], [85.019118, 27.843917], [85.018512, 27.843541], [85.018527, 27.843119], [85.018858, 27.842931], [85.019179, 27.842924], [85.01929, 27.842846], [85.019347, 27.842398], [85.019624, 27.842098], [85.019515, 27.841745], [85.019791, 27.841579], [85.019878, 27.841414], [85.019857, 27.841069], [85.019663, 27.840841], [85.019085, 27.840756], [85.018618, 27.840549], [85.017813, 27.840549], [85.01697, 27.840223], [85.017096, 27.839968], [85.017393, 27.839818], [85.01844, 27.839854], [85.019477, 27.839668], [85.019553, 27.839485], [85.020091, 27.83921], [85.020334, 27.838911], [85.020372, 27.838714], [85.02029, 27.838541], [85.020008, 27.838384], [85.020133, 27.838229], [85.020082, 27.838103], [85.019552, 27.838226], [85.019169, 27.838222], [85.018839, 27.838383], [85.018368, 27.838324], [85.018071, 27.838467], [85.017598, 27.838541], [85.017517, 27.838451], [85.013862, 27.841801], [85.013968, 27.843694], [85.019246, 27.85034], [85.028622, 27.8562], [85.040342, 27.859585], [85.045339, 27.859031], [85.045636, 27.858665], [85.045982, 27.858596], [85.046308, 27.858409], [85.046332, 27.858188], [85.046237, 27.857967], [85.046414, 27.857403], [85.046089, 27.857104], [85.046477, 27.856412], [85.046456, 27.856086], [85.046613, 27.856029], [85.046881, 27.855992], [85.046972, 27.856051], [85.047349, 27.855849], [85.047846, 27.856156], [85.048538, 27.856106], [85.04905, 27.856579], [85.049454, 27.856553], [85.050046, 27.85625], [85.050058, 27.856117], [85.049854, 27.855849], [85.049854, 27.855621], [85.050005, 27.855264], [85.050348, 27.854987], [85.050379, 27.854764], [85.050269, 27.854525], [85.05022, 27.854058], [85.050059, 27.853817], [85.050059, 27.853385], [85.049803, 27.853011], [85.049808, 27.852672], [85.049995, 27.8525], [85.050072, 27.852294], [85.050297, 27.852218], [85.050531, 27.851715], [85.050951, 27.85161], [85.05136, 27.851163], [85.051993, 27.850766], [85.052198, 27.850099], [85.052106, 27.849887], [85.051576, 27.850017], [85.051311, 27.84996], [85.050801, 27.850277], [85.050758, 27.850384], [85.050042, 27.850539], [85.049861, 27.850446], [85.049288, 27.850447], [85.04904, 27.850593], [85.048614, 27.850592], [85.048389, 27.850479], [85.048212, 27.850195], [85.048019, 27.850184], [85.047722, 27.8505], [85.047617, 27.85075], [85.047209, 27.850737], [85.046682, 27.850294], [85.04666, 27.850181], [85.046881, 27.849897], [85.047162, 27.849708], [85.047226, 27.849537], [85.047515, 27.849484], [85.047642, 27.84923], [85.047551, 27.848541], [85.047244, 27.848555], [85.040856, 27.850875], [85.034829, 27.848635], [85.027454, 27.84242]]]}}, {"type": "Feature", "properties": {"aoi": "AOI05", "round": "initial", "area_km2": 0.01, "source": "Copernicus Emergency Management Service, EMSR927", "source_url": "https://data.humdata.org/dataset/npl-flood-emsr927", "licence": "CC BY (version not stated by the publisher); cite as Copernicus Emergency Management Service (c) 2026 European Union, EMSR927", "retrieved": "2026-09-08", "tier": "observed"}, "geometry": {"type": "Polygon", "coordinates": [[[85.054298, 27.852401], [85.054615, 27.852871], [85.054703, 27.853357], [85.055404, 27.853347], [85.055726, 27.853257], [85.055701, 27.85291], [85.055547, 27.852812], [85.055423, 27.852563], [85.055038, 27.852476], [85.054817, 27.852046], [85.054548, 27.852084], [85.054501, 27.852317], [85.054298, 27.852401]]]}}, {"type": "Feature", "properties": {"aoi": "AOI05", "round": "initial", "area_km2": 0.01, "source": "Copernicus Emergency Management Service, EMSR927", "source_url": "https://data.humdata.org/dataset/npl-flood-emsr927", "licence": "CC BY (version not stated by the publisher); cite as Copernicus Emergency Management Service (c) 2026 European Union, EMSR927", "retrieved": "2026-09-08", "tier": "observed"}, "geometry": {"type": "Polygon", "coordinates": [[[85.057578, 27.855317], [85.057832, 27.855712], [85.058165, 27.855959], [85.058303, 27.856184], [85.058629, 27.856007], [85.059066, 27.855974], [85.059178, 27.855838], [85.059148, 27.855556], [85.058888, 27.855285], [85.058754, 27.855006], [85.057769, 27.855077], [85.057578, 27.855317]]]}}, {"type": "Feature", "properties": {"aoi": "AOI05", "round": "initial", "area_km2": 0.01, "source": "Copernicus Emergency Management Service, EMSR927", "source_url": "https://data.humdata.org/dataset/npl-flood-emsr927", "licence": "CC BY (version not stated by the publisher); cite as Copernicus Emergency Management Service (c) 2026 European Union, EMSR927", "retrieved": "2026-09-08", "tier": "observed"}, "geometry": {"type": "Polygon", "coordinates": [[[85.057894, 27.856557], [85.057531, 27.856079], [85.057322, 27.855962], [85.057256, 27.856035], [85.056854, 27.855581], [85.056544, 27.855619], [85.056461, 27.85595], [85.056128, 27.85597], [85.056123, 27.856259], [85.056199, 27.85638], [85.056385, 27.856359], [85.056626, 27.856191], [85.056808, 27.856189], [85.056876, 27.856483], [85.057127, 27.856655], [85.057468, 27.857082], [85.058017, 27.856781], [85.057993, 27.856709], [85.057845, 27.856685], [85.057894, 27.856557]]]}}, {"type": "Feature", "properties": {"aoi": "AOI05", "round": "initial", "area_km2": 0.01, "source": "Copernicus Emergency Management Service, EMSR927", "source_url": "https://data.humdata.org/dataset/npl-flood-emsr927", "licence": "CC BY (version not stated by the publisher); cite as Copernicus Emergency Management Service (c) 2026 European Union, EMSR927", "retrieved": "2026-09-08", "tier": "observed"}, "geometry": {"type": "Polygon", "coordinates": [[[85.048799, 27.857516], [85.048897, 27.857329], [85.048661, 27.857264], [85.048068, 27.85763], [85.047914, 27.857939], [85.047589, 27.858044], [85.04728, 27.85802], [85.046939, 27.858109], [85.047077, 27.858613], [85.048222, 27.858101], [85.048799, 27.857516]]]}}, {"type": "Feature", "properties": {"aoi": "AOI05", "round": "initial", "area_km2": 0.0, "source": "Copernicus Emergency Management Service, EMSR927", "source_url": "https://data.humdata.org/dataset/npl-flood-emsr927", "licence": "CC BY (version not stated by the publisher); cite as Copernicus Emergency Management Service (c) 2026 European Union, EMSR927", "retrieved": "2026-09-08", "tier": "observed"}, "geometry": {"type": "Polygon", "coordinates": [[[85.089347, 27.85209], [85.089541, 27.852211], [85.089669, 27.852426], [85.089807, 27.852456], [85.089999, 27.852099], [85.089477, 27.85195], [85.089347, 27.85209]]]}}, {"type": "Feature", "properties": {"aoi": "AOI05", "round": "initial", "area_km2": 0.07, "source": "Copernicus Emergency Management Service, EMSR927", "source_url": "https://data.humdata.org/dataset/npl-flood-emsr927", "licence": "CC BY (version not stated by the publisher); cite as Copernicus Emergency Management Service (c) 2026 European Union, EMSR927", "retrieved": "2026-09-08", "tier": "observed"}, "geometry": {"type": "MultiPolygon", "coordinates": [[[[85.104738, 27.855229], [85.104905, 27.855602], [85.105172, 27.855823], [85.105848, 27.856139], [85.106086, 27.856328], [85.106132, 27.856637], [85.105962, 27.856844], [85.108343, 27.856763], [85.108531, 27.856576], [85.104738, 27.855229]]], [[[85.099712, 27.853444], [85.100154, 27.853865], [85.100171, 27.854143], [85.100377, 27.85447], [85.100548, 27.854648], [85.101045, 27.854779], [85.101718, 27.855543], [85.10199, 27.855618], [85.10255, 27.855504], [85.103052, 27.855504], [85.10325, 27.855591], [85.103364, 27.855707], [85.103349, 27.856067], [85.1028, 27.856232], [85.102808, 27.856392], [85.103026, 27.856611], [85.103374, 27.856595], [85.103748, 27.856357], [85.103999, 27.856075], [85.104076, 27.855859], [85.104006, 27.855548], [85.10362, 27.855168], [85.10362, 27.855006], [85.103718, 27.854867], [85.099712, 27.853444]]]]}}, {"type": "Feature", "properties": {"aoi": "AOI05", "round": "initial", "area_km2": 0.02, "source": "Copernicus Emergency Management Service, EMSR927", "source_url": "https://data.humdata.org/dataset/npl-flood-emsr927", "licence": "CC BY (version not stated by the publisher); cite as Copernicus Emergency Management Service (c) 2026 European Union, EMSR927", "retrieved": "2026-09-08", "tier": "observed"}, "geometry": {"type": "Polygon", "coordinates": [[[85.060849, 27.854804], [85.060167, 27.854967], [85.060194, 27.855335], [85.059708, 27.855577], [85.059752, 27.855741], [85.060697, 27.856077], [85.060854, 27.856062], [85.061155, 27.855857], [85.061746, 27.855817], [85.061753, 27.85542], [85.061496, 27.855388], [85.0615, 27.855171], [85.061393, 27.855072], [85.06127, 27.854982], [85.060947, 27.854969], [85.060849, 27.854804]]]}}, {"type": "Feature", "properties": {"aoi": "AOI05", "round": "initial", "area_km2": 0.01, "source": "Copernicus Emergency Management Service, EMSR927", "source_url": "https://data.humdata.org/dataset/npl-flood-emsr927", "licence": "CC BY (version not stated by the publisher); cite as Copernicus Emergency Management Service (c) 2026 European Union, EMSR927", "retrieved": "2026-09-08", "tier": "observed"}, "geometry": {"type": "Polygon", "coordinates": [[[85.09927, 27.854885], [85.098944, 27.855069], [85.098856, 27.855539], [85.098983, 27.855672], [85.099412, 27.855746], [85.09973, 27.85602], [85.099927, 27.856037], [85.100133, 27.855906], [85.100109, 27.85558], [85.099536, 27.854907], [85.09927, 27.854885]]]}}, {"type": "Feature", "properties": {"aoi": "AOI05", "round": "initial", "area_km2": 0.0, "source": "Copernicus Emergency Management Service, EMSR927", "source_url": "https://data.humdata.org/dataset/npl-flood-emsr927", "licence": "CC BY (version not stated by the publisher); cite as Copernicus Emergency Management Service (c) 2026 European Union, EMSR927", "retrieved": "2026-09-08", "tier": "observed"}, "geometry": {"type": "Polygon", "coordinates": [[[85.096481, 27.855912], [85.09631, 27.85602], [85.0968, 27.856506], [85.096877, 27.856352], [85.096733, 27.855953], [85.096481, 27.855912]]]}}, {"type": "Feature", "properties": {"aoi": "AOI05", "round": "initial", "area_km2": 0.03, "source": "Copernicus Emergency Management Service, EMSR927", "source_url": "https://data.humdata.org/dataset/npl-flood-emsr927", "licence": "CC BY (version not stated by the publisher); cite as Copernicus Emergency Management Service (c) 2026 European Union, EMSR927", "retrieved": "2026-09-08", "tier": "observed"}, "geometry": {"type": "Polygon", "coordinates": [[[85.100574, 27.858182], [85.100342, 27.858058], [85.100225, 27.857845], [85.100016, 27.857715], [85.099936, 27.85736], [85.099557, 27.85734], [85.099437, 27.857173], [85.099258, 27.857164], [85.099087, 27.857255], [85.098992, 27.85743], [85.098756, 27.857576], [85.098662, 27.857834], [85.098213, 27.857592], [85.097842, 27.857223], [85.097582, 27.85722], [85.097403, 27.85735], [85.097431, 27.857995], [85.09767, 27.858294], [85.097832, 27.858189], [85.098008, 27.858179], [85.098397, 27.858315], [85.098667, 27.858294], [85.098836, 27.858404], [85.099086, 27.858767], [85.099489, 27.858793], [85.099792, 27.858895], [85.100574, 27.858182]]]}}, {"type": "Feature", "properties": {"aoi": "AOI05", "round": "initial", "area_km2": 0.07, "source": "Copernicus Emergency Management Service, EMSR927", "source_url": "https://data.humdata.org/dataset/npl-flood-emsr927", "licence": "CC BY (version not stated by the publisher); cite as Copernicus Emergency Management Service (c) 2026 European Union, EMSR927", "retrieved": "2026-09-08", "tier": "observed"}, "geometry": {"type": "Polygon", "coordinates": [[[85.06256, 27.856348], [85.061361, 27.856746], [85.06143, 27.856879], [85.061374, 27.857189], [85.061424, 27.857287], [85.061999, 27.857721], [85.062074, 27.858016], [85.062214, 27.858154], [85.062091, 27.858282], [85.061883, 27.858182], [85.061659, 27.858229], [85.061477, 27.858419], [85.061375, 27.858722], [85.061797, 27.859015], [85.06196, 27.858888], [85.062194, 27.858903], [85.06247, 27.858663], [85.062882, 27.858506], [85.06305, 27.858733], [85.063087, 27.859639], [85.063218, 27.859761], [85.063525, 27.859739], [85.064016, 27.859212], [85.063963, 27.858688], [85.06459, 27.858142], [85.064657, 27.857451], [85.064429, 27.857028], [85.063494, 27.856717], [85.063458, 27.856809], [85.063145, 27.856847], [85.062983, 27.856986], [85.06259, 27.856816], [85.06256, 27.856348]]]}}, {"type": "Feature", "properties": {"aoi": "AOI05", "round": "initial", "area_km2": 0.01, "source": "Copernicus Emergency Management Service, EMSR927", "source_url": "https://data.humdata.org/dataset/npl-flood-emsr927", "licence": "CC BY (version not stated by the publisher); cite as Copernicus Emergency Management Service (c) 2026 European Union, EMSR927", "retrieved": "2026-09-08", "tier": "observed"}, "geometry": {"type": "Polygon", "coordinates": [[[85.087756, 27.859547], [85.08735, 27.859909], [85.087264, 27.860161], [85.087578, 27.86052], [85.087796, 27.86058], [85.088189, 27.860476], [85.088317, 27.860291], [85.088119, 27.859828], [85.088159, 27.859506], [85.087756, 27.859547]]]}}, {"type": "Feature", "properties": {"aoi": "AOI05", "round": "initial", "area_km2": 0.02, "source": "Copernicus Emergency Management Service, EMSR927", "source_url": "https://data.humdata.org/dataset/npl-flood-emsr927", "licence": "CC BY (version not stated by the publisher); cite as Copernicus Emergency Management Service (c) 2026 European Union, EMSR927", "retrieved": "2026-09-08", "tier": "observed"}, "geometry": {"type": "Polygon", "coordinates": [[[85.059212, 27.861309], [85.060609, 27.860846], [85.06062, 27.860615], [85.060871, 27.860446], [85.060748, 27.860212], [85.060333, 27.860087], [85.059789, 27.860102], [85.059325, 27.859978], [85.058997, 27.860051], [85.059006, 27.86015], [85.059324, 27.860518], [85.059619, 27.860616], [85.059686, 27.860732], [85.059522, 27.86093], [85.058987, 27.86097], [85.058974, 27.861176], [85.058814, 27.861286], [85.058864, 27.86147], [85.058985, 27.861522], [85.059212, 27.861309]]]}}, {"type": "Feature", "properties": {"aoi": "AOI05", "round": "initial", "area_km2": 0.0, "source": "Copernicus Emergency Management Service, EMSR927", "source_url": "https://data.humdata.org/dataset/npl-flood-emsr927", "licence": "CC BY (version not stated by the publisher); cite as Copernicus Emergency Management Service (c) 2026 European Union, EMSR927", "retrieved": "2026-09-08", "tier": "observed"}, "geometry": {"type": "MultiPolygon", "coordinates": [[[[85.068775, 27.86114], [85.068656, 27.861184], [85.068579, 27.861229], [85.06884, 27.861199], [85.068775, 27.86114]]], [[[85.0703, 27.860859], [85.070272, 27.860638], [85.070155, 27.860734], [85.070161, 27.860349], [85.069928, 27.860579], [85.069915, 27.860771], [85.070011, 27.860862], [85.069933, 27.860966], [85.0703, 27.860859]]]]}}, {"type": "Feature", "properties": {"aoi": "AOI05", "round": "initial", "area_km2": 0.03, "source": "Copernicus Emergency Management Service, EMSR927", "source_url": "https://data.humdata.org/dataset/npl-flood-emsr927", "licence": "CC BY (version not stated by the publisher); cite as Copernicus Emergency Management Service (c) 2026 European Union, EMSR927", "retrieved": "2026-09-08", "tier": "observed"}, "geometry": {"type": "Polygon", "coordinates": [[[85.091781, 27.862608], [85.091805, 27.862216], [85.092217, 27.862014], [85.092252, 27.861807], [85.09216, 27.861552], [85.091869, 27.861463], [85.09177, 27.861261], [85.09164, 27.860397], [85.091406, 27.860391], [85.091311, 27.860506], [85.091426, 27.860629], [85.091411, 27.860751], [85.090688, 27.861264], [85.09058, 27.861415], [85.090629, 27.862279], [85.090677, 27.862388], [85.09088, 27.862396], [85.091027, 27.862663], [85.091684, 27.86271], [85.091781, 27.862608]]]}}, {"type": "Feature", "properties": {"aoi": "AOI05", "round": "initial", "area_km2": 0.0, "source": "Copernicus Emergency Management Service, EMSR927", "source_url": "https://data.humdata.org/dataset/npl-flood-emsr927", "licence": "CC BY (version not stated by the publisher); cite as Copernicus Emergency Management Service (c) 2026 European Union, EMSR927", "retrieved": "2026-09-08", "tier": "observed"}, "geometry": {"type": "Polygon", "coordinates": [[[85.09843, 27.862182], [85.098495, 27.861913], [85.098344, 27.861845], [85.09832, 27.861728], [85.098188, 27.861629], [85.097724, 27.861917], [85.09768, 27.862181], [85.09786, 27.862425], [85.098249, 27.862196], [85.09843, 27.862182]]]}}, {"type": "Feature", "properties": {"aoi": "AOI05", "round": "initial", "area_km2": 0.01, "source": "Copernicus Emergency Management Service, EMSR927", "source_url": "https://data.humdata.org/dataset/npl-flood-emsr927", "licence": "CC BY (version not stated by the publisher); cite as Copernicus Emergency Management Service (c) 2026 European Union, EMSR927", "retrieved": "2026-09-08", "tier": "observed"}, "geometry": {"type": "Polygon", "coordinates": [[[85.099394, 27.862465], [85.099289, 27.862569], [85.099261, 27.862941], [85.099364, 27.863049], [85.099535, 27.863086], [85.099681, 27.863354], [85.099955, 27.863446], [85.099935, 27.863162], [85.100131, 27.863042], [85.100018, 27.862841], [85.100002, 27.862612], [85.099394, 27.862465]]]}}, {"type": "Feature", "properties": {"aoi": "AOI05", "round": "initial", "area_km2": 0.0, "source": "Copernicus Emergency Management Service, EMSR927", "source_url": "https://data.humdata.org/dataset/npl-flood-emsr927", "licence": "CC BY (version not stated by the publisher); cite as Copernicus Emergency Management Service (c) 2026 European Union, EMSR927", "retrieved": "2026-09-08", "tier": "observed"}, "geometry": {"type": "Polygon", "coordinates": [[[85.084465, 27.864214], [85.084591, 27.863763], [85.084344, 27.863564], [85.084015, 27.863724], [85.084154, 27.864358], [85.084465, 27.864214]]]}}, {"type": "Feature", "properties": {"aoi": "AOI05", "round": "initial", "area_km2": 0.01, "source": "Copernicus Emergency Management Service, EMSR927", "source_url": "https://data.humdata.org/dataset/npl-flood-emsr927", "licence": "CC BY (version not stated by the publisher); cite as Copernicus Emergency Management Service (c) 2026 European Union, EMSR927", "retrieved": "2026-09-08", "tier": "observed"}, "geometry": {"type": "Polygon", "coordinates": [[[85.085765, 27.864817], [85.085795, 27.864256], [85.086052, 27.864109], [85.086141, 27.863941], [85.086121, 27.863861], [85.08589, 27.863806], [85.085891, 27.863615], [85.085644, 27.86366], [85.085619, 27.863837], [85.085453, 27.864036], [85.085492, 27.864239], [85.084952, 27.86466], [85.084501, 27.864644], [85.084237, 27.864735], [85.084256, 27.864824], [85.085552, 27.865141], [85.085765, 27.864817]]]}}, {"type": "Feature", "properties": {"aoi": "AOI05", "round": "initial", "area_km2": 0.02, "source": "Copernicus Emergency Management Service, EMSR927", "source_url": "https://data.humdata.org/dataset/npl-flood-emsr927", "licence": "CC BY (version not stated by the publisher); cite as Copernicus Emergency Management Service (c) 2026 European Union, EMSR927", "retrieved": "2026-09-08", "tier": "observed"}, "geometry": {"type": "Polygon", "coordinates": [[[85.101085, 27.864429], [85.101573, 27.864357], [85.101561, 27.864196], [85.101335, 27.864061], [85.100949, 27.864025], [85.100639, 27.863841], [85.100345, 27.863843], [85.100015, 27.863964], [85.099839, 27.863882], [85.099478, 27.863922], [85.09952, 27.864301], [85.099894, 27.864724], [85.101022, 27.865225], [85.101274, 27.86517], [85.101305, 27.865042], [85.100982, 27.864765], [85.10095, 27.864599], [85.101085, 27.864429]]]}}, {"type": "Feature", "properties": {"aoi": "AOI05", "round": "initial", "area_km2": 0.0, "source": "Copernicus Emergency Management Service, EMSR927", "source_url": "https://data.humdata.org/dataset/npl-flood-emsr927", "licence": "CC BY (version not stated by the publisher); cite as Copernicus Emergency Management Service (c) 2026 European Union, EMSR927", "retrieved": "2026-09-08", "tier": "observed"}, "geometry": {"type": "Polygon", "coordinates": [[[85.093138, 27.865683], [85.093143, 27.865443], [85.092936, 27.865344], [85.092695, 27.865333], [85.092449, 27.86511], [85.092176, 27.86515], [85.092262, 27.865435], [85.092544, 27.865784], [85.092709, 27.865805], [85.093138, 27.865683]]]}}, {"type": "Feature", "properties": {"aoi": "AOI05", "round": "initial", "area_km2": 0.0, "source": "Copernicus Emergency Management Service, EMSR927", "source_url": "https://data.humdata.org/dataset/npl-flood-emsr927", "licence": "CC BY (version not stated by the publisher); cite as Copernicus Emergency Management Service (c) 2026 European Union, EMSR927", "retrieved": "2026-09-08", "tier": "observed"}, "geometry": {"type": "Polygon", "coordinates": [[[85.098038, 27.865252], [85.097794, 27.865429], [85.097781, 27.865512], [85.097961, 27.865955], [85.098149, 27.866152], [85.098587, 27.865474], [85.098419, 27.865283], [85.098038, 27.865252]]]}}, {"type": "Feature", "properties": {"aoi": "AOI05", "round": "initial", "area_km2": 0.01, "source": "Copernicus Emergency Management Service, EMSR927", "source_url": "https://data.humdata.org/dataset/npl-flood-emsr927", "licence": "CC BY (version not stated by the publisher); cite as Copernicus Emergency Management Service (c) 2026 European Union, EMSR927", "retrieved": "2026-09-08", "tier": "observed"}, "geometry": {"type": "Polygon", "coordinates": [[[85.092109, 27.866608], [85.092709, 27.866552], [85.092832, 27.86649], [85.092819, 27.866274], [85.092714, 27.866197], [85.09158, 27.866148], [85.091084, 27.866283], [85.090935, 27.866454], [85.091978, 27.866709], [85.092109, 27.866608]]]}}, {"type": "Feature", "properties": {"aoi": "AOI05", "round": "initial", "area_km2": 0.02, "source": "Copernicus Emergency Management Service, EMSR927", "source_url": "https://data.humdata.org/dataset/npl-flood-emsr927", "licence": "CC BY (version not stated by the publisher); cite as Copernicus Emergency Management Service (c) 2026 European Union, EMSR927", "retrieved": "2026-09-08", "tier": "observed"}, "geometry": {"type": "Polygon", "coordinates": [[[85.09896, 27.867049], [85.099499, 27.866743], [85.099503, 27.866489], [85.098461, 27.866458], [85.098213, 27.866562], [85.09833, 27.866844], [85.097759, 27.866914], [85.097466, 27.866802], [85.097503, 27.866601], [85.097387, 27.86651], [85.097167, 27.866512], [85.096622, 27.86678], [85.096252, 27.866754], [85.096038, 27.866393], [85.095813, 27.866265], [85.095592, 27.866265], [85.095307, 27.866511], [85.094433, 27.867021], [85.09896, 27.867049]]]}}, {"type": "Feature", "properties": {"aoi": "AOI05", "round": "monitoring1", "area_km2": 0.31, "source": "Copernicus Emergency Management Service, EMSR927", "source_url": "https://data.humdata.org/dataset/npl-flood-emsr927", "licence": "CC BY (version not stated by the publisher); cite as Copernicus Emergency Management Service (c) 2026 European Union, EMSR927", "retrieved": "2026-09-08", "tier": "observed"}, "geometry": {"type": "MultiPolygon", "coordinates": [[[[84.942181, 27.812183], [84.942343, 27.812186], [84.942346, 27.812005], [84.942448, 27.812007], [84.942446, 27.812097], [84.942548, 27.812099], [84.942544, 27.812279], [84.942443, 27.812278], [84.942438, 27.812548], [84.942539, 27.81255], [84.942541, 27.81246], [84.942744, 27.812463], [84.942842, 27.812645], [84.942943, 27.812646], [84.943038, 27.813009], [84.943241, 27.813012], [84.943339, 27.813194], [84.943541, 27.813287], [84.943539, 27.813377], [84.94364, 27.813379], [84.943639, 27.813469], [84.943842, 27.813472], [84.94384, 27.813562], [84.943906, 27.813563], [84.943937, 27.813386], [84.943535, 27.812894], [84.943415, 27.812365], [84.943423, 27.812295], [84.94354, 27.812273], [84.943536, 27.812185], [84.943339, 27.812068], [84.943319, 27.811831], [84.943142, 27.811737], [84.942971, 27.811901], [84.942856, 27.811916], [84.942618, 27.811718], [84.942651, 27.811571], [84.942919, 27.811436], [84.942828, 27.811324], [84.942908, 27.811174], [84.942686, 27.810985], [84.942181, 27.812183]]], [[[84.949058, 27.81092], [84.946557, 27.806291], [84.945496, 27.804327], [84.943378, 27.809347], [84.943465, 27.809449], [84.94346, 27.80968], [84.943539, 27.809677], [84.943459, 27.809874], [84.943509, 27.810138], [84.943588, 27.810204], [84.943568, 27.810293], [84.943656, 27.810286], [84.943694, 27.810469], [84.943617, 27.810677], [84.943784, 27.810828], [84.943978, 27.810869], [84.943954, 27.810991], [84.944123, 27.81103], [84.94411, 27.811154], [84.944473, 27.811467], [84.944875, 27.81146], [84.944902, 27.811559], [84.944988, 27.811494], [84.945045, 27.811577], [84.945153, 27.811578], [84.945063, 27.811653], [84.945114, 27.811699], [84.945242, 27.811612], [84.945405, 27.811692], [84.945468, 27.811474], [84.945552, 27.811435], [84.945728, 27.811685], [84.945701, 27.811803], [84.945916, 27.811817], [84.946093, 27.811963], [84.946161, 27.811903], [84.945995, 27.811755], [84.946425, 27.811831], [84.946206, 27.81193], [84.946382, 27.811983], [84.946327, 27.812076], [84.9466, 27.811825], [84.946724, 27.811839], [84.946592, 27.811876], [84.946632, 27.811923], [84.947163, 27.812], [84.947313, 27.81198], [84.947447, 27.811759], [84.947137, 27.811882], [84.946937, 27.811878], [84.94757, 27.811685], [84.947622, 27.811704], [84.94749, 27.811809], [84.947927, 27.811761], [84.948061, 27.811902], [84.947965, 27.812098], [84.948076, 27.812091], [84.947844, 27.812537], [84.947953, 27.812431], [84.947941, 27.812528], [84.948001, 27.812443], [84.948041, 27.812568], [84.948171, 27.812593], [84.948533, 27.812542], [84.948534, 27.81248], [84.948932, 27.812486], [84.948816, 27.812409], [84.948871, 27.81231], [84.949129, 27.812489], [84.949244, 27.812491], [84.949349, 27.812312], [84.949451, 27.812313], [84.949449, 27.812404], [84.949753, 27.812408], [84.949755, 27.812318], [84.949958, 27.812321], [84.949956, 27.812411], [84.950058, 27.812413], [84.95006, 27.812323], [84.950567, 27.81233], [84.950565, 27.81242], [84.950667, 27.812422], [84.950592, 27.81234], [84.950643, 27.812143], [84.950739, 27.81219], [84.950825, 27.811961], [84.950576, 27.811567], [84.950553, 27.811311], [84.949058, 27.81092]]]]}}, {"type": "Feature", "properties": {"aoi": "AOI05", "round": "monitoring1", "area_km2": 0.0, "source": "Copernicus Emergency Management Service, EMSR927", "source_url": "https://data.humdata.org/dataset/npl-flood-emsr927", "licence": "CC BY (version not stated by the publisher); cite as Copernicus Emergency Management Service (c) 2026 European Union, EMSR927", "retrieved": "2026-09-08", "tier": "observed"}, "geometry": {"type": "Polygon", "coordinates": [[[84.950565, 27.811328], [84.950562, 27.811333], [84.950568, 27.811326], [84.950565, 27.811328]]]}}, {"type": "Feature", "properties": {"aoi": "AOI05", "round": "monitoring1", "area_km2": 0.0, "source": "Copernicus Emergency Management Service, EMSR927", "source_url": "https://data.humdata.org/dataset/npl-flood-emsr927", "licence": "CC BY (version not stated by the publisher); cite as Copernicus Emergency Management Service (c) 2026 European Union, EMSR927", "retrieved": "2026-09-08", "tier": "observed"}, "geometry": {"type": "Polygon", "coordinates": [[[84.947956, 27.812038], [84.9477, 27.812269], [84.947525, 27.812768], [84.947956, 27.812038]]]}}, {"type": "Feature", "properties": {"aoi": "AOI05", "round": "monitoring1", "area_km2": 0.0, "source": "Copernicus Emergency Management Service, EMSR927", "source_url": "https://data.humdata.org/dataset/npl-flood-emsr927", "licence": "CC BY (version not stated by the publisher); cite as Copernicus Emergency Management Service (c) 2026 European Union, EMSR927", "retrieved": "2026-09-08", "tier": "observed"}, "geometry": {"type": "Polygon", "coordinates": [[[84.950768, 27.812423], [84.950792, 27.812418], [84.950768, 27.812411], [84.950768, 27.812423]]]}}, {"type": "Feature", "properties": {"aoi": "AOI05", "round": "monitoring1", "area_km2": 0.0, "source": "Copernicus Emergency Management Service, EMSR927", "source_url": "https://data.humdata.org/dataset/npl-flood-emsr927", "licence": "CC BY (version not stated by the publisher); cite as Copernicus Emergency Management Service (c) 2026 European Union, EMSR927", "retrieved": "2026-09-08", "tier": "observed"}, "geometry": {"type": "Polygon", "coordinates": [[[84.951467, 27.813072], [84.951467, 27.81307], [84.951466, 27.813072], [84.951467, 27.813072]]]}}, {"type": "Feature", "properties": {"aoi": "AOI05", "round": "monitoring1", "area_km2": 0.0, "source": "Copernicus Emergency Management Service, EMSR927", "source_url": "https://data.humdata.org/dataset/npl-flood-emsr927", "licence": "CC BY (version not stated by the publisher); cite as Copernicus Emergency Management Service (c) 2026 European Union, EMSR927", "retrieved": "2026-09-08", "tier": "observed"}, "geometry": {"type": "Polygon", "coordinates": [[[84.950979, 27.813308], [84.951021, 27.813279], [84.951033, 27.81324], [84.950956, 27.813238], [84.950979, 27.813308]]]}}, {"type": "Feature", "properties": {"aoi": "AOI05", "round": "monitoring1", "area_km2": 0.0, "source": "Copernicus Emergency Management Service, EMSR927", "source_url": "https://data.humdata.org/dataset/npl-flood-emsr927", "licence": "CC BY (version not stated by the publisher); cite as Copernicus Emergency Management Service (c) 2026 European Union, EMSR927", "retrieved": "2026-09-08", "tier": "observed"}, "geometry": {"type": "Polygon", "coordinates": [[[84.950915, 27.813509], [84.950923, 27.813419], [84.950851, 27.813417], [84.950849, 27.813508], [84.950915, 27.813509]]]}}, {"type": "Feature", "properties": {"aoi": "AOI05", "round": "monitoring1", "area_km2": 0.0, "source": "Copernicus Emergency Management Service, EMSR927", "source_url": "https://data.humdata.org/dataset/npl-flood-emsr927", "licence": "CC BY (version not stated by the publisher); cite as Copernicus Emergency Management Service (c) 2026 European Union, EMSR927", "retrieved": "2026-09-08", "tier": "observed"}, "geometry": {"type": "Polygon", "coordinates": [[[84.95221, 27.813575], [84.952213, 27.813573], [84.95221, 27.813573], [84.95221, 27.813575]]]}}, {"type": "Feature", "properties": {"aoi": "AOI05", "round": "monitoring1", "area_km2": 0.0, "source": "Copernicus Emergency Management Service, EMSR927", "source_url": "https://data.humdata.org/dataset/npl-flood-emsr927", "licence": "CC BY (version not stated by the publisher); cite as Copernicus Emergency Management Service (c) 2026 European Union, EMSR927", "retrieved": "2026-09-08", "tier": "observed"}, "geometry": {"type": "Polygon", "coordinates": [[[84.952182, 27.813586], [84.952185, 27.813583], [84.952182, 27.813583], [84.952182, 27.813586]]]}}, {"type": "Feature", "properties": {"aoi": "AOI05", "round": "monitoring1", "area_km2": 0.0, "source": "Copernicus Emergency Management Service, EMSR927", "source_url": "https://data.humdata.org/dataset/npl-flood-emsr927", "licence": "CC BY (version not stated by the publisher); cite as Copernicus Emergency Management Service (c) 2026 European Union, EMSR927", "retrieved": "2026-09-08", "tier": "observed"}, "geometry": {"type": "Polygon", "coordinates": [[[84.944142, 27.813657], [84.944092, 27.81365], [84.94406, 27.813656], [84.944142, 27.813657]]]}}, {"type": "Feature", "properties": {"aoi": "AOI05", "round": "monitoring1", "area_km2": 0.0, "source": "Copernicus Emergency Management Service, EMSR927", "source_url": "https://data.humdata.org/dataset/npl-flood-emsr927", "licence": "CC BY (version not stated by the publisher); cite as Copernicus Emergency Management Service (c) 2026 European Union, EMSR927", "retrieved": "2026-09-08", "tier": "observed"}, "geometry": {"type": "Polygon", "coordinates": [[[84.944344, 27.81375], [84.944342, 27.81384], [84.944516, 27.813843], [84.944244, 27.813682], [84.944242, 27.813749], [84.944344, 27.81375]]]}}, {"type": "Feature", "properties": {"aoi": "AOI05", "round": "monitoring1", "area_km2": 0.0, "source": "Copernicus Emergency Management Service, EMSR927", "source_url": "https://data.humdata.org/dataset/npl-flood-emsr927", "licence": "CC BY (version not stated by the publisher); cite as Copernicus Emergency Management Service (c) 2026 European Union, EMSR927", "retrieved": "2026-09-08", "tier": "observed"}, "geometry": {"type": "Polygon", "coordinates": [[[84.944645, 27.813935], [84.944643, 27.814025], [84.944745, 27.814027], [84.944741, 27.814207], [84.944875, 27.814217], [84.944827, 27.814017], [84.944545, 27.813873], [84.944544, 27.813934], [84.944645, 27.813935]]]}}, {"type": "Feature", "properties": {"aoi": "AOI05", "round": "monitoring1", "area_km2": 0.0, "source": "Copernicus Emergency Management Service, EMSR927", "source_url": "https://data.humdata.org/dataset/npl-flood-emsr927", "licence": "CC BY (version not stated by the publisher); cite as Copernicus Emergency Management Service (c) 2026 European Union, EMSR927", "retrieved": "2026-09-08", "tier": "observed"}, "geometry": {"type": "Polygon", "coordinates": [[[84.952244, 27.816868], [84.952232, 27.816865], [84.95223, 27.816868], [84.952244, 27.816868]]]}}, {"type": "Feature", "properties": {"aoi": "AOI05", "round": "monitoring1", "area_km2": 0.0, "source": "Copernicus Emergency Management Service, EMSR927", "source_url": "https://data.humdata.org/dataset/npl-flood-emsr927", "licence": "CC BY (version not stated by the publisher); cite as Copernicus Emergency Management Service (c) 2026 European Union, EMSR927", "retrieved": "2026-09-08", "tier": "observed"}, "geometry": {"type": "Polygon", "coordinates": [[[84.952104, 27.816956], [84.952071, 27.816935], [84.952034, 27.816955], [84.952104, 27.816956]]]}}, {"type": "Feature", "properties": {"aoi": "AOI05", "round": "monitoring1", "area_km2": 0.03, "source": "Copernicus Emergency Management Service, EMSR927", "source_url": "https://data.humdata.org/dataset/npl-flood-emsr927", "licence": "CC BY (version not stated by the publisher); cite as Copernicus Emergency Management Service (c) 2026 European Union, EMSR927", "retrieved": "2026-09-08", "tier": "observed"}, "geometry": {"type": "Polygon", "coordinates": [[[84.979684, 27.796799], [84.977952, 27.79711], [84.97795, 27.797257], [84.978051, 27.797278], [84.978042, 27.797729], [84.978144, 27.797731], [84.978142, 27.797821], [84.978343, 27.797914], [84.97834, 27.798095], [84.978442, 27.798096], [84.97854, 27.798278], [84.979352, 27.79829], [84.979353, 27.7982], [84.979455, 27.798201], [84.97956, 27.798022], [84.979661, 27.798024], [84.979664, 27.797843], [84.979766, 27.797845], [84.979874, 27.797485], [84.980079, 27.797398], [84.980087, 27.796947], [84.979884, 27.796944], [84.979886, 27.796854], [84.979683, 27.796851], [84.979684, 27.796799]]]}}, {"type": "Feature", "properties": {"aoi": "AOI05", "round": "monitoring1", "area_km2": 0.02, "source": "Copernicus Emergency Management Service, EMSR927", "source_url": "https://data.humdata.org/dataset/npl-flood-emsr927", "licence": "CC BY (version not stated by the publisher); cite as Copernicus Emergency Management Service (c) 2026 European Union, EMSR927", "retrieved": "2026-09-08", "tier": "observed"}, "geometry": {"type": "Polygon", "coordinates": [[[84.991096, 27.799996], [84.9912, 27.799817], [84.991302, 27.799818], [84.991303, 27.799728], [84.991405, 27.79973], [84.991408, 27.799549], [84.99151, 27.799551], [84.991515, 27.79928], [84.991413, 27.799278], [84.99142, 27.798917], [84.991217, 27.798914], [84.991119, 27.798732], [84.990916, 27.79873], [84.990818, 27.798548], [84.990615, 27.798545], [84.990613, 27.798635], [84.99041, 27.798632], [84.990408, 27.798722], [84.990204, 27.798809], [84.990197, 27.79917], [84.990096, 27.799169], [84.990091, 27.79944], [84.989989, 27.799438], [84.989983, 27.799799], [84.990084, 27.799801], [84.990081, 27.799981], [84.990284, 27.799984], [84.990282, 27.800074], [84.990992, 27.800085], [84.990994, 27.799994], [84.991096, 27.799996]]]}}, {"type": "Feature", "properties": {"aoi": "AOI05", "round": "monitoring1", "area_km2": 0.04, "source": "Copernicus Emergency Management Service, EMSR927", "source_url": "https://data.humdata.org/dataset/npl-flood-emsr927", "licence": "CC BY (version not stated by the publisher); cite as Copernicus Emergency Management Service (c) 2026 European Union, EMSR927", "retrieved": "2026-09-08", "tier": "observed"}, "geometry": {"type": "Polygon", "coordinates": [[[84.997725, 27.80939], [84.997726, 27.809299], [84.998134, 27.809215], [84.998239, 27.809036], [84.998443, 27.808949], [84.998447, 27.808768], [84.99865, 27.808771], [84.998651, 27.808681], [84.998753, 27.808682], [84.998756, 27.808502], [84.998858, 27.808503], [84.998863, 27.808233], [84.998964, 27.808234], [84.998969, 27.807963], [84.999071, 27.807965], [84.999076, 27.807694], [84.998974, 27.807693], [84.998977, 27.807512], [84.998673, 27.807508], [84.998671, 27.807598], [84.998264, 27.807682], [84.998262, 27.807773], [84.998059, 27.80777], [84.998061, 27.807679], [84.997959, 27.807678], [84.997964, 27.807407], [84.99756, 27.807311], [84.997558, 27.807401], [84.997353, 27.807489], [84.997352, 27.807579], [84.99725, 27.807577], [84.997247, 27.807758], [84.997042, 27.807845], [84.997039, 27.808026], [84.996938, 27.808024], [84.996934, 27.808205], [84.996833, 27.808203], [84.996824, 27.808654], [84.996723, 27.808653], [84.996718, 27.808924], [84.996819, 27.808925], [84.996818, 27.809015], [84.996716, 27.809014], [84.99671, 27.809375], [84.996811, 27.809376], [84.99681, 27.809467], [84.997216, 27.809472], [84.997217, 27.809382], [84.997725, 27.80939]]]}}, {"type": "Feature", "properties": {"aoi": "AOI05", "round": "monitoring1", "area_km2": 0.48, "source": "Copernicus Emergency Management Service, EMSR927", "source_url": "https://data.humdata.org/dataset/npl-flood-emsr927", "licence": "CC BY (version not stated by the publisher); cite as Copernicus Emergency Management Service (c) 2026 European Union, EMSR927", "retrieved": "2026-09-08", "tier": "observed"}, "geometry": {"type": "Polygon", "coordinates": [[[84.951032, 27.811436], [84.951099, 27.811777], [84.951188, 27.811874], [84.951173, 27.812068], [84.951384, 27.812071], [84.951382, 27.812162], [84.951686, 27.812166], [84.951683, 27.812347], [84.951582, 27.812345], [84.951573, 27.812796], [84.951472, 27.812795], [84.951429, 27.812895], [84.95151, 27.813229], [84.951639, 27.813318], [84.951585, 27.813455], [84.951783, 27.813439], [84.95194, 27.81352], [84.952063, 27.81346], [84.952098, 27.813547], [84.952135, 27.813493], [84.952182, 27.813594], [84.952198, 27.813573], [84.952168, 27.813548], [84.95218, 27.813529], [84.952256, 27.813579], [84.952284, 27.813696], [84.952477, 27.813772], [84.952469, 27.81388], [84.952182, 27.813927], [84.952282, 27.814102], [84.95216, 27.814418], [84.952416, 27.814454], [84.952488, 27.814585], [84.952537, 27.814463], [84.952763, 27.814527], [84.952832, 27.814392], [84.953016, 27.814486], [84.953067, 27.814397], [84.953169, 27.814434], [84.95312, 27.814501], [84.953202, 27.814591], [84.953371, 27.814597], [84.953515, 27.814495], [84.953571, 27.814537], [84.953494, 27.814688], [84.95361, 27.814622], [84.953768, 27.814702], [84.95377, 27.814612], [84.953668, 27.814611], [84.953677, 27.81416], [84.953575, 27.814158], [84.953582, 27.813797], [84.953379, 27.813794], [84.953381, 27.813704], [84.953584, 27.813707], [84.953585, 27.813617], [84.953687, 27.813618], [84.953792, 27.813439], [84.953993, 27.813532], [84.953989, 27.813713], [84.954192, 27.813716], [84.954189, 27.813896], [84.954291, 27.813898], [84.954289, 27.813988], [84.954492, 27.813991], [84.95449, 27.814081], [84.954592, 27.814083], [84.954593, 27.813993], [84.954898, 27.813997], [84.955003, 27.813818], [84.955307, 27.813823], [84.955412, 27.813644], [84.95592, 27.813651], [84.955921, 27.813561], [84.95653, 27.81357], [84.956529, 27.81366], [84.95673, 27.813753], [84.956728, 27.813844], [84.95693, 27.813937], [84.956926, 27.814117], [84.957127, 27.814211], [84.957121, 27.814572], [84.957019, 27.81457], [84.957017, 27.81466], [84.956916, 27.814659], [84.956913, 27.814839], [84.956811, 27.814838], [84.956808, 27.815018], [84.956909, 27.81502], [84.956902, 27.815381], [84.957104, 27.815474], [84.9571, 27.815655], [84.957202, 27.815656], [84.957199, 27.815836], [84.9573, 27.815838], [84.9573, 27.81595], [84.957908, 27.815959], [84.95791, 27.815869], [84.958113, 27.815872], [84.958115, 27.815782], [84.958216, 27.815783], [84.958328, 27.815243], [84.958226, 27.815242], [84.958228, 27.815151], [84.958027, 27.815058], [84.957929, 27.814876], [84.957827, 27.814875], [84.957829, 27.814785], [84.957524, 27.81478], [84.957533, 27.814329], [84.957634, 27.81433], [84.957644, 27.813789], [84.957543, 27.813787], [84.957551, 27.813336], [84.957653, 27.813338], [84.957656, 27.813157], [84.957859, 27.81316], [84.957964, 27.812981], [84.958066, 27.812983], [84.958067, 27.812892], [84.958169, 27.812894], [84.95817, 27.812804], [84.958272, 27.812805], [84.958275, 27.812625], [84.95858, 27.812629], [84.958581, 27.812539], [84.958786, 27.812452], [84.958788, 27.812362], [84.958992, 27.812274], [84.958996, 27.812094], [84.959097, 27.812095], [84.959102, 27.811825], [84.959204, 27.811826], [84.959205, 27.811736], [84.959307, 27.811737], [84.959412, 27.811558], [84.960325, 27.811572], [84.960327, 27.811482], [84.960732, 27.811488], [84.960734, 27.811397], [84.960939, 27.81131], [84.96094, 27.81122], [84.961143, 27.811223], [84.961252, 27.810863], [84.961353, 27.810865], [84.961351, 27.810955], [84.961453, 27.810957], [84.961451, 27.811047], [84.961553, 27.811048], [84.961552, 27.81111], [84.9618, 27.811089], [84.962493, 27.810437], [84.962721, 27.810456], [84.962885, 27.809877], [84.963228, 27.809416], [84.963967, 27.809195], [84.96394, 27.808798], [84.964557, 27.807998], [84.964702, 27.807944], [84.964764, 27.807785], [84.964598, 27.807606], [84.96465, 27.807319], [84.964878, 27.807218], [84.965413, 27.807435], [84.965501, 27.807645], [84.965472, 27.807815], [84.965972, 27.808113], [84.965974, 27.808023], [84.966075, 27.808024], [84.966074, 27.808115], [84.966886, 27.808126], [84.966991, 27.807947], [84.967195, 27.80786], [84.967199, 27.80768], [84.9673, 27.807681], [84.967302, 27.807591], [84.9672, 27.807589], [84.967207, 27.807229], [84.967105, 27.807227], [84.96711, 27.806956], [84.967009, 27.806955], [84.967026, 27.806052], [84.966924, 27.806051], [84.966926, 27.805961], [84.966725, 27.805867], [84.966627, 27.805685], [84.966525, 27.805684], [84.966527, 27.805594], [84.965816, 27.805583], [84.965711, 27.805762], [84.965306, 27.805756], [84.965304, 27.805847], [84.964593, 27.805836], [84.964592, 27.805926], [84.96449, 27.805925], [84.964487, 27.806105], [84.964385, 27.806104], [84.964382, 27.806284], [84.964484, 27.806286], [84.964482, 27.806376], [84.96438, 27.806375], [84.964379, 27.806465], [84.96448, 27.806466], [84.964468, 27.807098], [84.964367, 27.807096], [84.964365, 27.807187], [84.964162, 27.807184], [84.964164, 27.807093], [84.963959, 27.807181], [84.963961, 27.80709], [84.963656, 27.807086], [84.96366, 27.806905], [84.963558, 27.806904], [84.963567, 27.806453], [84.963365, 27.80636], [84.963267, 27.806178], [84.962963, 27.806173], [84.962961, 27.806263], [84.962758, 27.80626], [84.962756, 27.806351], [84.962452, 27.806346], [84.96245, 27.806436], [84.962249, 27.806343], [84.962247, 27.806433], [84.96184, 27.806518], [84.961836, 27.806698], [84.961429, 27.806782], [84.961427, 27.806873], [84.961326, 27.806871], [84.961329, 27.806691], [84.961227, 27.806689], [84.961226, 27.806779], [84.961023, 27.806776], [84.961021, 27.806867], [84.96092, 27.806865], [84.960918, 27.806955], [84.960713, 27.807043], [84.960712, 27.807133], [84.96061, 27.807131], [84.960608, 27.807221], [84.960507, 27.80722], [84.960505, 27.80731], [84.960302, 27.807307], [84.960301, 27.807397], [84.959692, 27.807388], [84.959693, 27.807298], [84.959389, 27.807294], [84.959291, 27.807112], [84.956392, 27.812837], [84.951032, 27.811436]]]}}, {"type": "Feature", "properties": {"aoi": "AOI05", "round": "monitoring1", "area_km2": 0.0, "source": "Copernicus Emergency Management Service, EMSR927", "source_url": "https://data.humdata.org/dataset/npl-flood-emsr927", "licence": "CC BY (version not stated by the publisher); cite as Copernicus Emergency Management Service (c) 2026 European Union, EMSR927", "retrieved": "2026-09-08", "tier": "observed"}, "geometry": {"type": "Polygon", "coordinates": [[[84.952421, 27.814564], [84.952429, 27.814554], [84.952426, 27.814556], [84.952421, 27.814564]]]}}, {"type": "Feature", "properties": {"aoi": "AOI05", "round": "monitoring1", "area_km2": 0.0, "source": "Copernicus Emergency Management Service, EMSR927", "source_url": "https://data.humdata.org/dataset/npl-flood-emsr927", "licence": "CC BY (version not stated by the publisher); cite as Copernicus Emergency Management Service (c) 2026 European Union, EMSR927", "retrieved": "2026-09-08", "tier": "observed"}, "geometry": {"type": "Polygon", "coordinates": [[[84.952763, 27.816732], [84.952766, 27.81673], [84.952763, 27.81673], [84.952763, 27.816732]]]}}, {"type": "Feature", "properties": {"aoi": "AOI05", "round": "monitoring1", "area_km2": 0.0, "source": "Copernicus Emergency Management Service, EMSR927", "source_url": "https://data.humdata.org/dataset/npl-flood-emsr927", "licence": "CC BY (version not stated by the publisher); cite as Copernicus Emergency Management Service (c) 2026 European Union, EMSR927", "retrieved": "2026-09-08", "tier": "observed"}, "geometry": {"type": "Polygon", "coordinates": [[[84.952894, 27.816694], [84.95272, 27.816734], [84.952614, 27.816865], [84.952568, 27.816724], [84.952375, 27.816775], [84.952426, 27.816855], [84.952264, 27.816868], [84.952816, 27.816877], [84.952814, 27.816967], [84.952916, 27.816968], [84.952918, 27.816878], [84.953725, 27.816879], [84.953228, 27.816758], [84.953015, 27.816779], [84.952894, 27.816694]]]}}, {"type": "Feature", "properties": {"aoi": "AOI05", "round": "monitoring1", "area_km2": 0.0, "source": "Copernicus Emergency Management Service, EMSR927", "source_url": "https://data.humdata.org/dataset/npl-flood-emsr927", "licence": "CC BY (version not stated by the publisher); cite as Copernicus Emergency Management Service (c) 2026 European Union, EMSR927", "retrieved": "2026-09-08", "tier": "observed"}, "geometry": {"type": "Polygon", "coordinates": [[[84.953829, 27.816982], [84.953833, 27.816962], [84.95383, 27.816951], [84.953829, 27.816982]]]}}, {"type": "Feature", "properties": {"aoi": "AOI05", "round": "monitoring1", "area_km2": 0.02, "source": "Copernicus Emergency Management Service, EMSR927", "source_url": "https://data.humdata.org/dataset/npl-flood-emsr927", "licence": "CC BY (version not stated by the publisher); cite as Copernicus Emergency Management Service (c) 2026 European Union, EMSR927", "retrieved": "2026-09-08", "tier": "observed"}, "geometry": {"type": "Polygon", "coordinates": [[[85.013954, 27.832461], [85.014159, 27.832374], [85.014162, 27.832188], [85.014164, 27.832103], [85.014062, 27.832102], [85.014071, 27.831651], [85.013969, 27.831649], [85.013971, 27.831559], [85.014072, 27.83156], [85.014077, 27.83129], [85.013976, 27.831288], [85.013981, 27.831017], [85.014082, 27.831019], [85.014085, 27.830838], [85.013984, 27.830837], [85.013994, 27.830295], [85.013892, 27.830294], [85.013896, 27.830114], [85.013207, 27.830104], [85.013344, 27.832543], [85.013953, 27.832552], [85.013954, 27.832461]]]}}, {"type": "Feature", "properties": {"aoi": "AOI05", "round": "monitoring1", "area_km2": 0.01, "source": "Copernicus Emergency Management Service, EMSR927", "source_url": "https://data.humdata.org/dataset/npl-flood-emsr927", "licence": "CC BY (version not stated by the publisher); cite as Copernicus Emergency Management Service (c) 2026 European Union, EMSR927", "retrieved": "2026-09-08", "tier": "observed"}, "geometry": {"type": "Polygon", "coordinates": [[[85.015954, 27.834205], [85.015962, 27.833754], [85.01586, 27.833752], [85.015863, 27.833572], [85.015762, 27.833571], [85.015664, 27.833389], [85.015359, 27.833384], [85.015361, 27.833294], [85.015056, 27.83329], [85.015055, 27.83338], [85.014852, 27.833377], [85.014848, 27.833557], [85.014747, 27.833556], [85.014639, 27.833915], [85.01474, 27.833917], [85.014735, 27.834188], [85.014937, 27.834281], [85.014935, 27.834371], [85.015343, 27.834287], [85.015341, 27.834377], [85.015849, 27.834384], [85.015852, 27.834204], [85.015954, 27.834205]]]}}, {"type": "Feature", "properties": {"aoi": "AOI05", "round": "monitoring1", "area_km2": 0.05, "source": "Copernicus Emergency Management Service, EMSR927", "source_url": "https://data.humdata.org/dataset/npl-flood-emsr927", "licence": "CC BY (version not stated by the publisher); cite as Copernicus Emergency Management Service (c) 2026 European Union, EMSR927", "retrieved": "2026-09-08", "tier": "observed"}, "geometry": {"type": "Polygon", "coordinates": [[[85.018421, 27.838122], [85.018423, 27.838032], [85.018627, 27.837944], [85.018631, 27.837764], [85.018834, 27.837767], [85.018835, 27.837677], [85.018937, 27.837678], [85.018942, 27.837407], [85.019043, 27.837409], [85.018948, 27.837046], [85.018747, 27.836953], [85.018855, 27.836594], [85.018753, 27.836592], [85.018758, 27.836322], [85.018657, 27.83632], [85.018559, 27.836138], [85.018457, 27.836137], [85.018464, 27.835776], [85.018262, 27.835683], [85.018269, 27.835322], [85.017863, 27.835316], [85.017861, 27.835406], [85.017658, 27.835403], [85.017661, 27.835223], [85.017357, 27.835218], [85.017358, 27.835128], [85.017155, 27.835125], [85.017157, 27.835035], [85.017055, 27.835033], [85.017054, 27.835124], [85.016952, 27.835122], [85.016949, 27.835303], [85.016847, 27.835301], [85.016838, 27.835843], [85.016939, 27.835844], [85.016936, 27.836025], [85.016733, 27.836022], [85.01672, 27.836744], [85.016921, 27.836837], [85.016915, 27.837198], [85.017016, 27.837199], [85.017013, 27.83738], [85.017214, 27.837473], [85.017211, 27.837653], [85.017312, 27.837655], [85.017309, 27.837835], [85.017411, 27.837837], [85.017409, 27.837927], [85.017612, 27.83793], [85.01761, 27.83802], [85.017915, 27.838024], [85.018013, 27.838206], [85.018318, 27.838211], [85.018319, 27.838121], [85.018421, 27.838122]]]}}, {"type": "Feature", "properties": {"aoi": "AOI05", "round": "monitoring1", "area_km2": 0.86, "source": "Copernicus Emergency Management Service, EMSR927", "source_url": "https://data.humdata.org/dataset/npl-flood-emsr927", "licence": "CC BY (version not stated by the publisher); cite as Copernicus Emergency Management Service (c) 2026 European Union, EMSR927", "retrieved": "2026-09-08", "tier": "observed"}, "geometry": {"type": "MultiPolygon", "coordinates": [[[[85.088122, 27.851674], [85.08802, 27.851673], [85.088017, 27.851853], [85.087712, 27.851849], [85.087714, 27.851759], [85.087512, 27.851666], [85.087514, 27.851576], [85.087413, 27.851574], [85.087416, 27.851394], [85.087344, 27.851393], [85.087343, 27.851461], [85.087241, 27.85146], [85.087237, 27.851731], [85.087338, 27.851732], [85.087332, 27.852093], [85.08723, 27.852092], [85.087229, 27.852182], [85.087635, 27.852188], [85.087524, 27.852728], [85.087422, 27.852726], [85.087318, 27.852905], [85.087114, 27.852903], [85.087113, 27.852993], [85.086808, 27.852989], [85.08681, 27.852898], [85.086505, 27.852894], [85.086508, 27.852714], [85.086407, 27.852712], [85.086408, 27.852622], [85.086307, 27.852621], [85.086278, 27.852551], [85.086275, 27.852732], [85.086174, 27.85273], [85.086172, 27.852821], [85.085868, 27.852816], [85.085866, 27.852907], [85.085663, 27.852904], [85.085661, 27.852994], [85.085357, 27.85299], [85.085249, 27.85335], [85.085044, 27.853437], [85.085041, 27.853651], [85.085458, 27.853977], [85.085464, 27.854066], [85.086007, 27.853932], [85.086311, 27.853935], [85.086437, 27.853806], [85.08655, 27.853919], [85.087396, 27.85414], [85.088313, 27.854831], [85.088499, 27.855212], [85.088457, 27.855661], [85.088688, 27.855793], [85.08876, 27.855789], [85.088763, 27.855655], [85.088661, 27.855654], [85.088663, 27.855563], [85.088764, 27.855565], [85.088869, 27.855386], [85.089072, 27.855388], [85.089176, 27.855209], [85.08938, 27.855212], [85.089373, 27.855573], [85.089272, 27.855572], [85.08927, 27.855662], [85.089981, 27.855672], [85.089982, 27.855582], [85.090084, 27.855583], [85.090089, 27.855312], [85.090293, 27.855225], [85.090296, 27.855044], [85.090702, 27.85505], [85.090701, 27.85514], [85.090904, 27.855143], [85.091009, 27.854964], [85.09111, 27.854965], [85.091112, 27.854875], [85.091518, 27.854881], [85.091519, 27.85479], [85.091824, 27.854795], [85.091822, 27.854885], [85.092024, 27.854978], [85.092022, 27.855068], [85.091921, 27.855067], [85.091918, 27.855247], [85.092121, 27.85525], [85.092111, 27.855792], [85.09201, 27.85579], [85.092005, 27.856061], [85.092106, 27.856062], [85.092105, 27.856153], [85.092306, 27.856246], [85.092303, 27.856426], [85.092202, 27.856425], [85.092203, 27.856334], [85.092, 27.856332], [85.091902, 27.85615], [85.091699, 27.856147], [85.091694, 27.856418], [85.091186, 27.856411], [85.091188, 27.85632], [85.090985, 27.856318], [85.090986, 27.856227], [85.090682, 27.856223], [85.09068, 27.856313], [85.090579, 27.856312], [85.090574, 27.856583], [85.090369, 27.85667], [85.090368, 27.85676], [85.090266, 27.856759], [85.090442, 27.857072], [85.090932, 27.857059], [85.091108, 27.857132], [85.091042, 27.857409], [85.091197, 27.857884], [85.091131, 27.857976], [85.091127, 27.858572], [85.091167, 27.858658], [85.091574, 27.858603], [85.091601, 27.858758], [85.091487, 27.858861], [85.091534, 27.859054], [85.091669, 27.859148], [85.091795, 27.859088], [85.091608, 27.858906], [85.091945, 27.85899], [85.09198, 27.858759], [85.092026, 27.85893], [85.092404, 27.859003], [85.092629, 27.85919], [85.092633, 27.859357], [85.092861, 27.859435], [85.093053, 27.859416], [85.093145, 27.859182], [85.093662, 27.859243], [85.093679, 27.859063], [85.093577, 27.859061], [85.093579, 27.858971], [85.093377, 27.858878], [85.09338, 27.858698], [85.093179, 27.858605], [85.093182, 27.858424], [85.093387, 27.858337], [85.093388, 27.858246], [85.09349, 27.858248], [85.093491, 27.858158], [85.093593, 27.858159], [85.093591, 27.858249], [85.093794, 27.858252], [85.093796, 27.858162], [85.093999, 27.858165], [85.094104, 27.857986], [85.094205, 27.857987], [85.094202, 27.858167], [85.0941, 27.858166], [85.094097, 27.858346], [85.093996, 27.858345], [85.093993, 27.858526], [85.093891, 27.858524], [85.093889, 27.858614], [85.093991, 27.858616], [85.093988, 27.858796], [85.094292, 27.858801], [85.094302, 27.859177], [85.094433, 27.859072], [85.094851, 27.859079], [85.094995, 27.858968], [85.095921, 27.858795], [85.096591, 27.858427], [85.096753, 27.858504], [85.097168, 27.858515], [85.097763, 27.858309], [85.098262, 27.858282], [85.098264, 27.858133], [85.098163, 27.858132], [85.098164, 27.858042], [85.098266, 27.858043], [85.098269, 27.857862], [85.098472, 27.857865], [85.098474, 27.857775], [85.098575, 27.857776], [85.098578, 27.857596], [85.099086, 27.857603], [85.099088, 27.857513], [85.099291, 27.857515], [85.099292, 27.857425], [85.099394, 27.857427], [85.099398, 27.857156], [85.0995, 27.857157], [85.099502, 27.857067], [85.099705, 27.85707], [85.099708, 27.856889], [85.100114, 27.856895], [85.100115, 27.856805], [85.10042, 27.856809], [85.100418, 27.856899], [85.100621, 27.856902], [85.10062, 27.856992], [85.100823, 27.856995], [85.100821, 27.857085], [85.101126, 27.857089], [85.101124, 27.85718], [85.101226, 27.857181], [85.101223, 27.857362], [85.101324, 27.857363], [85.101322, 27.8575], [85.101888, 27.856983], [85.105598, 27.856857], [85.105599, 27.85679], [85.105498, 27.856788], [85.105501, 27.856608], [85.105399, 27.856607], [85.105401, 27.856516], [85.105605, 27.856429], [85.10561, 27.856158], [85.105712, 27.85616], [85.105716, 27.855889], [85.105615, 27.855887], [85.105619, 27.855617], [85.105722, 27.855578], [85.097964, 27.852823], [85.090141, 27.85214], [85.088143, 27.851569], [85.088122, 27.851674]]], [[[85.08929, 27.855933], [85.089436, 27.856032], [85.089466, 27.856054], [85.089468, 27.855935], [85.08929, 27.855933]]]]}}, {"type": "Feature", "properties": {"aoi": "AOI05", "round": "monitoring1", "area_km2": 0.04, "source": "Copernicus Emergency Management Service, EMSR927", "source_url": "https://data.humdata.org/dataset/npl-flood-emsr927", "licence": "CC BY (version not stated by the publisher); cite as Copernicus Emergency Management Service (c) 2026 European Union, EMSR927", "retrieved": "2026-09-08", "tier": "observed"}, "geometry": {"type": "Polygon", "coordinates": [[[85.078726, 27.86048], [85.078729, 27.8603], [85.078934, 27.860212], [85.078936, 27.860122], [85.079343, 27.860037], [85.079346, 27.859857], [85.079957, 27.859775], [85.07996, 27.859595], [85.080163, 27.859597], [85.080165, 27.859507], [85.080266, 27.859509], [85.08027, 27.859328], [85.080371, 27.85933], [85.080373, 27.859239], [85.080271, 27.859238], [85.080279, 27.858787], [85.080178, 27.858785], [85.080184, 27.858424], [85.080083, 27.858423], [85.080084, 27.858333], [85.079983, 27.858331], [85.079884, 27.858149], [85.07958, 27.858145], [85.079581, 27.858055], [85.079277, 27.858051], [85.079275, 27.858141], [85.079072, 27.858138], [85.079069, 27.858319], [85.078866, 27.858316], [85.078864, 27.858406], [85.078763, 27.858405], [85.07876, 27.858585], [85.078658, 27.858584], [85.078553, 27.858763], [85.07835, 27.85876], [85.078246, 27.858939], [85.078144, 27.858937], [85.078141, 27.859118], [85.078039, 27.859117], [85.07803, 27.859658], [85.077825, 27.859745], [85.077822, 27.859926], [85.077517, 27.859922], [85.077514, 27.860102], [85.077413, 27.860101], [85.077381, 27.860191], [85.078191, 27.860543], [85.078623, 27.860562], [85.078625, 27.860479], [85.078726, 27.86048]]]}}, {"type": "Feature", "properties": {"aoi": "AOI05", "round": "monitoring1", "area_km2": 0.01, "source": "Copernicus Emergency Management Service, EMSR927", "source_url": "https://data.humdata.org/dataset/npl-flood-emsr927", "licence": "CC BY (version not stated by the publisher); cite as Copernicus Emergency Management Service (c) 2026 European Union, EMSR927", "retrieved": "2026-09-08", "tier": "observed"}, "geometry": {"type": "Polygon", "coordinates": [[[85.099096, 27.862839], [85.099101, 27.862568], [85.099202, 27.862569], [85.099206, 27.862389], [85.099003, 27.862386], [85.098904, 27.862204], [85.098703, 27.862111], [85.098704, 27.862021], [85.098603, 27.862019], [85.098601, 27.86211], [85.098398, 27.862107], [85.098293, 27.862286], [85.098089, 27.862373], [85.098087, 27.862464], [85.097986, 27.862462], [85.097979, 27.862823], [85.098182, 27.862826], [85.098181, 27.862916], [85.098993, 27.862927], [85.098995, 27.862837], [85.099096, 27.862839]]]}}]}
