{"type": "FeatureCollection", "name": "timed-places", "crs": {"type": "name", "properties": {"name": "urn:ogc:def:crs:OGC:1.3:CRS84"}}, "xy_coordinate_resolution": 1e-06, "features": [{"type": "Feature", "properties": {"name": "Galchhi", "name_local": "\u0917\u0932\u094d\u091b\u0940", "arrival_local": "10:28", "label": "Galchhi 10:28", "km": 90.36, "off_m": 534.9, "band": "lower", "located_from": "OpenStreetMap node/279374592", "location_source": "OpenStreetMap via the Overpass API", "location_source_url": "https://www.openstreetmap.org/copyright", "location_licence": "ODbL 1.0, (c) OpenStreetMap contributors", "location_retrieved": "2026-08-28", "source": "National Disaster Risk Reduction and Management Authority (NDRRMA), Rasuwa-Bhotekoshi Flood: Search, Rescue and Relief Response, Situation Report #01", "source_url": "https://ndrrma.gov.np/mediafiles/rasuwa/Rasuwa_Flood_SitRep_Temp_ENG_01_01092026.pdf", "licence": "figures quoted with attribution", "retrieved": "2026-09-05", "tier": "reported"}, "geometry": {"type": "Point", "coordinates": [85.000461, 27.797396]}}, {"type": "Feature", "properties": {"name": "Malekhu", "name_local": "\u092e\u0932\u0947\u0916\u0941", "arrival_local": "11:50", "label": "Malekhu 11:50", "km": 115.03, "off_m": 494.5, "band": "lower", "located_from": "OpenStreetMap node/3013890962", "location_source": "OpenStreetMap via the Overpass API", "location_source_url": "https://www.openstreetmap.org/copyright", "location_licence": "ODbL 1.0, (c) OpenStreetMap contributors", "location_retrieved": "2026-08-28", "source": "National Disaster Risk Reduction and Management Authority (NDRRMA), Rasuwa-Bhotekoshi Flood: Search, Rescue and Relief Response, Situation Report #01", "source_url": "https://ndrrma.gov.np/mediafiles/rasuwa/Rasuwa_Flood_SitRep_Temp_ENG_01_01092026.pdf", "licence": "figures quoted with attribution", "retrieved": "2026-09-05", "tier": "reported"}, "geometry": {"type": "Point", "coordinates": [84.82724, 27.813705]}}, {"type": "Feature", "properties": {"name": "Mugling", "name_local": "\u092e\u0941\u0917\u094d\u0932\u093f\u0919", "arrival_local": "13:00", "label": "Mugling 13:00", "km": 154.75, "off_m": 227.4, "band": "lower", "located_from": "OpenStreetMap node/567088223", "location_source": "OpenStreetMap via the Overpass API", "location_source_url": "https://www.openstreetmap.org/copyright", "location_licence": "ODbL 1.0, (c) OpenStreetMap contributors", "location_retrieved": "2026-09-07", "source": "National Disaster Risk Reduction and Management Authority (NDRRMA), Rasuwa-Bhotekoshi Flood: Search, Rescue and Relief Response, Situation Report #01", "source_url": "https://ndrrma.gov.np/mediafiles/rasuwa/Rasuwa_Flood_SitRep_Temp_ENG_01_01092026.pdf", "licence": "figures quoted with attribution", "retrieved": "2026-09-05", "tier": "reported"}, "geometry": {"type": "Point", "coordinates": [84.560951, 27.856162]}}, {"type": "Feature", "properties": {"name": "Devghat", "name_local": "\u0926\u0947\u0935\u0918\u093e\u091f", "arrival_local": "15:20", "label": "Devghat 15:20", "km": 188.86, "off_m": 309.1, "band": "lower", "located_from": "OpenStreetMap node/1995767582", "location_source": "OpenStreetMap via the Overpass API", "location_source_url": "https://www.openstreetmap.org/copyright", "location_licence": "ODbL 1.0, (c) OpenStreetMap contributors", "location_retrieved": "2026-08-28", "source": "National Disaster Risk Reduction and Management Authority (NDRRMA), Rasuwa-Bhotekoshi Flood: Search, Rescue and Relief Response, Situation Report #01", "source_url": "https://ndrrma.gov.np/mediafiles/rasuwa/Rasuwa_Flood_SitRep_Temp_ENG_01_01092026.pdf", "licence": "figures quoted with attribution", "retrieved": "2026-09-05", "tier": "reported"}, "geometry": {"type": "Point", "coordinates": [84.425426, 27.739188]}}]}
