{
 "type": "FeatureCollection",
 "crs": {
  "type": "name",
  "properties": {
   "name": "urn:ogc:def:crs:OGC:1.3:CRS84"
  }
 },
 "description": "Where the valley cross-sections were cut, and what they measured.",
 "retrieved": "2026-08-28",
 "features": [
  {
   "type": "Feature",
   "geometry": {
    "type": "LineString",
    "coordinates": [
     [
      85.3740945989582,
      28.251356331374698
     ],
     [
      85.37394371496195,
      28.251378509599693
     ],
     [
      85.3737928309657,
      28.25140068782469
     ],
     [
      85.37364194696946,
      28.251422866049687
     ],
     [
      85.37349106297322,
      28.251445044274682
     ],
     [
      85.37334017897696,
      28.251467222499677
     ],
     [
      85.37318929498072,
      28.251489400724676
     ],
     [
      85.37303841098448,
      28.25151157894967
     ],
     [
      85.37288752698822,
      28.251533757174666
     ],
     [
      85.37273664299198,
      28.25155593539966
     ],
     [
      85.37258575899574,
      28.25157811362466
     ],
     [
      85.37243487499948,
      28.251600291849655
     ],
     [
      85.37228399100324,
      28.25162247007465
     ],
     [
      85.372133107007,
      28.251644648299646
     ],
     [
      85.37198222301075,
      28.251666826524644
     ],
     [
      85.3718313390145,
      28.25168900474964
     ],
     [
      85.37168045501826,
      28.251711182974635
     ],
     [
      85.37152957102201,
      28.251733361199634
     ],
     [
      85.37137868702577,
      28.25175553942463
     ],
     [
      85.37122780302951,
      28.251777717649624
     ],
     [
      85.37107691903327,
      28.25179989587462
     ],
     [
      85.37092603503703,
      28.251822074099618
     ],
     [
      85.37077515104077,
      28.251844252324613
     ],
     [
      85.37062426704453,
      28.251866430549608
     ],
     [
      85.37047338304829,
      28.251888608774603
     ],
     [
      85.37032249905204,
      28.251910786999602
     ],
     [
      85.3701716150558,
      28.251932965224597
     ],
     [
      85.37002073105955,
      28.251955143449592
     ],
     [
      85.3698698470633,
      28.251977321674588
     ],
     [
      85.36971896306706,
      28.251999499899586
     ],
     [
      85.36956807907082,
      28.25202167812458
     ],
     [
      85.36941719507456,
      28.252043856349577
     ],
     [
      85.36926631107832,
      28.252066034574575
     ],
     [
      85.36911542708208,
      28.25208821279957
     ],
     [
      85.36896454308582,
      28.252110391024566
     ],
     [
      85.36881365908958,
      28.25213256924956
     ],
     [
      85.36866277509333,
      28.25215474747456
     ],
     [
      85.36851189109709,
      28.252176925699555
     ],
     [
      85.36836100710084,
      28.25219910392455
     ],
     [
      85.36821012310459,
      28.252221282149545
     ],
     [
      85.36805923910835,
      28.252243460374544
     ],
     [
      85.3679083551121,
      28.25226563859954
     ],
     [
      85.36775747111585,
      28.252287816824534
     ],
     [
      85.36760658711961,
      28.25230999504953
     ],
     [
      85.36745570312337,
      28.252332173274528
     ],
     [
      85.36730481912711,
      28.252354351499523
     ],
     [
      85.36715393513087,
      28.25237652972452
     ],
     [
      85.36700305113463,
      28.252398707949517
     ],
     [
      85.36685216713838,
      28.252420886174512
     ],
     [
      85.36670128314213,
      28.252443064399507
     ],
     [
      85.3665503991459,
      28.252465242624503
     ],
     [
      85.36639951514964,
      28.2524874208495
     ],
     [
      85.3662486311534,
      28.252509599074497
     ],
     [
      85.36609774715714,
      28.25253177729949
     ],
     [
      85.3659468631609,
      28.252553955524487
     ],
     [
      85.36579597916466,
      28.252576133749486
     ],
     [
      85.3656450951684,
      28.25259831197448
     ],
     [
      85.36549421117216,
      28.252620490199476
     ],
     [
      85.36534332717592,
      28.25264266842447
     ],
     [
      85.36519244317967,
      28.25266484664947
     ],
     [
      85.36504155918342,
      28.252687024874465
     ],
     [
      85.36489067518718,
      28.25270920309946
     ],
     [
      85.36473979119093,
      28.25273138132446
     ],
     [
      85.36458890719469,
      28.252753559549454
     ],
     [
      85.36443802319845,
      28.25277573777445
     ],
     [
      85.36428713920219,
      28.252797915999444
     ],
     [
      85.36413625520595,
      28.252820094224443
     ],
     [
      85.36398537120971,
      28.25284227244944
     ],
     [
      85.36383448721345,
      28.252864450674434
     ],
     [
      85.36368360321721,
      28.25288662889943
     ],
     [
      85.36353271922096,
      28.252908807124427
     ],
     [
      85.36338183522471,
      28.252930985349423
     ],
     [
      85.36323095122847,
      28.252953163574418
     ],
     [
      85.36308006723222,
      28.252975341799413
     ],
     [
      85.36292918323598,
      28.25299752002441
     ],
     [
      85.36277829923974,
      28.253019698249407
     ],
     [
      85.36262741524348,
      28.253041876474402
     ],
     [
      85.36247653124724,
      28.2530640546994
     ],
     [
      85.362325647251,
      28.253086232924396
     ],
     [
      85.36217476325474,
      28.25310841114939
     ],
     [
      85.3620238792585,
      28.253130589374386
     ],
     [
      85.36187299526226,
      28.253152767599385
     ],
     [
      85.361722111266,
      28.25317494582438
     ],
     [
      85.36157122726976,
      28.253197124049375
     ],
     [
      85.36142034327352,
      28.25321930227437
     ],
     [
      85.36126945927727,
      28.25324148049937
     ],
     [
      85.36111857528103,
      28.253263658724364
     ],
     [
      85.36096769128477,
      28.25328583694936
     ],
     [
      85.36081680728853,
      28.253308015174355
     ],
     [
      85.36066592329229,
      28.253330193399353
     ],
     [
      85.36051503929603,
      28.25335237162435
     ],
     [
      85.36036415529979,
      28.253374549849344
     ],
     [
      85.36021327130355,
      28.253396728074343
     ],
     [
      85.3600623873073,
      28.253418906299338
     ],
     [
      85.35991150331105,
      28.253441084524333
     ],
     [
      85.35976061931481,
      28.253463262749328
     ],
     [
      85.35960973531856,
      28.253485440974327
     ],
     [
      85.35945885132232,
      28.253507619199322
     ],
     [
      85.35930796732607,
      28.253529797424317
     ],
     [
      85.35915708332982,
      28.253551975649312
     ],
     [
      85.35900619933358,
      28.25357415387431
     ],
     [
      85.35885531533734,
      28.253596332099306
     ],
     [
      85.35870443134108,
      28.2536185103243
     ],
     [
      85.35855354734484,
      28.253640688549297
     ],
     [
      85.35840266334858,
      28.253662866774295
     ],
     [
      85.35825177935234,
      28.25368504499929
     ],
     [
      85.3581008953561,
      28.253707223224286
     ],
     [
      85.35795001135985,
      28.253729401449284
     ],
     [
      85.3577991273636,
      28.25375157967428
     ],
     [
      85.35764824336736,
      28.253773757899275
     ],
     [
      85.35749735937111,
      28.25379593612427
     ],
     [
      85.35734647537487,
      28.25381811434927
     ],
     [
      85.35719559137863,
      28.253840292574264
     ],
     [
      85.35704470738237,
      28.25386247079926
     ],
     [
      85.35689382338613,
      28.253884649024254
     ],
     [
      85.35674293938989,
      28.253906827249253
     ],
     [
      85.35659205539363,
      28.253929005474248
     ],
     [
      85.35644117139739,
      28.253951183699243
     ],
     [
      85.35629028740115,
      28.25397336192424
     ],
     [
      85.3561394034049,
      28.253995540149237
     ],
     [
      85.35598851940865,
      28.254017718374232
     ]
    ]
   },
   "properties": {
    "name": "Timure",
    "km_downstream": 13.7,
    "bed_elevation_m": 1711.7,
    "floor_width_m": 75,
    "floor_measured_at_m_above_bed": 10.0,
    "reported_rise_m": null,
    "width_at_reported_rise_m": null,
    "source": "terrain sampled from Terrarium tiles, as described in METHODS.md",
    "source_url": "https://registry.opendata.aws/terrain-tiles/",
    "licence": "terrain tiles: public domain / ODbL by source",
    "retrieved": "2026-08-28",
    "reported_levels_source": "ICIMOD advisory, 26 August 2026",
    "caveat": "Section shape is a 30 m DEM from 2000. The width at the reported rise is that level held against this terrain, not an observed flood extent."
   }
  },
  {
   "type": "Feature",
   "geometry": {
    "type": "LineString",
    "coordinates": [
     [
      85.00209312586733,
      27.794140925240356
     ],
     [
      85.00207863926094,
      27.794275061216172
     ],
     [
      85.00206415265455,
      27.794409197191985
     ],
     [
      85.00204966604817,
      27.7945433331678
     ],
     [
      85.00203517944178,
      27.794677469143615
     ],
     [
      85.0020206928354,
      27.794811605119428
     ],
     [
      85.00200620622901,
      27.79494574109524
     ],
     [
      85.00199171962262,
      27.795079877071057
     ],
     [
      85.00197723301623,
      27.79521401304687
     ],
     [
      85.00196274640984,
      27.795348149022686
     ],
     [
      85.00194825980346,
      27.7954822849985
     ],
     [
      85.00193377319707,
      27.795616420974312
     ],
     [
      85.00191928659069,
      27.79575055695013
     ],
     [
      85.0019047999843,
      27.79588469292594
     ],
     [
      85.00189031337791,
      27.796018828901754
     ],
     [
      85.00187582677152,
      27.79615296487757
     ],
     [
      85.00186134016514,
      27.796287100853384
     ],
     [
      85.00184685355875,
      27.7964212368292
     ],
     [
      85.00183236695236,
      27.796555372805013
     ],
     [
      85.00181788034597,
      27.796689508780826
     ],
     [
      85.00180339373959,
      27.796823644756643
     ],
     [
      85.0017889071332,
      27.796957780732455
     ],
     [
      85.00177442052681,
      27.797091916708272
     ],
     [
      85.00175993392043,
      27.797226052684085
     ],
     [
      85.00174544731404,
      27.797360188659898
     ],
     [
      85.00173096070765,
      27.797494324635714
     ],
     [
      85.00171647410126,
      27.797628460611527
     ],
     [
      85.00170198749488,
      27.79776259658734
     ],
     [
      85.0016875008885,
      27.797896732563157
     ],
     [
      85.0016730142821,
      27.79803086853897
     ],
     [
      85.00165852767572,
      27.798165004514786
     ],
     [
      85.00164404106933,
      27.7982991404906
     ],
     [
      85.00162955446294,
      27.79843327646641
     ],
     [
      85.00161506785655,
      27.798567412442228
     ],
     [
      85.00160058125017,
      27.79870154841804
     ],
     [
      85.00158609464378,
      27.798835684393854
     ],
     [
      85.0015716080374,
      27.79896982036967
     ],
     [
      85.001557121431,
      27.799103956345483
     ],
     [
      85.00154263482462,
      27.7992380923213
     ],
     [
      85.00152814821823,
      27.799372228297113
     ],
     [
      85.00151366161184,
      27.799506364272926
     ],
     [
      85.00149917500545,
      27.799640500248742
     ],
     [
      85.00148468839907,
      27.799774636224555
     ],
     [
      85.00147020179269,
      27.79990877220037
     ],
     [
      85.0014557151863,
      27.800042908176184
     ],
     [
      85.0014412285799,
      27.800177044151997
     ],
     [
      85.00142674197352,
      27.800311180127814
     ],
     [
      85.00141225536713,
      27.800445316103627
     ],
     [
      85.00139776876074,
      27.80057945207944
     ],
     [
      85.00138328215436,
      27.800713588055256
     ],
     [
      85.00136879554798,
      27.80084772403107
     ],
     [
      85.00135430894159,
      27.800981860006885
     ],
     [
      85.0013398223352,
      27.8011159959827
     ],
     [
      85.00132533572881,
      27.80125013195851
     ],
     [
      85.00131084912242,
      27.801384267934328
     ],
     [
      85.00129636251603,
      27.80151840391014
     ],
     [
      85.00128187590964,
      27.801652539885954
     ],
     [
      85.00126738930327,
      27.80178667586177
     ],
     [
      85.00125290269688,
      27.801920811837583
     ],
     [
      85.00123841609049,
      27.8020549478134
     ],
     [
      85.0012239294841,
      27.802189083789212
     ],
     [
      85.00120944287771,
      27.802323219765025
     ],
     [
      85.00119495627132,
      27.80245735574084
     ],
     [
      85.00118046966493,
      27.802591491716655
     ],
     [
      85.00116598305856,
      27.80272562769247
     ],
     [
      85.00115149645217,
      27.802859763668284
     ],
     [
      85.00113700984578,
      27.802993899644097
     ],
     [
      85.00112252323939,
      27.803128035619913
     ],
     [
      85.001108036633,
      27.803262171595726
     ],
     [
      85.00109355002661,
      27.80339630757154
     ],
     [
      85.00107906342022,
      27.803530443547356
     ],
     [
      85.00106457681383,
      27.80366457952317
     ],
     [
      85.00105009020746,
      27.803798715498985
     ],
     [
      85.00103560360107,
      27.803932851474798
     ],
     [
      85.00102111699468,
      27.80406698745061
     ],
     [
      85.00100663038829,
      27.804201123426427
     ],
     [
      85.0009921437819,
      27.80433525940224
     ],
     [
      85.00097765717551,
      27.804469395378053
     ],
     [
      85.00096317056912,
      27.80460353135387
     ],
     [
      85.00094868396275,
      27.804737667329682
     ],
     [
      85.00093419735636,
      27.8048718033055
     ],
     [
      85.00091971074997,
      27.805005939281312
     ],
     [
      85.00090522414358,
      27.805140075257125
     ],
     [
      85.00089073753719,
      27.80527421123294
     ],
     [
      85.0008762509308,
      27.805408347208754
     ],
     [
      85.00086176432441,
      27.80554248318457
     ],
     [
      85.00084727771802,
      27.805676619160383
     ],
     [
      85.00083279111165,
      27.805810755136196
     ],
     [
      85.00081830450526,
      27.805944891112013
     ],
     [
      85.00080381789887,
      27.806079027087826
     ],
     [
      85.00078933129248,
      27.80621316306364
     ],
     [
      85.00077484468609,
      27.806347299039455
     ],
     [
      85.0007603580797,
      27.806481435015268
     ],
     [
      85.00074587147331,
      27.806615570991084
     ],
     [
      85.00073138486694,
      27.806749706966897
     ],
     [
      85.00071689826055,
      27.80688384294271
     ],
     [
      85.00070241165416,
      27.807017978918527
     ],
     [
      85.00068792504777,
      27.80715211489434
     ],
     [
      85.00067343844138,
      27.807286250870153
     ],
     [
      85.00065895183499,
      27.80742038684597
     ],
     [
      85.0006444652286,
      27.807554522821782
     ],
     [
      85.00062997862223,
      27.8076886587976
     ],
     [
      85.00061549201584,
      27.80782279477341
     ],
     [
      85.00060100540945,
      27.807956930749224
     ],
     [
      85.00058651880306,
      27.80809106672504
     ],
     [
      85.00057203219667,
      27.808225202700854
     ],
     [
      85.00055754559028,
      27.80835933867667
     ],
     [
      85.0005430589839,
      27.808493474652483
     ],
     [
      85.0005285723775,
      27.808627610628296
     ],
     [
      85.00051408577113,
      27.808761746604112
     ],
     [
      85.00049959916474,
      27.808895882579925
     ],
     [
      85.00048511255835,
      27.809030018555738
     ],
     [
      85.00047062595196,
      27.809164154531555
     ],
     [
      85.00045613934557,
      27.809298290507368
     ],
     [
      85.00044165273918,
      27.809432426483184
     ],
     [
      85.0004271661328,
      27.809566562458997
     ],
     [
      85.00041267952642,
      27.80970069843481
     ],
     [
      85.00039819292003,
      27.809834834410626
     ],
     [
      85.00038370631364,
      27.80996897038644
     ],
     [
      85.00036921970725,
      27.810103106362252
     ],
     [
      85.00035473310086,
      27.81023724233807
     ]
    ]
   },
   "properties": {
    "name": "Galchhi",
    "km_downstream": 90.5,
    "bed_elevation_m": 414.1,
    "floor_width_m": 180,
    "floor_measured_at_m_above_bed": 10.0,
    "reported_rise_m": 9.0,
    "width_at_reported_rise_m": 180,
    "source": "terrain sampled from Terrarium tiles, as described in METHODS.md",
    "source_url": "https://registry.opendata.aws/terrain-tiles/",
    "licence": "terrain tiles: public domain / ODbL by source",
    "retrieved": "2026-08-28",
    "reported_levels_source": "ICIMOD advisory, 26 August 2026",
    "caveat": "Section shape is a 30 m DEM from 2000. The width at the reported rise is that level held against this terrain, not an observed flood extent."
   }
  },
  {
   "type": "Feature",
   "geometry": {
    "type": "LineString",
    "coordinates": [
     [
      84.83115039009802,
      27.812371388923175
     ],
     [
      84.83100041592706,
      27.812395081096685
     ],
     [
      84.8308504417561,
      27.812418773270192
     ],
     [
      84.83070046758513,
      27.812442465443702
     ],
     [
      84.83055049341418,
      27.81246615761721
     ],
     [
      84.83040051924321,
      27.81248984979072
     ],
     [
      84.83025054507226,
      27.812513541964226
     ],
     [
      84.8301005709013,
      27.812537234137736
     ],
     [
      84.82995059673033,
      27.812560926311242
     ],
     [
      84.82980062255938,
      27.812584618484752
     ],
     [
      84.82965064838841,
      27.81260831065826
     ],
     [
      84.82950067421744,
      27.81263200283177
     ],
     [
      84.82935070004649,
      27.812655695005276
     ],
     [
      84.82920072587552,
      27.812679387178783
     ],
     [
      84.82905075170456,
      27.812703079352293
     ],
     [
      84.8289007775336,
      27.8127267715258
     ],
     [
      84.82875080336264,
      27.81275046369931
     ],
     [
      84.82860082919169,
      27.812774155872816
     ],
     [
      84.82845085502072,
      27.812797848046326
     ],
     [
      84.82830088084975,
      27.812821540219833
     ],
     [
      84.8281509066788,
      27.812845232393343
     ],
     [
      84.82800093250783,
      27.81286892456685
     ],
     [
      84.82785095833687,
      27.81289261674036
     ],
     [
      84.82770098416592,
      27.812916308913866
     ],
     [
      84.82755100999495,
      27.812940001087377
     ],
     [
      84.82740103582398,
      27.812963693260883
     ],
     [
      84.82725106165303,
      27.812987385434393
     ],
     [
      84.82710108748206,
      27.8130110776079
     ],
     [
      84.8269511133111,
      27.81303476978141
     ],
     [
      84.82680113914014,
      27.813058461954917
     ],
     [
      84.82665116496918,
      27.813082154128427
     ],
     [
      84.82650119079823,
      27.813105846301934
     ],
     [
      84.82635121662726,
      27.813129538475444
     ],
     [
      84.82620124245629,
      27.81315323064895
     ],
     [
      84.82605126828534,
      27.81317692282246
     ],
     [
      84.82590129411437,
      27.813200614995967
     ],
     [
      84.82575131994341,
      27.813224307169474
     ],
     [
      84.82560134577245,
      27.813247999342984
     ],
     [
      84.82545137160149,
      27.81327169151649
     ],
     [
      84.82530139743052,
      27.81329538369
     ],
     [
      84.82515142325957,
      27.813319075863507
     ],
     [
      84.8250014490886,
      27.813342768037018
     ],
     [
      84.82485147491765,
      27.813366460210524
     ],
     [
      84.82470150074668,
      27.813390152384034
     ],
     [
      84.82455152657572,
      27.81341384455754
     ],
     [
      84.82440155240477,
      27.81343753673105
     ],
     [
      84.8242515782338,
      27.813461228904558
     ],
     [
      84.82410160406283,
      27.813484921078068
     ],
     [
      84.82395162989188,
      27.813508613251575
     ],
     [
      84.82380165572091,
      27.813532305425085
     ],
     [
      84.82365168154995,
      27.81355599759859
     ],
     [
      84.823501707379,
      27.8135796897721
     ],
     [
      84.82335173320803,
      27.813603381945608
     ],
     [
      84.82320175903706,
      27.81362707411912
     ],
     [
      84.82305178486611,
      27.813650766292625
     ],
     [
      84.82290181069514,
      27.813674458466135
     ],
     [
      84.82275183652419,
      27.81369815063964
     ],
     [
      84.82260186235322,
      27.813721842813152
     ],
     [
      84.82245188818226,
      27.81374553498666
     ],
     [
      84.8223019140113,
      27.81376922716017
     ],
     [
      84.82215193984034,
      27.813792919333675
     ],
     [
      84.82200196566937,
      27.813816611507182
     ],
     [
      84.82185199149842,
      27.813840303680692
     ],
     [
      84.82170201732745,
      27.8138639958542
     ],
     [
      84.82155204315649,
      27.81388768802771
     ],
     [
      84.82140206898553,
      27.813911380201215
     ],
     [
      84.82125209481457,
      27.813935072374726
     ],
     [
      84.82110212064362,
      27.813958764548232
     ],
     [
      84.82095214647265,
      27.813982456721742
     ],
     [
      84.82080217230168,
      27.81400614889525
     ],
     [
      84.82065219813073,
      27.81402984106876
     ],
     [
      84.82050222395976,
      27.814053533242266
     ],
     [
      84.8203522497888,
      27.814077225415776
     ],
     [
      84.82020227561785,
      27.814100917589283
     ],
     [
      84.82005230144688,
      27.814124609762793
     ],
     [
      84.81990232727591,
      27.8141483019363
     ],
     [
      84.81975235310496,
      27.81417199410981
     ],
     [
      84.819602378934,
      27.814195686283316
     ],
     [
      84.81945240476303,
      27.814219378456826
     ],
     [
      84.81930243059207,
      27.814243070630333
     ],
     [
      84.81915245642111,
      27.814266762803843
     ],
     [
      84.81900248225016,
      27.81429045497735
     ],
     [
      84.81885250807919,
      27.81431414715086
     ],
     [
      84.81870253390822,
      27.814337839324367
     ],
     [
      84.81855255973727,
      27.814361531497877
     ],
     [
      84.8184025855663,
      27.814385223671383
     ],
     [
      84.81825261139534,
      27.81440891584489
     ],
     [
      84.81810263722438,
      27.8144326080184
     ],
     [
      84.81795266305342,
      27.814456300191907
     ],
     [
      84.81780268888245,
      27.814479992365417
     ],
     [
      84.8176527147115,
      27.814503684538924
     ],
     [
      84.81750274054053,
      27.814527376712434
     ],
     [
      84.81735276636958,
      27.81455106888594
     ],
     [
      84.81720279219861,
      27.81457476105945
     ],
     [
      84.81705281802765,
      27.814598453232957
     ],
     [
      84.8169028438567,
      27.814622145406467
     ],
     [
      84.81675286968573,
      27.814645837579974
     ],
     [
      84.81660289551476,
      27.814669529753484
     ],
     [
      84.81645292134381,
      27.81469322192699
     ],
     [
      84.81630294717284,
      27.8147169141005
     ],
     [
      84.81615297300188,
      27.814740606274007
     ],
     [
      84.81600299883092,
      27.814764298447518
     ],
     [
      84.81585302465996,
      27.814787990621024
     ],
     [
      84.81570305048899,
      27.814811682794534
     ],
     [
      84.81555307631804,
      27.81483537496804
     ],
     [
      84.81540310214707,
      27.81485906714155
     ],
     [
      84.81525312797612,
      27.814882759315058
     ],
     [
      84.81510315380515,
      27.814906451488568
     ],
     [
      84.81495317963419,
      27.814930143662075
     ],
     [
      84.81480320546324,
      27.81495383583558
     ],
     [
      84.81465323129227,
      27.81497752800909
     ],
     [
      84.8145032571213,
      27.815001220182598
     ],
     [
      84.81435328295035,
      27.815024912356108
     ],
     [
      84.81420330877938,
      27.815048604529615
     ],
     [
      84.81405333460842,
      27.815072296703125
     ],
     [
      84.81390336043746,
      27.81509598887663
     ],
     [
      84.8137533862665,
      27.81511968105014
     ],
     [
      84.81360341209555,
      27.81514337322365
     ],
     [
      84.81345343792458,
      27.81516706539716
     ],
     [
      84.81330346375361,
      27.815190757570665
     ],
     [
      84.81315348958266,
      27.815214449744175
     ]
    ]
   },
   "properties": {
    "name": "Malekhu",
    "km_downstream": 115.2,
    "bed_elevation_m": 344.9,
    "floor_width_m": 135,
    "floor_measured_at_m_above_bed": 10.0,
    "reported_rise_m": 7.0,
    "width_at_reported_rise_m": 105,
    "source": "terrain sampled from Terrarium tiles, as described in METHODS.md",
    "source_url": "https://registry.opendata.aws/terrain-tiles/",
    "licence": "terrain tiles: public domain / ODbL by source",
    "retrieved": "2026-08-28",
    "reported_levels_source": "ICIMOD advisory, 26 August 2026",
    "caveat": "Section shape is a 30 m DEM from 2000. The width at the reported rise is that level held against this terrain, not an observed flood extent."
   }
  }
 ]
}
