{
 "type": "FeatureCollection",
 "crs": {
  "type": "name",
  "properties": {
   "name": "urn:ogc:def:crs:OGC:1.3:CRS84"
  }
 },
 "description": "The tributary the flow came down before joining the Bhote Koshi.",
 "retrieved": "2026-08-28",
 "features": [
  {
   "type": "Feature",
   "geometry": {
    "type": "LineString",
    "coordinates": [
     [
      85.4311091,
      28.3306367
     ],
     [
      85.4308915,
      28.3305067
     ],
     [
      85.4295577,
      28.3301489
     ],
     [
      85.4290388,
      28.3300499
     ],
     [
      85.4282136,
      28.3302783
     ],
     [
      85.4276964,
      28.3302433
     ],
     [
      85.4263038,
      28.3305113
     ],
     [
      85.4257329,
      28.3304717
     ],
     [
      85.4253074,
      28.3302417
     ],
     [
      85.4248974,
      28.330126
     ],
     [
      85.4244148,
      28.3301671
     ],
     [
      85.4237626,
      28.3300073
     ],
     [
      85.4233297,
      28.3298259
     ],
     [
      85.4229305,
      28.3296586
     ],
     [
      85.4220327,
      28.3295931
     ],
     [
      85.4214342,
      28.3292109
     ],
     [
      85.4207266,
      28.3289002
     ],
     [
      85.4203979,
      28.328413
     ],
     [
      85.4200537,
      28.3281176
     ],
     [
      85.4197613,
      28.3280962
     ],
     [
      85.4194482,
      28.3281922
     ],
     [
      85.4192233,
      28.3281206
     ],
     [
      85.4187165,
      28.3277354
     ],
     [
      85.4180522,
      28.3273943
     ],
     [
      85.4173135,
      28.3271019
     ],
     [
      85.4169226,
      28.3270516
     ],
     [
      85.4165524,
      28.3272785
     ],
     [
      85.4162185,
      28.3273836
     ],
     [
      85.4156909,
      28.327376
     ],
     [
      85.415338,
      28.3272039
     ],
     [
      85.4151906,
      28.3270666
     ],
     [
      85.4145942,
      28.3265111
     ],
     [
      85.4136912,
      28.3253629
     ],
     [
      85.4136254,
      28.3247538
     ],
     [
      85.4132827,
      28.3239437
     ],
     [
      85.4131774,
      28.3234868
     ],
     [
      85.4130732,
      28.3229447
     ],
     [
      85.4132889,
      28.3226354
     ],
     [
      85.4133122,
      28.3222569
     ],
     [
      85.4133176,
      28.321797
     ],
     [
      85.4135482,
      28.3209349
     ],
     [
      85.4136231,
      28.3203127
     ],
     [
      85.4138207,
      28.3196358
     ],
     [
      85.4139613,
      28.31916
     ],
     [
      85.4139811,
      28.3187869
     ],
     [
      85.4139506,
      28.3185791
     ],
     [
      85.4139677,
      28.3179827
     ],
     [
      85.4143105,
      28.3176403
     ],
     [
      85.4144602,
      28.3172597
     ],
     [
      85.4143773,
      28.316884
     ],
     [
      85.4142333,
      28.3162061
     ],
     [
      85.4139022,
      28.3146466
     ],
     [
      85.4138358,
      28.3141251
     ],
     [
      85.4137206,
      28.3134024
     ],
     [
      85.4137033,
      28.3128785
     ],
     [
      85.4133417,
      28.3121003
     ],
     [
      85.412949,
      28.3111149
     ],
     [
      85.4127553,
      28.3105088
     ],
     [
      85.4126846,
      28.3103386
     ],
     [
      85.4124681,
      28.3098173
     ],
     [
      85.4123885,
      28.3093574
     ],
     [
      85.4120093,
      28.3084457
     ],
     [
      85.4119388,
      28.3082761
     ],
     [
      85.4115409,
      28.3078816
     ],
     [
      85.4111002,
      28.3075798
     ],
     [
      85.4106895,
      28.307487
     ],
     [
      85.4104149,
      28.3074941
     ],
     [
      85.409664,
      28.3073516
     ],
     [
      85.4091502,
      28.3070211
     ],
     [
      85.4090187,
      28.3068201
     ],
     [
      85.4089924,
      28.3063613
     ],
     [
      85.408941,
      28.3060349
     ],
     [
      85.4087897,
      28.3059171
     ],
     [
      85.408812,
      28.3057634
     ],
     [
      85.4085926,
      28.3054781
     ],
     [
      85.4085658,
      28.3052809
     ],
     [
      85.4084409,
      28.3051173
     ],
     [
      85.4078378,
      28.3047876
     ],
     [
      85.4074441,
      28.3047396
     ],
     [
      85.407163,
      28.3046686
     ],
     [
      85.4068909,
      28.304534
     ],
     [
      85.4065969,
      28.3040253
     ],
     [
      85.4060329,
      28.3035287
     ],
     [
      85.4045487,
      28.3023422
     ],
     [
      85.4041992,
      28.3021351
     ],
     [
      85.4037581,
      28.301637
     ],
     [
      85.403576,
      28.3014963
     ],
     [
      85.4033754,
      28.3014715
     ],
     [
      85.4029428,
      28.3015494
     ],
     [
      85.4027333,
      28.3015086
     ],
     [
      85.4025689,
      28.3013026
     ],
     [
      85.4022164,
      28.3011451
     ],
     [
      85.4017728,
      28.300754
     ],
     [
      85.4011323,
      28.300567
     ],
     [
      85.4007814,
      28.3002229
     ],
     [
      85.4008343,
      28.2998741
     ],
     [
      85.4007093,
      28.2996547
     ],
     [
      85.3999188,
      28.2991592
     ],
     [
      85.3995669,
      28.299136
     ],
     [
      85.3988197,
      28.298851
     ],
     [
      85.3983657,
      28.2987016
     ],
     [
      85.3979828,
      28.2984486
     ],
     [
      85.3976698,
      28.29814
     ],
     [
      85.3974269,
      28.2977919
     ],
     [
      85.3973771,
      28.2974413
     ],
     [
      85.3973403,
      28.2971822
     ],
     [
      85.3973834,
      28.2965476
     ],
     [
      85.3974005,
      28.2962497
     ],
     [
      85.3973111,
      28.2958784
     ],
     [
      85.3974137,
      28.295421
     ],
     [
      85.3972961,
      28.2950166
     ],
     [
      85.3970918,
      28.2946476
     ],
     [
      85.3971837,
      28.2943232
     ],
     [
      85.3970851,
      28.2940481
     ],
     [
      85.3968159,
      28.2939042
     ],
     [
      85.396648,
      28.2938031
     ],
     [
      85.3962126,
      28.2935411
     ],
     [
      85.3955653,
      28.2928355
     ],
     [
      85.3951445,
      28.292429
     ],
     [
      85.394529,
      28.2919332
     ],
     [
      85.3943586,
      28.2914677
     ],
     [
      85.3939189,
      28.2908403
     ],
     [
      85.3932748,
      28.2902918
     ],
     [
      85.3934025,
      28.2899443
     ],
     [
      85.3932786,
      28.2893606
     ],
     [
      85.3928722,
      28.2889391
     ],
     [
      85.3922582,
      28.2882328
     ],
     [
      85.3918366,
      28.2882719
     ],
     [
      85.3916546,
      28.2881902
     ],
     [
      85.3914194,
      28.2880845
     ],
     [
      85.3909027,
      28.288181
     ],
     [
      85.3905951,
      28.2880877
     ],
     [
      85.3902812,
      28.2878581
     ],
     [
      85.389623,
      28.2873766
     ],
     [
      85.3873951,
      28.2863418
     ],
     [
      85.3869841,
      28.2859329
     ],
     [
      85.3864773,
      28.2846397
     ],
     [
      85.3859256,
      28.2841678
     ],
     [
      85.3849225,
      28.2837567
     ],
     [
      85.3838685,
      28.282919
     ],
     [
      85.383533,
      28.2827425
     ],
     [
      85.3832149,
      28.2826578
     ],
     [
      85.3830268,
      28.282566
     ],
     [
      85.3825389,
      28.2820608
     ],
     [
      85.3821406,
      28.2819011
     ],
     [
      85.3816699,
      28.2818453
     ],
     [
      85.3814097,
      28.2816865
     ],
     [
      85.3807758,
      28.2803737
     ],
     [
      85.3804174,
      28.2800201
     ],
     [
      85.3796586,
      28.2797444
     ],
     [
      85.3792351,
      28.279603
     ],
     [
      85.3789545,
      28.2794405
     ],
     [
      85.3785056,
      28.279029
     ],
     [
      85.3783054,
      28.2788212
     ],
     [
      85.3777589,
      28.2785144
     ],
     [
      85.3769971,
      28.2780537
     ]
    ]
   },
   "properties": {
    "name": "Lhende Khola",
    "name_local": "东林藏布 लेन्डे खोला",
    "osm_id": "way/937405875",
    "source": "OpenStreetMap via the Overpass API",
    "source_url": "https://www.openstreetmap.org/copyright",
    "licence": "ODbL 1.0, (c) OpenStreetMap contributors",
    "retrieved": "2026-08-28"
   }
  },
  {
   "type": "Feature",
   "geometry": {
    "type": "LineString",
    "coordinates": [
     [
      85.4399756,
      28.3353006
     ],
     [
      85.4396917,
      28.33521
     ],
     [
      85.4390603,
      28.3351247
     ],
     [
      85.4381106,
      28.3350805
     ],
     [
      85.4369982,
      28.3347851
     ],
     [
      85.4359413,
      28.3341811
     ],
     [
      85.4355474,
      28.3341089
     ],
     [
      85.4353248,
      28.3340153
     ],
     [
      85.4349729,
      28.3337026
     ],
     [
      85.4346735,
      28.3336351
     ],
     [
      85.4343569,
      28.3333839
     ],
     [
      85.4340109,
      28.3329865
     ],
     [
      85.4339158,
      28.3326119
     ],
     [
      85.433767,
      28.332382
     ],
     [
      85.4333761,
      28.3321262
     ],
     [
      85.4332152,
      28.3319435
     ],
     [
      85.4331131,
      28.3316876
     ],
     [
      85.4328882,
      28.3315613
     ],
     [
      85.4324402,
      28.3315308
     ],
     [
      85.4318592,
      28.3311749
     ],
     [
      85.4313707,
      28.330793
     ],
     [
      85.4311091,
      28.3306367
     ]
    ]
   },
   "properties": {
    "name": "Lhende Khola",
    "name_local": "东林藏布 लेन्डे खोला",
    "osm_id": "way/996517784",
    "source": "OpenStreetMap via the Overpass API",
    "source_url": "https://www.openstreetmap.org/copyright",
    "licence": "ODbL 1.0, (c) OpenStreetMap contributors",
    "retrieved": "2026-08-28"
   }
  }
 ]
}
