{
 "type": "FeatureCollection",
 "crs": {
  "type": "name",
  "properties": {
   "name": "urn:ogc:def:crs:OGC:1.3:CRS84"
  }
 },
 "description": "Distance bands around the seismic solution.",
 "retrieved": "2026-08-28",
 "features": [
  {
   "type": "Feature",
   "geometry": {
    "type": "Polygon",
    "coordinates": [
     [
      [
       85.515,
       28.720660802959365
      ],
      [
       85.5284218616512,
       28.720506059254852
      ],
      [
       85.54183440625664,
       28.720041935568396
      ],
      [
       85.55522832348903,
       28.719268754103677
      ],
      [
       85.5685943164524,
       28.718187051608542
      ],
      [
       85.58192310838382,
       28.716797578987673
      ],
      [
       85.59520544933845,
       28.715101300760928
      ],
      [
       85.60843212285243,
       28.71309939436755
      ],
      [
       85.621593952578,
       28.710793249317067
      ],
      [
       85.63468180888528,
       28.708184466187383
      ],
      [
       85.64768661542577,
       28.70527485547103
      ],
      [
       85.66059935565156,
       28.70206643627049
      ],
      [
       85.67341107928529,
       28.698561434843654
      ],
      [
       85.68611290873562,
       28.694762283000646
      ],
      [
       85.69869604545269,
       28.690671616353328
      ],
      [
       85.71115177621886,
       28.686292272418946
      ],
      [
       85.72347147936927,
       28.681627288579467
      ],
      [
       85.73564663093761,
       28.676679899898243
      ],
      [
       85.7476688107219,
       28.67145353679595
      ],
      [
       85.75952970826579,
       28.665951822587466
      ],
      [
       85.77122112875033,
       28.660178570881936
      ],
      [
       85.78273499879205,
       28.654137782847997
      ],
      [
       85.7940633721425,
       28.647833644346452
      ],
      [
       85.80519843528516,
       28.6412705229327
      ],
      [
       85.81613251292525,
       28.634452964731373
      ],
      [
       85.82685807336844,
       28.62738569118565
      ],
      [
       85.83736773378459,
       28.62007359568395
      ],
      [
       85.84765426535223,
       28.61252174006664
      ],
      [
       85.85771059828062,
       28.604735351015567
      ],
      [
       85.86752982670521,
       28.596719816329344
      ],
      [
       85.87710521345348,
       28.588480681087272
      ],
      [
       85.88643019467763,
       28.580023643704997
      ],
      [
       85.89549838435086,
       28.571354551885
      ],
      [
       85.9043035786245,
       28.5624793984651
      ],
      [
       85.91283976004269,
       28.553404317168187
      ],
      [
       85.9211011016123,
       28.544135578256615
      ],
      [
       85.92908197072504,
       28.534679584094476
      ],
      [
       85.93677693292983,
       28.52504286462132
      ],
      [
       85.94418075555258,
       28.515232072740755
      ],
      [
       85.95128841116173,
       28.505253979627437
      ],
      [
       85.9580950808772,
       28.495115469956133
      ],
      [
       85.96459615752111,
       28.484823537056354
      ],
      [
       85.97078724860857,
       28.4743852779964
      ],
      [
       85.97666417917677,
       28.4638078886003
      ],
      [
       85.98222299445138,
       28.453098658401622
      ],
      [
       85.98745996234868,
       28.442264965537756
      ],
      [
       85.99237157581243,
       28.431314271588526
      ],
      [
       85.99695455498455,
       28.420254116362972
      ],
      [
       86.00120584920897,
       28.409092112638067
      ],
      [
       86.0051226388675,
       28.39783594085333
      ],
      [
       86.00870233704792,
       28.386493343765085
      ],
      [
       86.01194259104321,
       28.37507212106432
      ],
      [
       86.01484128368213,
       28.363580123962027
      ],
      [
       86.01739653449104,
       28.35202524974586
      ],
      [
       86.01960670068658,
       28.340415436312057
      ],
      [
       86.02147037799988,
       28.328758656676424
      ],
      [
       86.02298640133233,
       28.31706291346842
      ],
      [
       86.02415384524332,
       28.305336233412007
      ],
      [
       86.0249720242705,
       28.293586661797278
      ],
      [
       86.02544049308331,
       28.281822256946647
      ],
      [
       86.0255590464705,
       28.270051084679466
      ],
      [
       86.02532771916239,
       28.258281212778783
      ],
      [
       86.02474678548917,
       28.246520705464174
      ],
      [
       86.02381675887598,
       28.234777617874293
      ],
      [
       86.02253839117633,
       28.223059990562913
      ],
      [
       86.02091267184491,
       28.211375844012178
      ],
      [
       86.01894082695134,
       28.199733173166766
      ],
      [
       86.01662431803628,
       28.188139941992524
      ],
      [
       86.0139648408116,
       28.176604078063228
      ],
      [
       86.01096432370613,
       28.16513346717911
      ],
      [
       86.00762492625904,
       28.153735948020543
      ],
      [
       86.00394903736228,
       28.142419306840466
      ],
      [
       85.99993927335451,
       28.131191272198972
      ],
      [
       85.99559847596807,
       28.120059509743474
      ],
      [
       85.99092971013137,
       28.109031617037747
      ],
      [
       85.98593626162878,
       28.098115118443243
      ],
      [
       85.98062163462014,
       28.087317460055857
      ],
      [
       85.97498954902227,
       28.07664600470136
      ],
      [
       85.9690439377548,
       28.066108026992715
      ],
      [
       85.96278894385277,
       28.055710708452285
      ],
      [
       85.95622891744823,
       28.04546113270202
      ],
      [
       85.94936841262374,
       28.03536628072465
      ],
      [
       85.94221218414002,
       28.025433026198705
      ],
      [
       85.93476518404033,
       28.015668130910353
      ],
      [
       85.92703255813453,
       28.00607824024476
      ],
      [
       85.91901964236531,
       27.996669878759807
      ],
      [
       85.91073195905919,
       27.987449445844803
      ],
      [
       85.90217521306542,
       27.978423211466797
      ],
      [
       85.89335528778527,
       27.969597312007142
      ],
      [
       85.88427824109476,
       27.960977746190665
      ],
      [
       85.87495030116352,
       27.952570371110035
      ],
      [
       85.8653778621729,
       27.944380898347546
      ],
      [
       85.85556747993614,
       27.93641489019672
      ],
      [
       85.8455258674234,
       27.928677755985866
      ],
      [
       85.83525989019513,
       27.921174748505905
      ],
      [
       85.82477656174612,
       27.913910960544325
      ],
      [
       85.81408303876381,
       27.906891321527546
      ],
      [
       85.80318661630376,
       27.90012059427345
      ],
      [
       85.792094722885,
       27.893603371856056
      ],
      [
       85.78081491550896,
       27.887344074584156
      ],
      [
       85.76935487460459,
       27.88134694709561
      ],
      [
       85.75772239890291,
       27.875616055568983
      ],
      [
       85.74592540024432,
       27.870155285054164
      ],
      [
       85.73397189832146,
       27.864968336923447
      ],
      [
       85.72187001536115,
       27.860058726444517
      ],
      [
       85.70962797074826,
       27.855429780476822
      ],
      [
       85.69725407559477,
       27.851084635292477
      ],
      [
       85.68475672725748,
       27.847026234523103
      ],
      [
       85.672144403807,
       27.843257327233612
      ],
      [
       85.6594256584518,
       27.839780466124164
      ],
      [
       85.6466091139201,
       27.836598005861195
      ],
      [
       85.6337034568031,
       27.83371210153849
      ],
      [
       85.6207174318625,
       27.83112470726925
      ],
      [
       85.60765983630579,
       27.828837574909777
      ],
      [
       85.59453951403229,
       27.826852252915636
      ],
      [
       85.5813653498535,
       27.825170085330868
      ],
      [
       85.56814626369044,
       27.823792210910824
      ],
      [
       85.55489120475194,
       27.82271956237916
      ],
      [
       85.54160914569641,
       27.82195286581927
      ],
      [
       85.52830907678084,
       27.821492640200706
      ],
      [
       85.515,
       27.821339197040633
      ],
      [
       85.50169092321916,
       27.821492640200706
      ],
      [
       85.48839085430359,
       27.82195286581927
      ],
      [
       85.47510879524805,
       27.82271956237916
      ],
      [
       85.46185373630955,
       27.823792210910824
      ],
      [
       85.4486346501465,
       27.825170085330868
      ],
      [
       85.43546048596771,
       27.826852252915636
      ],
      [
       85.42234016369422,
       27.828837574909777
      ],
      [
       85.4092825681375,
       27.83112470726925
      ],
      [
       85.3962965431969,
       27.83371210153849
      ],
      [
       85.3833908860799,
       27.836598005861195
      ],
      [
       85.3705743415482,
       27.839780466124164
      ],
      [
       85.357855596193,
       27.843257327233612
      ],
      [
       85.34524327274252,
       27.847026234523103
      ],
      [
       85.33274592440523,
       27.851084635292477
      ],
      [
       85.32037202925174,
       27.855429780476822
      ],
      [
       85.30812998463884,
       27.860058726444517
      ],
      [
       85.29602810167853,
       27.864968336923447
      ],
      [
       85.28407459975568,
       27.870155285054164
      ],
      [
       85.27227760109709,
       27.875616055568983
      ],
      [
       85.26064512539541,
       27.88134694709561
      ],
      [
       85.24918508449105,
       27.887344074584156
      ],
      [
       85.237905277115,
       27.893603371856056
      ],
      [
       85.22681338369624,
       27.90012059427345
      ],
      [
       85.21591696123618,
       27.906891321527546
      ],
      [
       85.20522343825388,
       27.913910960544325
      ],
      [
       85.19474010980487,
       27.921174748505905
      ],
      [
       85.18447413257658,
       27.928677755985866
      ],
      [
       85.17443252006386,
       27.93641489019672
      ],
      [
       85.16462213782708,
       27.944380898347546
      ],
      [
       85.15504969883648,
       27.952570371110035
      ],
      [
       85.14572175890524,
       27.960977746190665
      ],
      [
       85.13664471221472,
       27.969597312007142
      ],
      [
       85.12782478693458,
       27.9784232114668
      ],
      [
       85.11926804094081,
       27.987449445844803
      ],
      [
       85.11098035763467,
       27.996669878759807
      ],
      [
       85.10296744186547,
       28.00607824024476
      ],
      [
       85.09523481595967,
       28.015668130910353
      ],
      [
       85.08778781585997,
       28.025433026198705
      ],
      [
       85.08063158737625,
       28.03536628072465
      ],
      [
       85.07377108255177,
       28.04546113270202
      ],
      [
       85.06721105614723,
       28.055710708452285
      ],
      [
       85.06095606224518,
       28.066108026992715
      ],
      [
       85.05501045097773,
       28.07664600470136
      ],
      [
       85.04937836537985,
       28.087317460055854
      ],
      [
       85.04406373837121,
       28.098115118443243
      ],
      [
       85.03907028986863,
       28.109031617037747
      ],
      [
       85.03440152403194,
       28.120059509743474
      ],
      [
       85.03006072664549,
       28.131191272198972
      ],
      [
       85.02605096263771,
       28.142419306840466
      ],
      [
       85.02237507374096,
       28.153735948020543
      ],
      [
       85.01903567629387,
       28.16513346717911
      ],
      [
       85.0160351591884,
       28.176604078063228
      ],
      [
       85.01337568196371,
       28.188139941992524
      ],
      [
       85.01105917304865,
       28.199733173166766
      ],
      [
       85.00908732815509,
       28.211375844012178
      ],
      [
       85.00746160882368,
       28.223059990562906
      ],
      [
       85.00618324112402,
       28.234777617874293
      ],
      [
       85.00525321451083,
       28.246520705464174
      ],
      [
       85.0046722808376,
       28.258281212778783
      ],
      [
       85.0044409535295,
       28.270051084679466
      ],
      [
       85.00455950691668,
       28.281822256946647
      ],
      [
       85.00502797572949,
       28.293586661797278
      ],
      [
       85.00584615475667,
       28.305336233412007
      ],
      [
       85.00701359866767,
       28.31706291346842
      ],
      [
       85.00852962200013,
       28.328758656676424
      ],
      [
       85.01039329931342,
       28.340415436312057
      ],
      [
       85.01260346550895,
       28.35202524974586
      ],
      [
       85.01515871631787,
       28.363580123962027
      ],
      [
       85.01805740895679,
       28.37507212106432
      ],
      [
       85.02129766295208,
       28.386493343765085
      ],
      [
       85.0248773611325,
       28.39783594085333
      ],
      [
       85.02879415079103,
       28.409092112638067
      ],
      [
       85.03304544501545,
       28.420254116362972
      ],
      [
       85.03762842418757,
       28.431314271588526
      ],
      [
       85.0425400376513,
       28.442264965537756
      ],
      [
       85.04777700554862,
       28.453098658401622
      ],
      [
       85.05333582082324,
       28.4638078886003
      ],
      [
       85.05921275139143,
       28.4743852779964
      ],
      [
       85.06540384247887,
       28.484823537056354
      ],
      [
       85.0719049191228,
       28.495115469956133
      ],
      [
       85.07871158883827,
       28.505253979627437
      ],
      [
       85.08581924444742,
       28.515232072740755
      ],
      [
       85.09322306707017,
       28.52504286462132
      ],
      [
       85.10091802927496,
       28.534679584094476
      ],
      [
       85.1088988983877,
       28.544135578256615
      ],
      [
       85.1171602399573,
       28.553404317168187
      ],
      [
       85.1256964213755,
       28.562479398465097
      ],
      [
       85.13450161564914,
       28.571354551885
      ],
      [
       85.14356980532237,
       28.580023643704997
      ],
      [
       85.15289478654651,
       28.588480681087272
      ],
      [
       85.16247017329479,
       28.596719816329344
      ],
      [
       85.17228940171937,
       28.604735351015567
      ],
      [
       85.18234573464777,
       28.61252174006664
      ],
      [
       85.19263226621541,
       28.62007359568395
      ],
      [
       85.20314192663155,
       28.62738569118565
      ],
      [
       85.21386748707475,
       28.634452964731373
      ],
      [
       85.22480156471482,
       28.6412705229327
      ],
      [
       85.23593662785748,
       28.647833644346452
      ],
      [
       85.24726500120795,
       28.654137782847997
      ],
      [
       85.25877887124966,
       28.660178570881936
      ],
      [
       85.2704702917342,
       28.665951822587466
      ],
      [
       85.2823311892781,
       28.67145353679595
      ],
      [
       85.29435336906239,
       28.676679899898243
      ],
      [
       85.30652852063074,
       28.681627288579467
      ],
      [
       85.31884822378115,
       28.686292272418946
      ],
      [
       85.33130395454731,
       28.690671616353328
      ],
      [
       85.34388709126438,
       28.694762283000646
      ],
      [
       85.35658892071471,
       28.698561434843654
      ],
      [
       85.36940064434845,
       28.70206643627049
      ],
      [
       85.38231338457423,
       28.70527485547103
      ],
      [
       85.39531819111473,
       28.708184466187383
      ],
      [
       85.408406047422,
       28.710793249317067
      ],
      [
       85.42156787714757,
       28.71309939436755
      ],
      [
       85.43479455066155,
       28.715101300760928
      ],
      [
       85.44807689161618,
       28.716797578987673
      ],
      [
       85.4614056835476,
       28.718187051608542
      ],
      [
       85.47477167651097,
       28.719268754103677
      ],
      [
       85.48816559374336,
       28.720041935568396
      ],
      [
       85.5015781383488,
       28.720506059254852
      ],
      [
       85.515,
       28.720660802959365
      ]
     ],
     [
      [
       85.515,
       28.495830401479683
      ],
      [
       85.50830335994142,
       28.495753194417297
      ],
      [
       85.50161133870914,
       28.495521626482745
      ],
      [
       85.49492855188262,
       28.495135857396363
      ],
      [
       85.48825960855014,
       28.494596153233953
      ],
      [
       85.48160910806926,
       28.49390288623971
      ],
      [
       85.47498163683476,
       28.493056534564516
      ],
      [
       85.46838176505631,
       28.492057681929857
      ],
      [
       85.46181404354836,
       28.49090701721749
      ],
      [
       85.4552830005347,
       28.48960533398532
      ],
      [
       85.4487931384701,
       28.488153529909717
      ],
      [
       85.44234893088124,
       28.486552606154806
      ],
      [
       85.43595481922969,
       28.484803666669112
      ],
      [
       85.4296152097989,
       28.48290791741017
      ],
      [
       85.42333447060766,
       28.48086666549765
      ],
      [
       85.41711692835241,
       28.478681318295596
      ],
      [
       85.41096686538064,
       28.47635338242455
      ],
      [
       85.40488851669753,
       28.473884462704248
      ],
      [
       85.39888606700815,
       28.471276261027715
      ],
      [
       85.39296364779737,
       28.46853057516755
      ],
      [
       85.3871253344496,
       28.465649297515363
      ],
      [
       85.3813751434106,
       28.4626344137553
      ],
      [
       85.37571702939304,
       28.45948800147255
      ],
      [
       85.37015488262855,
       28.456212228698078
      ],
      [
       85.36469252616735,
       28.452809352390386
      ],
      [
       85.35933371322825,
       28.449281716855754
      ],
      [
       85.35408212460031,
       28.445631752107836
      ],
      [
       85.34894136609836,
       28.441861972168073
      ],
      [
       85.34391496607391,
       28.43797497330801
      ],
      [
       85.3390063729836,
       28.43397343223492
      ],
      [
       85.33421895301636,
       28.429860104222033
      ],
      [
       85.32955598778139,
       28.42563782118478
      ],
      [
       85.32502067205832,
       28.42130948970442
      ],
      [
       85.32061611161113,
       28.416878089000576
      ],
      [
       85.31634532106733,
       28.412346668854077
      ],
      [
       85.31221122186393,
       28.407718347481737
      ],
      [
       85.3082166402612,
       28.4029963093645
      ],
      [
       85.30436430542606,
       28.398183803030683
      ],
      [
       85.30065684758601,
       28.39328413879576
      ],
      [
       85.29709679625476,
       28.388300686460486
      ],
      [
       85.29368657853101,
       28.38323687296895
      ],
      [
       85.29042851747094,
       28.378096180028262
      ],
      [
       85.28732483053606,
       28.372882141691566
      ],
      [
       85.28437762811681,
       28.367598341906202
      ],
      [
       85.28158891213303,
       28.362248412028706
      ],
      [
       85.27896057471226,
       28.35683602830843
      ],
      [
       85.27649439694626,
       28.351364909341616
      ],
      [
       85.27419204772688,
       28.345838813497757
      ],
      [
       85.2720550826616,
       28.340261536319996
      ],
      [
       85.27008494306939,
       28.33463690790149
      ],
      [
       85.26828295505759,
       28.32896879023955
      ],
      [
       85.26665032867989,
       28.323261074569466
      ],
      [
       85.26518815717623,
       28.317517678679852
      ],
      [
       85.26389741629461,
       28.311742544211413
      ],
      [
       85.26277896369518,
       28.305939633941062
      ],
      [
       85.26183353843695,
       28.300112929053235
      ],
      [
       85.261061760547,
       28.29426642640032
      ],
      [
       85.2604641306725,
       28.288404135754153
      ],
      [
       85.26004102981561,
       28.2825300770504
      ],
      [
       85.25979271915077,
       28.27664827762783
      ],
      [
       85.259719339925,
       28.27076276946431
      ],
      [
       85.2598209134404,
       28.264877586411426
      ],
      [
       85.26009734111906,
       28.25899676142973
      ],
      [
       85.26054840465002,
       28.25312432382634
      ],
      [
       85.26117376621775,
       28.247264296496926
      ],
      [
       85.26197296881216,
       28.241420693173872
      ],
      [
       85.2629454366193,
       28.235597515682553
      ],
      [
       85.26409047549274,
       28.229798751207483
      ],
      [
       85.26540727350452,
       28.224028369570306
      ],
      [
       85.26689490157568,
       28.218290320521383
      ],
      [
       85.26855231418534,
       28.212588531046766
      ],
      [
       85.27037835015777,
       28.206926902692516
      ],
      [
       85.27237173352671,
       28.201309308907963
      ],
      [
       85.2745310744763,
       28.195739592409787
      ],
      [
       85.27685487035752,
       28.19022156256869
      ],
      [
       85.27934150677956,
       28.184758992820328
      ],
      [
       85.28198925877494,
       28.179355618102246
      ],
      [
       85.28479629203775,
       28.17401513231851
      ],
      [
       85.28776066423364,
       28.16874118583374
      ],
      [
       85.29088032638084,
       28.163537382998083
      ],
      [
       85.29415312430099,
       28.158407279704914
      ],
      [
       85.29757680013861,
       28.15335438098267
      ],
      [
       85.30114899394817,
       28.14838213862255
      ],
      [
       85.30486724534757,
       28.14349394884357
      ],
      [
       85.30872899523666,
       28.13869314999642
      ],
      [
       85.3127315875798,
       28.13398302030772
      ],
      [
       85.3168722712508,
       28.129366775666064
      ],
      [
       85.32114820193928,
       28.124847567451333
      ],
      [
       85.32555644411687,
       28.1204284804086
      ],
      [
       85.33009397306199,
       28.116112530568017
      ],
      [
       85.33475767694154,
       28.111902663212135
      ],
      [
       85.33954435894852,
       28.107801750891745
      ],
      [
       85.34445073949362,
       28.103812591491675
      ],
      [
       85.34947345844958,
       28.099937906347712
      ],
      [
       85.3546090774466,
       28.096180338415873
      ],
      [
       85.35985408221754,
       28.09254245049512
      ],
      [
       85.36520488499094,
       28.08902672350475
      ],
      [
       85.37065782693072,
       28.085635554817458
      ],
      [
       85.37620918062045,
       28.082371256649186
      ],
      [
       85.38185515259093,
       28.079236054506744
      ],
      [
       85.38759188588932,
       28.076232085694176
      ],
      [
       85.39341546268808,
       28.07336139787885
      ],
      [
       85.39932190693212,
       28.070625947718113
      ],
      [
       85.40530718702222,
       28.068027599547428
      ],
      [
       85.41136721853351,
       28.06556812413077
      ],
      [
       85.41749786696653,
       28.06324919747413
      ],
      [
       85.42369495052988,
       28.061072399702727
      ],
      [
       85.42995424295208,
       28.05903921400285
      ],
      [
       85.4362714763212,
       28.057151025628755
      ],
      [
       85.44264234395041,
       28.055409120975394
      ],
      [
       85.44906250326757,
       28.053814686717512
      ],
      [
       85.455527578727,
       28.052368809015594
      ],
      [
       85.46203316474188,
       28.05107247278925
      ],
      [
       85.46857482863511,
       28.04992656105841
      ],
      [
       85.47514811360699,
       28.04893185435276
      ],
      [
       85.48174854171786,
       28.04808903018981
      ],
      [
       85.48837161688374,
       28.0473986626219
      ],
      [
       85.49501282788322,
       28.0468612218524
      ],
      [
       85.50166765137375,
       28.046477073921377
      ],
      [
       85.50833155491536,
       28.046246480460933
      ],
      [
       85.515,
       28.046169598520315
      ],
      [
       85.52166844508464,
       28.046246480460933
      ],
      [
       85.52833234862625,
       28.046477073921377
      ],
      [
       85.53498717211679,
       28.0468612218524
      ],
      [
       85.54162838311626,
       28.0473986626219
      ],
      [
       85.54825145828214,
       28.04808903018981
      ],
      [
       85.554851886393,
       28.04893185435276
      ],
      [
       85.56142517136489,
       28.04992656105841
      ],
      [
       85.56796683525812,
       28.05107247278925
      ],
      [
       85.574472421273,
       28.052368809015594
      ],
      [
       85.58093749673243,
       28.053814686717512
      ],
      [
       85.58735765604958,
       28.055409120975394
      ],
      [
       85.5937285236788,
       28.057151025628755
      ],
      [
       85.60004575704792,
       28.05903921400285
      ],
      [
       85.60630504947012,
       28.061072399702727
      ],
      [
       85.61250213303347,
       28.06324919747413
      ],
      [
       85.61863278146649,
       28.06556812413077
      ],
      [
       85.62469281297777,
       28.068027599547428
      ],
      [
       85.63067809306787,
       28.070625947718113
      ],
      [
       85.6365845373119,
       28.07336139787885
      ],
      [
       85.6424081141107,
       28.076232085694176
      ],
      [
       85.64814484740907,
       28.079236054506744
      ],
      [
       85.65379081937955,
       28.082371256649186
      ],
      [
       85.65934217306926,
       28.085635554817458
      ],
      [
       85.66479511500906,
       28.08902672350475
      ],
      [
       85.67014591778246,
       28.09254245049512
      ],
      [
       85.6753909225534,
       28.096180338415873
      ],
      [
       85.68052654155042,
       28.099937906347712
      ],
      [
       85.68554926050636,
       28.103812591491675
      ],
      [
       85.69045564105147,
       28.107801750891745
      ],
      [
       85.69524232305845,
       28.111902663212135
      ],
      [
       85.69990602693801,
       28.116112530568017
      ],
      [
       85.70444355588312,
       28.1204284804086
      ],
      [
       85.70885179806072,
       28.124847567451333
      ],
      [
       85.7131277287492,
       28.129366775666064
      ],
      [
       85.7172684124202,
       28.13398302030772
      ],
      [
       85.72127100476334,
       28.13869314999642
      ],
      [
       85.72513275465244,
       28.14349394884357
      ],
      [
       85.72885100605183,
       28.14838213862255
      ],
      [
       85.73242319986139,
       28.15335438098267
      ],
      [
       85.735846875699,
       28.158407279704914
      ],
      [
       85.73911967361916,
       28.163537382998083
      ],
      [
       85.74223933576636,
       28.16874118583374
      ],
      [
       85.74520370796225,
       28.17401513231851
      ],
      [
       85.74801074122506,
       28.179355618102246
      ],
      [
       85.75065849322044,
       28.184758992820328
      ],
      [
       85.75314512964248,
       28.19022156256869
      ],
      [
       85.75546892552369,
       28.195739592409787
      ],
      [
       85.75762826647329,
       28.201309308907963
      ],
      [
       85.75962164984223,
       28.206926902692516
      ],
      [
       85.76144768581466,
       28.212588531046766
      ],
      [
       85.7631050984243,
       28.218290320521383
      ],
      [
       85.76459272649548,
       28.224028369570306
      ],
      [
       85.76590952450726,
       28.229798751207483
      ],
      [
       85.7670545633807,
       28.235597515682553
      ],
      [
       85.76802703118784,
       28.241420693173872
      ],
      [
       85.76882623378224,
       28.247264296496926
      ],
      [
       85.76945159534998,
       28.25312432382634
      ],
      [
       85.76990265888094,
       28.25899676142973
      ],
      [
       85.7701790865596,
       28.264877586411426
      ],
      [
       85.770280660075,
       28.27076276946431
      ],
      [
       85.77020728084922,
       28.27664827762783
      ],
      [
       85.76995897018439,
       28.2825300770504
      ],
      [
       85.76953586932748,
       28.288404135754153
      ],
      [
       85.768938239453,
       28.29426642640032
      ],
      [
       85.76816646156304,
       28.300112929053235
      ],
      [
       85.7672210363048,
       28.305939633941062
      ],
      [
       85.76610258370539,
       28.311742544211413
      ],
      [
       85.76481184282378,
       28.317517678679852
      ],
      [
       85.76334967132011,
       28.323261074569466
      ],
      [
       85.76171704494242,
       28.32896879023955
      ],
      [
       85.75991505693061,
       28.33463690790149
      ],
      [
       85.7579449173384,
       28.340261536319996
      ],
      [
       85.75580795227312,
       28.345838813497757
      ],
      [
       85.75350560305374,
       28.351364909341616
      ],
      [
       85.75103942528774,
       28.35683602830843
      ],
      [
       85.74841108786697,
       28.362248412028706
      ],
      [
       85.74562237188319,
       28.367598341906202
      ],
      [
       85.74267516946394,
       28.372882141691566
      ],
      [
       85.73957148252906,
       28.378096180028262
      ],
      [
       85.73631342146899,
       28.38323687296895
      ],
      [
       85.73290320374522,
       28.388300686460486
      ],
      [
       85.72934315241399,
       28.39328413879576
      ],
      [
       85.72563569457394,
       28.398183803030683
      ],
      [
       85.7217833597388,
       28.4029963093645
      ],
      [
       85.71778877813607,
       28.407718347481737
      ],
      [
       85.71365467893266,
       28.412346668854077
      ],
      [
       85.70938388838887,
       28.416878089000576
      ],
      [
       85.70497932794169,
       28.42130948970442
      ],
      [
       85.70044401221861,
       28.42563782118478
      ],
      [
       85.69578104698364,
       28.429860104222033
      ],
      [
       85.6909936270164,
       28.43397343223492
      ],
      [
       85.68608503392609,
       28.43797497330801
      ],
      [
       85.68105863390164,
       28.441861972168073
      ],
      [
       85.67591787539968,
       28.445631752107836
      ],
      [
       85.67066628677175,
       28.449281716855754
      ],
      [
       85.66530747383264,
       28.452809352390386
      ],
      [
       85.65984511737145,
       28.456212228698078
      ],
      [
       85.65428297060694,
       28.45948800147255
      ],
      [
       85.6486248565894,
       28.4626344137553
      ],
      [
       85.64287466555038,
       28.465649297515363
      ],
      [
       85.63703635220263,
       28.46853057516755
      ],
      [
       85.63111393299185,
       28.471276261027715
      ],
      [
       85.62511148330248,
       28.473884462704248
      ],
      [
       85.61903313461936,
       28.47635338242455
      ],
      [
       85.61288307164759,
       28.478681318295596
      ],
      [
       85.60666552939234,
       28.48086666549765
      ],
      [
       85.6003847902011,
       28.48290791741017
      ],
      [
       85.59404518077031,
       28.484803666669112
      ],
      [
       85.58765106911876,
       28.486552606154806
      ],
      [
       85.5812068615299,
       28.488153529909717
      ],
      [
       85.5747169994653,
       28.48960533398532
      ],
      [
       85.56818595645164,
       28.49090701721749
      ],
      [
       85.5616182349437,
       28.492057681929857
      ],
      [
       85.55501836316525,
       28.493056534564516
      ],
      [
       85.54839089193074,
       28.49390288623971
      ],
      [
       85.54174039144986,
       28.494596153233953
      ],
      [
       85.53507144811736,
       28.495135857396363
      ],
      [
       85.52838866129086,
       28.495521626482745
      ],
      [
       85.52169664005858,
       28.495753194417297
      ],
      [
       85.515,
       28.495830401479683
      ]
     ]
    ]
   },
   "properties": {
    "band_km": "25-50 km",
    "colour": "far",
    "inner_km": 25.0,
    "outer_km": 50.0,
    "note": "NK.KKN at Kakani, the station in this story, sits just outside at 57 km.",
    "centre": "USGS solution us7000tbwb",
    "measure": "straight-line distance from the seismic solution",
    "source": "derived from the OpenStreetMap and USGS layers in this dataset, as described in METHODS.md",
    "source_url": "METHODS.md",
    "licence": "same terms as the layers it is derived from",
    "retrieved": "2026-08-28"
   }
  },
  {
   "type": "Feature",
   "geometry": {
    "type": "Polygon",
    "coordinates": [
     [
      [
       85.515,
       28.495830401479683
      ],
      [
       85.52169664005858,
       28.495753194417297
      ],
      [
       85.52838866129086,
       28.495521626482745
      ],
      [
       85.53507144811736,
       28.495135857396363
      ],
      [
       85.54174039144986,
       28.494596153233953
      ],
      [
       85.54839089193074,
       28.49390288623971
      ],
      [
       85.55501836316525,
       28.493056534564516
      ],
      [
       85.5616182349437,
       28.492057681929857
      ],
      [
       85.56818595645164,
       28.49090701721749
      ],
      [
       85.5747169994653,
       28.48960533398532
      ],
      [
       85.5812068615299,
       28.488153529909717
      ],
      [
       85.58765106911876,
       28.486552606154806
      ],
      [
       85.59404518077031,
       28.484803666669112
      ],
      [
       85.6003847902011,
       28.48290791741017
      ],
      [
       85.60666552939234,
       28.48086666549765
      ],
      [
       85.61288307164759,
       28.478681318295596
      ],
      [
       85.61903313461936,
       28.47635338242455
      ],
      [
       85.62511148330248,
       28.473884462704248
      ],
      [
       85.63111393299185,
       28.471276261027715
      ],
      [
       85.63703635220263,
       28.46853057516755
      ],
      [
       85.64287466555038,
       28.465649297515363
      ],
      [
       85.6486248565894,
       28.4626344137553
      ],
      [
       85.65428297060694,
       28.45948800147255
      ],
      [
       85.65984511737145,
       28.456212228698078
      ],
      [
       85.66530747383264,
       28.452809352390386
      ],
      [
       85.67066628677175,
       28.449281716855754
      ],
      [
       85.67591787539968,
       28.445631752107836
      ],
      [
       85.68105863390164,
       28.441861972168073
      ],
      [
       85.68608503392609,
       28.43797497330801
      ],
      [
       85.6909936270164,
       28.43397343223492
      ],
      [
       85.69578104698364,
       28.429860104222033
      ],
      [
       85.70044401221861,
       28.42563782118478
      ],
      [
       85.70497932794169,
       28.42130948970442
      ],
      [
       85.70938388838887,
       28.416878089000576
      ],
      [
       85.71365467893266,
       28.412346668854077
      ],
      [
       85.71778877813607,
       28.407718347481737
      ],
      [
       85.7217833597388,
       28.4029963093645
      ],
      [
       85.72563569457394,
       28.398183803030683
      ],
      [
       85.72934315241399,
       28.39328413879576
      ],
      [
       85.73290320374522,
       28.388300686460486
      ],
      [
       85.73631342146899,
       28.38323687296895
      ],
      [
       85.73957148252906,
       28.378096180028262
      ],
      [
       85.74267516946394,
       28.372882141691566
      ],
      [
       85.74562237188319,
       28.367598341906202
      ],
      [
       85.74841108786697,
       28.362248412028706
      ],
      [
       85.75103942528774,
       28.35683602830843
      ],
      [
       85.75350560305374,
       28.351364909341616
      ],
      [
       85.75580795227312,
       28.345838813497757
      ],
      [
       85.7579449173384,
       28.340261536319996
      ],
      [
       85.75991505693061,
       28.33463690790149
      ],
      [
       85.76171704494242,
       28.32896879023955
      ],
      [
       85.76334967132011,
       28.323261074569466
      ],
      [
       85.76481184282378,
       28.317517678679852
      ],
      [
       85.76610258370539,
       28.311742544211413
      ],
      [
       85.7672210363048,
       28.305939633941062
      ],
      [
       85.76816646156304,
       28.300112929053235
      ],
      [
       85.768938239453,
       28.29426642640032
      ],
      [
       85.76953586932748,
       28.288404135754153
      ],
      [
       85.76995897018439,
       28.2825300770504
      ],
      [
       85.77020728084922,
       28.27664827762783
      ],
      [
       85.770280660075,
       28.27076276946431
      ],
      [
       85.7701790865596,
       28.264877586411426
      ],
      [
       85.76990265888094,
       28.25899676142973
      ],
      [
       85.76945159534998,
       28.25312432382634
      ],
      [
       85.76882623378224,
       28.247264296496926
      ],
      [
       85.76802703118784,
       28.241420693173872
      ],
      [
       85.7670545633807,
       28.235597515682553
      ],
      [
       85.76590952450726,
       28.229798751207483
      ],
      [
       85.76459272649548,
       28.224028369570306
      ],
      [
       85.7631050984243,
       28.218290320521383
      ],
      [
       85.76144768581466,
       28.212588531046766
      ],
      [
       85.75962164984223,
       28.206926902692516
      ],
      [
       85.75762826647329,
       28.201309308907963
      ],
      [
       85.75546892552369,
       28.195739592409787
      ],
      [
       85.75314512964248,
       28.19022156256869
      ],
      [
       85.75065849322044,
       28.184758992820328
      ],
      [
       85.74801074122506,
       28.179355618102246
      ],
      [
       85.74520370796225,
       28.17401513231851
      ],
      [
       85.74223933576636,
       28.16874118583374
      ],
      [
       85.73911967361916,
       28.163537382998083
      ],
      [
       85.735846875699,
       28.158407279704914
      ],
      [
       85.73242319986139,
       28.15335438098267
      ],
      [
       85.72885100605183,
       28.14838213862255
      ],
      [
       85.72513275465244,
       28.14349394884357
      ],
      [
       85.72127100476334,
       28.13869314999642
      ],
      [
       85.7172684124202,
       28.13398302030772
      ],
      [
       85.7131277287492,
       28.129366775666064
      ],
      [
       85.70885179806072,
       28.124847567451333
      ],
      [
       85.70444355588312,
       28.1204284804086
      ],
      [
       85.69990602693801,
       28.116112530568017
      ],
      [
       85.69524232305845,
       28.111902663212135
      ],
      [
       85.69045564105147,
       28.107801750891745
      ],
      [
       85.68554926050636,
       28.103812591491675
      ],
      [
       85.68052654155042,
       28.099937906347712
      ],
      [
       85.6753909225534,
       28.096180338415873
      ],
      [
       85.67014591778246,
       28.09254245049512
      ],
      [
       85.66479511500906,
       28.08902672350475
      ],
      [
       85.65934217306926,
       28.085635554817458
      ],
      [
       85.65379081937955,
       28.082371256649186
      ],
      [
       85.64814484740907,
       28.079236054506744
      ],
      [
       85.6424081141107,
       28.076232085694176
      ],
      [
       85.6365845373119,
       28.07336139787885
      ],
      [
       85.63067809306787,
       28.070625947718113
      ],
      [
       85.62469281297777,
       28.068027599547428
      ],
      [
       85.61863278146649,
       28.06556812413077
      ],
      [
       85.61250213303347,
       28.06324919747413
      ],
      [
       85.60630504947012,
       28.061072399702727
      ],
      [
       85.60004575704792,
       28.05903921400285
      ],
      [
       85.5937285236788,
       28.057151025628755
      ],
      [
       85.58735765604958,
       28.055409120975394
      ],
      [
       85.58093749673243,
       28.053814686717512
      ],
      [
       85.574472421273,
       28.052368809015594
      ],
      [
       85.56796683525812,
       28.05107247278925
      ],
      [
       85.56142517136489,
       28.04992656105841
      ],
      [
       85.554851886393,
       28.04893185435276
      ],
      [
       85.54825145828214,
       28.04808903018981
      ],
      [
       85.54162838311626,
       28.0473986626219
      ],
      [
       85.53498717211679,
       28.0468612218524
      ],
      [
       85.52833234862625,
       28.046477073921377
      ],
      [
       85.52166844508464,
       28.046246480460933
      ],
      [
       85.515,
       28.046169598520315
      ],
      [
       85.50833155491536,
       28.046246480460933
      ],
      [
       85.50166765137375,
       28.046477073921377
      ],
      [
       85.49501282788322,
       28.0468612218524
      ],
      [
       85.48837161688374,
       28.0473986626219
      ],
      [
       85.48174854171786,
       28.04808903018981
      ],
      [
       85.47514811360699,
       28.04893185435276
      ],
      [
       85.46857482863511,
       28.04992656105841
      ],
      [
       85.46203316474188,
       28.05107247278925
      ],
      [
       85.455527578727,
       28.052368809015594
      ],
      [
       85.44906250326757,
       28.053814686717512
      ],
      [
       85.44264234395041,
       28.055409120975394
      ],
      [
       85.4362714763212,
       28.057151025628755
      ],
      [
       85.42995424295208,
       28.05903921400285
      ],
      [
       85.42369495052988,
       28.061072399702727
      ],
      [
       85.41749786696653,
       28.06324919747413
      ],
      [
       85.41136721853351,
       28.06556812413077
      ],
      [
       85.40530718702222,
       28.068027599547428
      ],
      [
       85.39932190693212,
       28.070625947718113
      ],
      [
       85.39341546268808,
       28.07336139787885
      ],
      [
       85.38759188588932,
       28.076232085694176
      ],
      [
       85.38185515259093,
       28.079236054506744
      ],
      [
       85.37620918062045,
       28.082371256649186
      ],
      [
       85.37065782693072,
       28.085635554817458
      ],
      [
       85.36520488499094,
       28.08902672350475
      ],
      [
       85.35985408221754,
       28.09254245049512
      ],
      [
       85.3546090774466,
       28.096180338415873
      ],
      [
       85.34947345844958,
       28.099937906347712
      ],
      [
       85.34445073949362,
       28.103812591491675
      ],
      [
       85.33954435894852,
       28.107801750891745
      ],
      [
       85.33475767694154,
       28.111902663212135
      ],
      [
       85.33009397306199,
       28.116112530568017
      ],
      [
       85.32555644411687,
       28.1204284804086
      ],
      [
       85.32114820193928,
       28.124847567451333
      ],
      [
       85.3168722712508,
       28.129366775666064
      ],
      [
       85.3127315875798,
       28.13398302030772
      ],
      [
       85.30872899523666,
       28.13869314999642
      ],
      [
       85.30486724534757,
       28.14349394884357
      ],
      [
       85.30114899394817,
       28.14838213862255
      ],
      [
       85.29757680013861,
       28.15335438098267
      ],
      [
       85.29415312430099,
       28.158407279704914
      ],
      [
       85.29088032638084,
       28.163537382998083
      ],
      [
       85.28776066423364,
       28.16874118583374
      ],
      [
       85.28479629203775,
       28.17401513231851
      ],
      [
       85.28198925877494,
       28.179355618102246
      ],
      [
       85.27934150677956,
       28.184758992820328
      ],
      [
       85.27685487035752,
       28.19022156256869
      ],
      [
       85.2745310744763,
       28.195739592409787
      ],
      [
       85.27237173352671,
       28.201309308907963
      ],
      [
       85.27037835015777,
       28.206926902692516
      ],
      [
       85.26855231418534,
       28.212588531046766
      ],
      [
       85.26689490157568,
       28.218290320521383
      ],
      [
       85.26540727350452,
       28.224028369570306
      ],
      [
       85.26409047549274,
       28.229798751207483
      ],
      [
       85.2629454366193,
       28.235597515682553
      ],
      [
       85.26197296881216,
       28.241420693173872
      ],
      [
       85.26117376621775,
       28.247264296496926
      ],
      [
       85.26054840465002,
       28.25312432382634
      ],
      [
       85.26009734111906,
       28.25899676142973
      ],
      [
       85.2598209134404,
       28.264877586411426
      ],
      [
       85.259719339925,
       28.27076276946431
      ],
      [
       85.25979271915077,
       28.27664827762783
      ],
      [
       85.26004102981561,
       28.2825300770504
      ],
      [
       85.2604641306725,
       28.288404135754153
      ],
      [
       85.261061760547,
       28.29426642640032
      ],
      [
       85.26183353843695,
       28.300112929053235
      ],
      [
       85.26277896369518,
       28.305939633941062
      ],
      [
       85.26389741629461,
       28.311742544211413
      ],
      [
       85.26518815717623,
       28.317517678679852
      ],
      [
       85.26665032867989,
       28.323261074569466
      ],
      [
       85.26828295505759,
       28.32896879023955
      ],
      [
       85.27008494306939,
       28.33463690790149
      ],
      [
       85.2720550826616,
       28.340261536319996
      ],
      [
       85.27419204772688,
       28.345838813497757
      ],
      [
       85.27649439694626,
       28.351364909341616
      ],
      [
       85.27896057471226,
       28.35683602830843
      ],
      [
       85.28158891213303,
       28.362248412028706
      ],
      [
       85.28437762811681,
       28.367598341906202
      ],
      [
       85.28732483053606,
       28.372882141691566
      ],
      [
       85.29042851747094,
       28.378096180028262
      ],
      [
       85.29368657853101,
       28.38323687296895
      ],
      [
       85.29709679625476,
       28.388300686460486
      ],
      [
       85.30065684758601,
       28.39328413879576
      ],
      [
       85.30436430542606,
       28.398183803030683
      ],
      [
       85.3082166402612,
       28.4029963093645
      ],
      [
       85.31221122186393,
       28.407718347481737
      ],
      [
       85.31634532106733,
       28.412346668854077
      ],
      [
       85.32061611161113,
       28.416878089000576
      ],
      [
       85.32502067205832,
       28.42130948970442
      ],
      [
       85.32955598778139,
       28.42563782118478
      ],
      [
       85.33421895301636,
       28.429860104222033
      ],
      [
       85.3390063729836,
       28.43397343223492
      ],
      [
       85.34391496607391,
       28.43797497330801
      ],
      [
       85.34894136609836,
       28.441861972168073
      ],
      [
       85.35408212460031,
       28.445631752107836
      ],
      [
       85.35933371322825,
       28.449281716855754
      ],
      [
       85.36469252616735,
       28.452809352390386
      ],
      [
       85.37015488262855,
       28.456212228698078
      ],
      [
       85.37571702939304,
       28.45948800147255
      ],
      [
       85.3813751434106,
       28.4626344137553
      ],
      [
       85.3871253344496,
       28.465649297515363
      ],
      [
       85.39296364779737,
       28.46853057516755
      ],
      [
       85.39888606700815,
       28.471276261027715
      ],
      [
       85.40488851669753,
       28.473884462704248
      ],
      [
       85.41096686538064,
       28.47635338242455
      ],
      [
       85.41711692835241,
       28.478681318295596
      ],
      [
       85.42333447060766,
       28.48086666549765
      ],
      [
       85.4296152097989,
       28.48290791741017
      ],
      [
       85.43595481922969,
       28.484803666669112
      ],
      [
       85.44234893088124,
       28.486552606154806
      ],
      [
       85.4487931384701,
       28.488153529909717
      ],
      [
       85.4552830005347,
       28.48960533398532
      ],
      [
       85.46181404354836,
       28.49090701721749
      ],
      [
       85.46838176505631,
       28.492057681929857
      ],
      [
       85.47498163683476,
       28.493056534564516
      ],
      [
       85.48160910806926,
       28.49390288623971
      ],
      [
       85.48825960855014,
       28.494596153233953
      ],
      [
       85.49492855188262,
       28.495135857396363
      ],
      [
       85.50161133870914,
       28.495521626482745
      ],
      [
       85.50830335994142,
       28.495753194417297
      ],
      [
       85.515,
       28.495830401479683
      ]
     ],
     [
      [
       85.515,
       28.360932160591872
      ],
      [
       85.51232474890834,
       28.36090131702988
      ],
      [
       85.50965133595614,
       28.3608088075363
      ],
      [
       85.50698159801023,
       28.360654695673638
      ],
      [
       85.50431736939318,
       28.360439087330494
      ],
      [
       85.50166048061341,
       28.360162130648295
      ],
      [
       85.49901275709799,
       28.359824015918676
      ],
      [
       85.49637601792917,
       28.359424975451777
      ],
      [
       85.4937520745853,
       28.358965283415408
      ],
      [
       85.49114272968735,
       28.35844525564526
      ],
      [
       85.48854977575157,
       28.35786524942628
      ],
      [
       85.48597499394934,
       28.357225663245366
      ],
      [
       85.4834201528754,
       28.356526936515554
      ],
      [
       85.48088700732461,
       28.355769549271926
      ],
      [
       85.47837729707885,
       28.354954021839397
      ],
      [
       85.47589274570453,
       28.354080914472657
      ],
      [
       85.47343505936155,
       28.35315082696855
      ],
      [
       85.47100592562471,
       28.352164398251087
      ],
      [
       85.46860701231844,
       28.35112230592945
      ],
      [
       85.46623996636535,
       28.350025265829323
      ],
      [
       85.46390641264982,
       28.348874031497775
      ],
      [
       85.46160795289713,
       28.347669393682196
      ],
      [
       85.4593461645691,
       28.346412179783503
      ],
      [
       85.4571225997769,
       28.345103253284144
      ],
      [
       85.45493878421186,
       28.343743513151185
      ],
      [
       85.45279621609502,
       28.342333893215024
      ],
      [
       85.45069636514602,
       28.340875361524027
      ],
      [
       85.44864067157239,
       28.33936891967569
      ],
      [
       85.44663054507947,
       28.3378156021247
      ],
      [
       85.44466736390213,
       28.33621647546845
      ],
      [
       85.44275247385846,
       28.334572637710412
      ],
      [
       85.44088718742661,
       28.332885217502042
      ],
      [
       85.439072782845,
       28.33115537336362
      ],
      [
       85.43731050323666,
       28.32938429288463
      ],
      [
       85.43560155575841,
       28.327573191904214
      ],
      [
       85.43394711077522,
       28.325723313672373
      ],
      [
       85.43234830106061,
       28.323835927992324
      ],
      [
       85.4308062210233,
       28.32191233034481
      ],
      [
       85.42932192596096,
       28.319953840994838
      ],
      [
       85.42789643134122,
       28.317961804081577
      ],
      [
       85.4265307121108,
       28.315937586691934
      ],
      [
       85.4252257020329,
       28.313882577918598
      ],
      [
       85.42398229305334,
       28.311798187903065
      ],
      [
       85.42280133469617,
       28.309685846864472
      ],
      [
       85.42168363348868,
       28.30754700411475
      ],
      [
       85.42062995241652,
       28.305383127060914
      ],
      [
       85.41964101040915,
       28.303195700195154
      ],
      [
       85.418717481856,
       28.300986224073366
      ],
      [
       85.41785999615362,
       28.29875621428293
      ],
      [
       85.41706913728409,
       28.296507200400363
      ],
      [
       85.4163454434249,
       28.29424072493968
      ],
      [
       85.41568940659081,
       28.291958342292062
      ],
      [
       85.41510147230753,
       28.28966161765767
      ],
      [
       85.41458203931748,
       28.287352125970283
      ],
      [
       85.41413145931833,
       28.285031450815573
      ],
      [
       85.41375003673357,
       28.282701183343654
      ],
      [
       85.41343802851598,
       28.28036292117679
      ],
      [
       85.4131956439838,
       28.27801826731289
      ],
      [
       85.4130230446896,
       28.275668829025662
      ],
      [
       85.41292034432215,
       28.27331621676206
      ],
      [
       85.41288760864113,
       28.27096204303788
      ],
      [
       85.41292485544476,
       28.268607921332258
      ],
      [
       85.41303205457018,
       28.26625546498174
      ],
      [
       85.41320912792708,
       28.26390628607479
      ],
      [
       85.41345594956361,
       28.261561994347417
      ],
      [
       85.41377234576548,
       28.259224196080748
      ],
      [
       85.41415809518736,
       28.25689449300118
      ],
      [
       85.41461292901697,
       28.25457448118404
      ],
      [
       85.4151365311714,
       28.252265749961285
      ],
      [
       85.41572853852571,
       28.249969880834218
      ],
      [
       85.41638854117343,
       28.24768844639176
      ],
      [
       85.41711608271892,
       28.245423009235125
      ],
      [
       85.41791066060124,
       28.243175120909587
      ],
      [
       85.4187717264493,
       28.24094632084411
      ],
      [
       85.41969868646814,
       28.238738135299467
      ],
      [
       85.42069090185585,
       28.236552076325673
      ],
      [
       85.42174768925085,
       28.23438964072935
      ],
      [
       85.42286832120945,
       28.232252309051773
      ],
      [
       85.42405202671304,
       28.230141544558244
      ],
      [
       85.42529799170455,
       28.22805879223951
      ],
      [
       85.4266053596541,
       28.226005477825904
      ],
      [
       85.42797323215301,
       28.223983006814844
      ],
      [
       85.4294006695361,
       28.221992763512315
      ],
      [
       85.43088669153165,
       28.220036110089094
      ],
      [
       85.43243027793855,
       28.218114385652196
      ],
      [
       85.43403036933024,
       28.216228905332326
      ],
      [
       85.43568586778494,
       28.21438095938777
      ],
      [
       85.43739563764159,
       28.21257181232549
      ],
      [
       85.43915850628105,
       28.210802702039935
      ],
      [
       85.44097326493194,
       28.2090748389701
      ],
      [
       85.44283866950067,
       28.2073894052755
      ],
      [
       85.44475344142496,
       28.20574755403151
      ],
      [
       85.44671626855038,
       28.204150408444697
      ],
      [
       85.4487258060291,
       28.20259906108856
      ],
      [
       85.45078067724073,
       28.2010945731603
      ],
      [
       85.45287947473383,
       28.199637973759057
      ],
      [
       85.45502076118832,
       28.198230259186037
      ],
      [
       85.45720307039738,
       28.196872392267128
      ],
      [
       85.45942490826879,
       28.19556530169836
      ],
      [
       85.4616847538445,
       28.194309881414625
      ],
      [
       85.46398106033824,
       28.193106989982187
      ],
      [
       85.46631225619012,
       28.191957450015224
      ],
      [
       85.46867674613753,
       28.19086204761697
      ],
      [
       85.47107291230192,
       28.18982153184565
      ],
      [
       85.47349911529038,
       28.188836614205705
      ],
      [
       85.47595369531146,
       28.187907968164545
      ],
      [
       85.47843497330454,
       28.187036228695206
      ],
      [
       85.48094125208183,
       28.18622199184519
      ],
      [
       85.4834708174824,
       28.18546581433178
      ],
      [
       85.4860219395373,
       28.18476821316408
      ],
      [
       85.48859287364523,
       28.184129665292055
      ],
      [
       85.49118186175784,
       28.1835506072828
      ],
      [
       85.49378713357375,
       28.18303143502421
      ],
      [
       85.4964069077408,
       28.182572503456313
      ],
      [
       85.49903939306553,
       28.182174126330406
      ],
      [
       85.50168278972913,
       28.181836575996105
      ],
      [
       85.50433529050898,
       28.18156008321657
      ],
      [
       85.5069950820053,
       28.181344837011906
      ],
      [
       85.50966034587157,
       28.181190984530925
      ],
      [
       85.51232926004846,
       28.181098630951283
      ],
      [
       85.515,
       28.18106783940813
      ],
      [
       85.51767073995154,
       28.181098630951283
      ],
      [
       85.52033965412842,
       28.181190984530925
      ],
      [
       85.5230049179947,
       28.181344837011906
      ],
      [
       85.52566470949101,
       28.18156008321657
      ],
      [
       85.52831721027087,
       28.181836575996105
      ],
      [
       85.53096060693446,
       28.182174126330406
      ],
      [
       85.5335930922592,
       28.182572503456313
      ],
      [
       85.53621286642625,
       28.18303143502421
      ],
      [
       85.53881813824215,
       28.1835506072828
      ],
      [
       85.54140712635476,
       28.184129665292055
      ],
      [
       85.5439780604627,
       28.18476821316408
      ],
      [
       85.54652918251759,
       28.18546581433178
      ],
      [
       85.54905874791815,
       28.18622199184519
      ],
      [
       85.55156502669546,
       28.187036228695206
      ],
      [
       85.55404630468854,
       28.187907968164545
      ],
      [
       85.55650088470962,
       28.188836614205705
      ],
      [
       85.55892708769807,
       28.18982153184565
      ],
      [
       85.56132325386245,
       28.19086204761697
      ],
      [
       85.56368774380988,
       28.191957450015224
      ],
      [
       85.56601893966175,
       28.193106989982187
      ],
      [
       85.5683152461555,
       28.194309881414625
      ],
      [
       85.57057509173121,
       28.19556530169836
      ],
      [
       85.5727969296026,
       28.196872392267128
      ],
      [
       85.57497923881166,
       28.198230259186037
      ],
      [
       85.57712052526615,
       28.199637973759057
      ],
      [
       85.57921932275927,
       28.2010945731603
      ],
      [
       85.5812741939709,
       28.20259906108856
      ],
      [
       85.58328373144963,
       28.204150408444697
      ],
      [
       85.58524655857504,
       28.20574755403151
      ],
      [
       85.58716133049933,
       28.2073894052755
      ],
      [
       85.58902673506806,
       28.2090748389701
      ],
      [
       85.59084149371895,
       28.210802702039935
      ],
      [
       85.5926043623584,
       28.21257181232549
      ],
      [
       85.59431413221505,
       28.21438095938777
      ],
      [
       85.59596963066976,
       28.216228905332326
      ],
      [
       85.59756972206145,
       28.218114385652196
      ],
      [
       85.59911330846835,
       28.220036110089094
      ],
      [
       85.60059933046391,
       28.221992763512315
      ],
      [
       85.602026767847,
       28.223983006814844
      ],
      [
       85.6033946403459,
       28.22600547782591
      ],
      [
       85.60470200829545,
       28.22805879223951
      ],
      [
       85.60594797328696,
       28.230141544558244
      ],
      [
       85.60713167879054,
       28.232252309051773
      ],
      [
       85.60825231074915,
       28.23438964072935
      ],
      [
       85.60930909814415,
       28.236552076325673
      ],
      [
       85.61030131353185,
       28.238738135299467
      ],
      [
       85.61122827355071,
       28.24094632084411
      ],
      [
       85.61208933939876,
       28.243175120909587
      ],
      [
       85.61288391728107,
       28.245423009235125
      ],
      [
       85.61361145882655,
       28.24768844639176
      ],
      [
       85.61427146147429,
       28.249969880834218
      ],
      [
       85.61486346882859,
       28.252265749961285
      ],
      [
       85.61538707098303,
       28.25457448118404
      ],
      [
       85.61584190481264,
       28.25689449300118
      ],
      [
       85.61622765423452,
       28.259224196080748
      ],
      [
       85.61654405043639,
       28.261561994347417
      ],
      [
       85.61679087207293,
       28.26390628607479
      ],
      [
       85.6169679454298,
       28.26625546498174
      ],
      [
       85.61707514455524,
       28.268607921332258
      ],
      [
       85.61711239135887,
       28.27096204303788
      ],
      [
       85.61707965567786,
       28.27331621676206
      ],
      [
       85.6169769553104,
       28.275668829025662
      ],
      [
       85.6168043560162,
       28.27801826731289
      ],
      [
       85.616561971484,
       28.28036292117679
      ],
      [
       85.61624996326643,
       28.282701183343654
      ],
      [
       85.61586854068166,
       28.285031450815573
      ],
      [
       85.61541796068252,
       28.287352125970283
      ],
      [
       85.61489852769247,
       28.28966161765767
      ],
      [
       85.61431059340917,
       28.291958342292062
      ],
      [
       85.6136545565751,
       28.29424072493968
      ],
      [
       85.61293086271591,
       28.296507200400363
      ],
      [
       85.61214000384638,
       28.29875621428293
      ],
      [
       85.611282518144,
       28.300986224073366
      ],
      [
       85.61035898959085,
       28.303195700195154
      ],
      [
       85.60937004758347,
       28.305383127060914
      ],
      [
       85.6083163665113,
       28.30754700411475
      ],
      [
       85.60719866530381,
       28.309685846864472
      ],
      [
       85.60601770694666,
       28.311798187903065
      ],
      [
       85.6047742979671,
       28.313882577918598
      ],
      [
       85.60346928788918,
       28.315937586691934
      ],
      [
       85.60210356865878,
       28.317961804081577
      ],
      [
       85.60067807403904,
       28.319953840994838
      ],
      [
       85.59919377897668,
       28.32191233034481
      ],
      [
       85.59765169893939,
       28.323835927992324
      ],
      [
       85.59605288922478,
       28.325723313672373
      ],
      [
       85.59439844424159,
       28.327573191904214
      ],
      [
       85.59268949676333,
       28.32938429288463
      ],
      [
       85.590927217155,
       28.33115537336362
      ],
      [
       85.58911281257339,
       28.33288521750204
      ],
      [
       85.58724752614154,
       28.334572637710412
      ],
      [
       85.58533263609787,
       28.33621647546845
      ],
      [
       85.58336945492051,
       28.3378156021247
      ],
      [
       85.58135932842761,
       28.33936891967569
      ],
      [
       85.57930363485399,
       28.340875361524027
      ],
      [
       85.57720378390498,
       28.342333893215024
      ],
      [
       85.57506121578814,
       28.343743513151185
      ],
      [
       85.57287740022309,
       28.345103253284144
      ],
      [
       85.5706538354309,
       28.346412179783503
      ],
      [
       85.56839204710286,
       28.347669393682196
      ],
      [
       85.56609358735018,
       28.348874031497775
      ],
      [
       85.56376003363465,
       28.350025265829323
      ],
      [
       85.56139298768156,
       28.35112230592945
      ],
      [
       85.55899407437529,
       28.352164398251087
      ],
      [
       85.55656494063845,
       28.35315082696855
      ],
      [
       85.55410725429546,
       28.354080914472657
      ],
      [
       85.55162270292115,
       28.354954021839397
      ],
      [
       85.54911299267539,
       28.355769549271926
      ],
      [
       85.5465798471246,
       28.356526936515554
      ],
      [
       85.54402500605066,
       28.357225663245366
      ],
      [
       85.54145022424844,
       28.35786524942628
      ],
      [
       85.53885727031263,
       28.35844525564526
      ],
      [
       85.53624792541468,
       28.358965283415408
      ],
      [
       85.53362398207084,
       28.359424975451777
      ],
      [
       85.53098724290201,
       28.359824015918676
      ],
      [
       85.52833951938659,
       28.360162130648295
      ],
      [
       85.52568263060682,
       28.360439087330494
      ],
      [
       85.52301840198977,
       28.360654695673638
      ],
      [
       85.52034866404387,
       28.3608088075363
      ],
      [
       85.51767525109166,
       28.36090131702988
      ],
      [
       85.515,
       28.360932160591872
      ]
     ]
    ]
   },
   "properties": {
    "band_km": "10-25 km",
    "colour": "mid",
    "inner_km": 10.0,
    "outer_km": 25.0,
    "note": "Roughly the length of the upper valley below the source zone.",
    "centre": "USGS solution us7000tbwb",
    "measure": "straight-line distance from the seismic solution",
    "source": "derived from the OpenStreetMap and USGS layers in this dataset, as described in METHODS.md",
    "source_url": "METHODS.md",
    "licence": "same terms as the layers it is derived from",
    "retrieved": "2026-08-28"
   }
  },
  {
   "type": "Feature",
   "geometry": {
    "type": "Polygon",
    "coordinates": [
     [
      [
       85.515,
       28.360932160591872
      ],
      [
       85.51767525109166,
       28.36090131702988
      ],
      [
       85.52034866404387,
       28.3608088075363
      ],
      [
       85.52301840198977,
       28.360654695673638
      ],
      [
       85.52568263060682,
       28.360439087330494
      ],
      [
       85.52833951938659,
       28.360162130648295
      ],
      [
       85.53098724290201,
       28.359824015918676
      ],
      [
       85.53362398207084,
       28.359424975451777
      ],
      [
       85.53624792541468,
       28.358965283415408
      ],
      [
       85.53885727031263,
       28.35844525564526
      ],
      [
       85.54145022424844,
       28.35786524942628
      ],
      [
       85.54402500605066,
       28.357225663245366
      ],
      [
       85.5465798471246,
       28.356526936515554
      ],
      [
       85.54911299267539,
       28.355769549271926
      ],
      [
       85.55162270292115,
       28.354954021839397
      ],
      [
       85.55410725429546,
       28.354080914472657
      ],
      [
       85.55656494063845,
       28.35315082696855
      ],
      [
       85.55899407437529,
       28.352164398251087
      ],
      [
       85.56139298768156,
       28.35112230592945
      ],
      [
       85.56376003363465,
       28.350025265829323
      ],
      [
       85.56609358735018,
       28.348874031497775
      ],
      [
       85.56839204710286,
       28.347669393682196
      ],
      [
       85.5706538354309,
       28.346412179783503
      ],
      [
       85.57287740022309,
       28.345103253284144
      ],
      [
       85.57506121578814,
       28.343743513151185
      ],
      [
       85.57720378390498,
       28.342333893215024
      ],
      [
       85.57930363485399,
       28.340875361524027
      ],
      [
       85.58135932842761,
       28.33936891967569
      ],
      [
       85.58336945492051,
       28.3378156021247
      ],
      [
       85.58533263609787,
       28.33621647546845
      ],
      [
       85.58724752614154,
       28.334572637710412
      ],
      [
       85.58911281257339,
       28.33288521750204
      ],
      [
       85.590927217155,
       28.33115537336362
      ],
      [
       85.59268949676333,
       28.32938429288463
      ],
      [
       85.59439844424159,
       28.327573191904214
      ],
      [
       85.59605288922478,
       28.325723313672373
      ],
      [
       85.59765169893939,
       28.323835927992324
      ],
      [
       85.59919377897668,
       28.32191233034481
      ],
      [
       85.60067807403904,
       28.319953840994838
      ],
      [
       85.60210356865878,
       28.317961804081577
      ],
      [
       85.60346928788918,
       28.315937586691934
      ],
      [
       85.6047742979671,
       28.313882577918598
      ],
      [
       85.60601770694666,
       28.311798187903065
      ],
      [
       85.60719866530381,
       28.309685846864472
      ],
      [
       85.6083163665113,
       28.30754700411475
      ],
      [
       85.60937004758347,
       28.305383127060914
      ],
      [
       85.61035898959085,
       28.303195700195154
      ],
      [
       85.611282518144,
       28.300986224073366
      ],
      [
       85.61214000384638,
       28.29875621428293
      ],
      [
       85.61293086271591,
       28.296507200400363
      ],
      [
       85.6136545565751,
       28.29424072493968
      ],
      [
       85.61431059340917,
       28.291958342292062
      ],
      [
       85.61489852769247,
       28.28966161765767
      ],
      [
       85.61541796068252,
       28.287352125970283
      ],
      [
       85.61586854068166,
       28.285031450815573
      ],
      [
       85.61624996326643,
       28.282701183343654
      ],
      [
       85.616561971484,
       28.28036292117679
      ],
      [
       85.6168043560162,
       28.27801826731289
      ],
      [
       85.6169769553104,
       28.275668829025662
      ],
      [
       85.61707965567786,
       28.27331621676206
      ],
      [
       85.61711239135887,
       28.27096204303788
      ],
      [
       85.61707514455524,
       28.268607921332258
      ],
      [
       85.6169679454298,
       28.26625546498174
      ],
      [
       85.61679087207293,
       28.26390628607479
      ],
      [
       85.61654405043639,
       28.261561994347417
      ],
      [
       85.61622765423452,
       28.259224196080748
      ],
      [
       85.61584190481264,
       28.25689449300118
      ],
      [
       85.61538707098303,
       28.25457448118404
      ],
      [
       85.61486346882859,
       28.252265749961285
      ],
      [
       85.61427146147429,
       28.249969880834218
      ],
      [
       85.61361145882655,
       28.24768844639176
      ],
      [
       85.61288391728107,
       28.245423009235125
      ],
      [
       85.61208933939876,
       28.243175120909587
      ],
      [
       85.61122827355071,
       28.24094632084411
      ],
      [
       85.61030131353185,
       28.238738135299467
      ],
      [
       85.60930909814415,
       28.236552076325673
      ],
      [
       85.60825231074915,
       28.23438964072935
      ],
      [
       85.60713167879054,
       28.232252309051773
      ],
      [
       85.60594797328696,
       28.230141544558244
      ],
      [
       85.60470200829545,
       28.22805879223951
      ],
      [
       85.6033946403459,
       28.22600547782591
      ],
      [
       85.602026767847,
       28.223983006814844
      ],
      [
       85.60059933046391,
       28.221992763512315
      ],
      [
       85.59911330846835,
       28.220036110089094
      ],
      [
       85.59756972206145,
       28.218114385652196
      ],
      [
       85.59596963066976,
       28.216228905332326
      ],
      [
       85.59431413221505,
       28.21438095938777
      ],
      [
       85.5926043623584,
       28.21257181232549
      ],
      [
       85.59084149371895,
       28.210802702039935
      ],
      [
       85.58902673506806,
       28.2090748389701
      ],
      [
       85.58716133049933,
       28.2073894052755
      ],
      [
       85.58524655857504,
       28.20574755403151
      ],
      [
       85.58328373144963,
       28.204150408444697
      ],
      [
       85.5812741939709,
       28.20259906108856
      ],
      [
       85.57921932275927,
       28.2010945731603
      ],
      [
       85.57712052526615,
       28.199637973759057
      ],
      [
       85.57497923881166,
       28.198230259186037
      ],
      [
       85.5727969296026,
       28.196872392267128
      ],
      [
       85.57057509173121,
       28.19556530169836
      ],
      [
       85.5683152461555,
       28.194309881414625
      ],
      [
       85.56601893966175,
       28.193106989982187
      ],
      [
       85.56368774380988,
       28.191957450015224
      ],
      [
       85.56132325386245,
       28.19086204761697
      ],
      [
       85.55892708769807,
       28.18982153184565
      ],
      [
       85.55650088470962,
       28.188836614205705
      ],
      [
       85.55404630468854,
       28.187907968164545
      ],
      [
       85.55156502669546,
       28.187036228695206
      ],
      [
       85.54905874791815,
       28.18622199184519
      ],
      [
       85.54652918251759,
       28.18546581433178
      ],
      [
       85.5439780604627,
       28.18476821316408
      ],
      [
       85.54140712635476,
       28.184129665292055
      ],
      [
       85.53881813824215,
       28.1835506072828
      ],
      [
       85.53621286642625,
       28.18303143502421
      ],
      [
       85.5335930922592,
       28.182572503456313
      ],
      [
       85.53096060693446,
       28.182174126330406
      ],
      [
       85.52831721027087,
       28.181836575996105
      ],
      [
       85.52566470949101,
       28.18156008321657
      ],
      [
       85.5230049179947,
       28.181344837011906
      ],
      [
       85.52033965412842,
       28.181190984530925
      ],
      [
       85.51767073995154,
       28.181098630951283
      ],
      [
       85.515,
       28.18106783940813
      ],
      [
       85.51232926004846,
       28.181098630951283
      ],
      [
       85.50966034587157,
       28.181190984530925
      ],
      [
       85.5069950820053,
       28.181344837011906
      ],
      [
       85.50433529050898,
       28.18156008321657
      ],
      [
       85.50168278972913,
       28.181836575996105
      ],
      [
       85.49903939306553,
       28.182174126330406
      ],
      [
       85.4964069077408,
       28.182572503456313
      ],
      [
       85.49378713357375,
       28.18303143502421
      ],
      [
       85.49118186175784,
       28.1835506072828
      ],
      [
       85.48859287364523,
       28.184129665292055
      ],
      [
       85.4860219395373,
       28.18476821316408
      ],
      [
       85.4834708174824,
       28.18546581433178
      ],
      [
       85.48094125208183,
       28.18622199184519
      ],
      [
       85.47843497330454,
       28.187036228695206
      ],
      [
       85.47595369531146,
       28.187907968164545
      ],
      [
       85.47349911529038,
       28.188836614205705
      ],
      [
       85.47107291230192,
       28.18982153184565
      ],
      [
       85.46867674613753,
       28.19086204761697
      ],
      [
       85.46631225619012,
       28.191957450015224
      ],
      [
       85.46398106033824,
       28.193106989982187
      ],
      [
       85.4616847538445,
       28.194309881414625
      ],
      [
       85.45942490826879,
       28.19556530169836
      ],
      [
       85.45720307039738,
       28.196872392267128
      ],
      [
       85.45502076118832,
       28.198230259186037
      ],
      [
       85.45287947473383,
       28.199637973759057
      ],
      [
       85.45078067724073,
       28.2010945731603
      ],
      [
       85.4487258060291,
       28.20259906108856
      ],
      [
       85.44671626855038,
       28.204150408444697
      ],
      [
       85.44475344142496,
       28.20574755403151
      ],
      [
       85.44283866950067,
       28.2073894052755
      ],
      [
       85.44097326493194,
       28.2090748389701
      ],
      [
       85.43915850628105,
       28.210802702039935
      ],
      [
       85.43739563764159,
       28.21257181232549
      ],
      [
       85.43568586778494,
       28.21438095938777
      ],
      [
       85.43403036933024,
       28.216228905332326
      ],
      [
       85.43243027793855,
       28.218114385652196
      ],
      [
       85.43088669153165,
       28.220036110089094
      ],
      [
       85.4294006695361,
       28.221992763512315
      ],
      [
       85.42797323215301,
       28.223983006814844
      ],
      [
       85.4266053596541,
       28.226005477825904
      ],
      [
       85.42529799170455,
       28.22805879223951
      ],
      [
       85.42405202671304,
       28.230141544558244
      ],
      [
       85.42286832120945,
       28.232252309051773
      ],
      [
       85.42174768925085,
       28.23438964072935
      ],
      [
       85.42069090185585,
       28.236552076325673
      ],
      [
       85.41969868646814,
       28.238738135299467
      ],
      [
       85.4187717264493,
       28.24094632084411
      ],
      [
       85.41791066060124,
       28.243175120909587
      ],
      [
       85.41711608271892,
       28.245423009235125
      ],
      [
       85.41638854117343,
       28.24768844639176
      ],
      [
       85.41572853852571,
       28.249969880834218
      ],
      [
       85.4151365311714,
       28.252265749961285
      ],
      [
       85.41461292901697,
       28.25457448118404
      ],
      [
       85.41415809518736,
       28.25689449300118
      ],
      [
       85.41377234576548,
       28.259224196080748
      ],
      [
       85.41345594956361,
       28.261561994347417
      ],
      [
       85.41320912792708,
       28.26390628607479
      ],
      [
       85.41303205457018,
       28.26625546498174
      ],
      [
       85.41292485544476,
       28.268607921332258
      ],
      [
       85.41288760864113,
       28.27096204303788
      ],
      [
       85.41292034432215,
       28.27331621676206
      ],
      [
       85.4130230446896,
       28.275668829025662
      ],
      [
       85.4131956439838,
       28.27801826731289
      ],
      [
       85.41343802851598,
       28.28036292117679
      ],
      [
       85.41375003673357,
       28.282701183343654
      ],
      [
       85.41413145931833,
       28.285031450815573
      ],
      [
       85.41458203931748,
       28.287352125970283
      ],
      [
       85.41510147230753,
       28.28966161765767
      ],
      [
       85.41568940659081,
       28.291958342292062
      ],
      [
       85.4163454434249,
       28.29424072493968
      ],
      [
       85.41706913728409,
       28.296507200400363
      ],
      [
       85.41785999615362,
       28.29875621428293
      ],
      [
       85.418717481856,
       28.300986224073366
      ],
      [
       85.41964101040915,
       28.303195700195154
      ],
      [
       85.42062995241652,
       28.305383127060914
      ],
      [
       85.42168363348868,
       28.30754700411475
      ],
      [
       85.42280133469617,
       28.309685846864472
      ],
      [
       85.42398229305334,
       28.311798187903065
      ],
      [
       85.4252257020329,
       28.313882577918598
      ],
      [
       85.4265307121108,
       28.315937586691934
      ],
      [
       85.42789643134122,
       28.317961804081577
      ],
      [
       85.42932192596096,
       28.319953840994838
      ],
      [
       85.4308062210233,
       28.32191233034481
      ],
      [
       85.43234830106061,
       28.323835927992324
      ],
      [
       85.43394711077522,
       28.325723313672373
      ],
      [
       85.43560155575841,
       28.327573191904214
      ],
      [
       85.43731050323666,
       28.32938429288463
      ],
      [
       85.439072782845,
       28.33115537336362
      ],
      [
       85.44088718742661,
       28.332885217502042
      ],
      [
       85.44275247385846,
       28.334572637710412
      ],
      [
       85.44466736390213,
       28.33621647546845
      ],
      [
       85.44663054507947,
       28.3378156021247
      ],
      [
       85.44864067157239,
       28.33936891967569
      ],
      [
       85.45069636514602,
       28.340875361524027
      ],
      [
       85.45279621609502,
       28.342333893215024
      ],
      [
       85.45493878421186,
       28.343743513151185
      ],
      [
       85.4571225997769,
       28.345103253284144
      ],
      [
       85.4593461645691,
       28.346412179783503
      ],
      [
       85.46160795289713,
       28.347669393682196
      ],
      [
       85.46390641264982,
       28.348874031497775
      ],
      [
       85.46623996636535,
       28.350025265829323
      ],
      [
       85.46860701231844,
       28.35112230592945
      ],
      [
       85.47100592562471,
       28.352164398251087
      ],
      [
       85.47343505936155,
       28.35315082696855
      ],
      [
       85.47589274570453,
       28.354080914472657
      ],
      [
       85.47837729707885,
       28.354954021839397
      ],
      [
       85.48088700732461,
       28.355769549271926
      ],
      [
       85.4834201528754,
       28.356526936515554
      ],
      [
       85.48597499394934,
       28.357225663245366
      ],
      [
       85.48854977575157,
       28.35786524942628
      ],
      [
       85.49114272968735,
       28.35844525564526
      ],
      [
       85.4937520745853,
       28.358965283415408
      ],
      [
       85.49637601792917,
       28.359424975451777
      ],
      [
       85.49901275709799,
       28.359824015918676
      ],
      [
       85.50166048061341,
       28.360162130648295
      ],
      [
       85.50431736939318,
       28.360439087330494
      ],
      [
       85.50698159801023,
       28.360654695673638
      ],
      [
       85.50965133595614,
       28.3608088075363
      ],
      [
       85.51232474890834,
       28.36090131702988
      ],
      [
       85.515,
       28.360932160591872
      ]
     ]
    ]
   },
   "properties": {
    "band_km": "0-10 km",
    "colour": "near",
    "inner_km": 0.0,
    "outer_km": 10.0,
    "note": "ICIMOD reports a seismometer at Jilong, about 12 km away, picking up the signal.",
    "centre": "USGS solution us7000tbwb",
    "measure": "straight-line distance from the seismic solution",
    "source": "derived from the OpenStreetMap and USGS layers in this dataset, as described in METHODS.md",
    "source_url": "METHODS.md",
    "licence": "same terms as the layers it is derived from",
    "retrieved": "2026-08-28"
   }
  }
 ]
}
