{
 "type": "FeatureCollection",
 "crs": {
  "type": "name",
  "properties": {
   "name": "urn:ogc:def:crs:OGC:1.3:CRS84"
  }
 },
 "description": "The reviewed USGS solution for the signal, now typed as a landslide.",
 "retrieved": "2026-08-28",
 "features": [
  {
   "type": "Feature",
   "geometry": {
    "type": "Point",
    "coordinates": [
     85.515,
     28.271,
     0
    ]
   },
   "properties": {
    "id": "us7000tbwb",
    "mag": 5.2,
    "magType": "ms_vx",
    "place": "55 km NW of Kodāri̇̄, Nepal",
    "time": 1787712730000,
    "updated": 1787900310526,
    "type": "landslide",
    "status": "reviewed",
    "title": "M 5.2 Landslide - 55 km NW of Kodāri̇̄, Nepal",
    "url": "https://earthquake.usgs.gov/earthquakes/eventpage/us7000tbwb",
    "source": "USGS FDSN event service, event us7000tbwb",
    "source_url": "https://earthquake.usgs.gov/earthquakes/eventpage/us7000tbwb",
    "licence": "public domain (U.S. Geological Survey)",
    "retrieved": "2026-08-28"
   }
  }
 ]
}
